% program   : RTKPOST-QT ver.2.4.3 Emlid b28
% inp file  : /media/renato/OPERATION/Research/In preparation/ION ITM 2021/data/darw3000.14o
% inp file  : /media/renato/OPERATION/Research/In preparation/ION ITM 2021/data/brdc3000.14n
% obs start : 2014/10/27 00:00:00.0 GPST (week1816  86400.0s)
% obs end   : 2014/10/27 00:14:30.0 GPST (week1816  87270.0s)
%
% (lat/lon/height=WGS84/ellipsoidal,Q=1:fix,2:float,3:sbas,4:dgps,5:single,6:ppp,ns=# of satellites)
%  GPST                  latitude(deg) longitude(deg)  height(m)   Q  ns   sdn(m)   sde(m)   sdu(m)  sdne(m)  sdeu(m)  sdun(m) age(s)  ratio
2014/10/27 00:00:00.000  -12.843704719  131.132739401   122.4601   5  12   4.0257   4.6388  10.1851  -0.3461  -3.0002   3.2090   0.00    0.0
2014/10/27 00:00:30.000  -12.843703740  131.132739422   122.6460   5  12   4.0311   4.6426  10.1852  -0.3629  -2.9827   3.2199   0.00    0.0
2014/10/27 00:01:00.000  -12.843704599  131.132738813   121.9997   5  12   4.0364   4.6465  10.1853  -0.3788  -2.9650   3.2304   0.00    0.0
2014/10/27 00:01:30.000  -12.843704933  131.132739030   121.9768   5  12   4.0417   4.6505  10.1852  -0.3938  -2.9470   3.2404   0.00    0.0
2014/10/27 00:02:00.000  -12.843705250  131.132738605   122.0317   5  12   4.0470   4.6545  10.1851  -0.4080  -2.9288   3.2501   0.00    0.0
2014/10/27 00:02:30.000  -12.843705691  131.132738754   122.3465   5  12   4.0523   4.6585  10.1850  -0.4215  -2.9103   3.2593   0.00    0.0
2014/10/27 00:03:00.000  -12.843706160  131.132738185   122.4399   5  12   4.0575   4.6626  10.1847  -0.4343  -2.8916   3.2682   0.00    0.0
2014/10/27 00:03:30.000  -12.843706476  131.132738964   122.2072   5  12   4.0627   4.6668  10.1845  -0.4467  -2.8726   3.2766   0.00    0.0
2014/10/27 00:04:00.000  -12.843706912  131.132738373   122.0136   5  12   4.0678   4.6711  10.1841  -0.4585  -2.8533   3.2847   0.00    0.0
2014/10/27 00:04:30.000  -12.843706992  131.132737809   122.0712   5  12   4.0729   4.6754  10.1838  -0.4699  -2.8338   3.2923   0.00    0.0
2014/10/27 00:05:00.000  -12.843706753  131.132737668   122.1504   5  12   4.0780   4.6797  10.1834  -0.4808  -2.8141   3.2996   0.00    0.0
2014/10/27 00:05:30.000  -12.843705883  131.132737910   122.2300   5  12   4.0830   4.6842  10.1829  -0.4914  -2.7940   3.3064   0.00    0.0
2014/10/27 00:06:00.000  -12.843706310  131.132737936   122.1991   5  12   4.0880   4.6887  10.1824  -0.5016  -2.7737   3.3129   0.00    0.0
2014/10/27 00:06:30.000  -12.843706587  131.132738263   122.1933   5  12   4.0930   4.6932  10.1819  -0.5115  -2.7531   3.3190   0.00    0.0
2014/10/27 00:07:00.000  -12.843706287  131.132738138   122.3519   5  12   4.0979   4.6978  10.1814  -0.5210  -2.7322   3.3247   0.00    0.0
2014/10/27 00:07:30.000  -12.843706457  131.132738436   122.2852   5  12   4.1028   4.7025  10.1809  -0.5303  -2.7110   3.3301   0.00    0.0
2014/10/27 00:08:00.000  -12.843706580  131.132739352   122.3693   5  12   4.1076   4.7073  10.1804  -0.5394  -2.6895   3.3350   0.00    0.0
2014/10/27 00:08:30.000  -12.843707459  131.132737817   121.8956   5  13   3.9364   4.5827   9.4706  -1.2670  -3.3481   2.5905   0.00    0.0
2014/10/27 00:09:00.000  -12.843708032  131.132737581   121.7116   5  13   3.9428   4.5848   9.4748  -1.2744  -3.3355   2.6021   0.00    0.0
2014/10/27 00:09:30.000  -12.843709080  131.132737784   121.7440   5  13   3.9492   4.5869   9.4790  -1.2817  -3.3226   2.6133   0.00    0.0
2014/10/27 00:10:00.000  -12.843709304  131.132738445   121.6535   5  13   3.9556   4.5890   9.4833  -1.2888  -3.3095   2.6242   0.00    0.0
2014/10/27 00:10:30.000  -12.843708718  131.132738893   121.7850   5  13   3.9619   4.5911   9.4875  -1.2958  -3.2963   2.6346   0.00    0.0
2014/10/27 00:11:00.000  -12.843709483  131.132738634   121.7858   5  13   3.9683   4.5933   9.4917  -1.3025  -3.2829   2.6446   0.00    0.0
2014/10/27 00:11:30.000  -12.843709570  131.132737173   121.7388   5  13   3.9746   4.5954   9.4959  -1.3091  -3.2694   2.6542   0.00    0.0
2014/10/27 00:12:00.000  -12.843709596  131.132737337   121.8313   5  13   3.9809   4.5977   9.5002  -1.3156  -3.2556   2.6635   0.00    0.0
2014/10/27 00:12:30.000  -12.843709361  131.132737467   121.9261   5  13   3.9872   4.5999   9.5045  -1.3219  -3.2417   2.6723   0.00    0.0
2014/10/27 00:13:00.000  -12.843709542  131.132736841   121.8320   5  13   3.9935   4.6022   9.5088  -1.3281  -3.2275   2.6808   0.00    0.0
2014/10/27 00:13:30.000  -12.843709195  131.132737957   121.7401   5  13   3.9998   4.6045   9.5131  -1.3341  -3.2132   2.6889   0.00    0.0
2014/10/27 00:14:00.000  -12.843709584  131.132738365   121.6817   5  13   4.0061   4.6068   9.5175  -1.3399  -3.1987   2.6966   0.00    0.0
2014/10/27 00:14:30.000  -12.843710301  131.132738458   121.7258   5  13   4.0123   4.6092   9.5219  -1.3457  -3.1840   2.7040   0.00    0.0
