% program   : RTKPOST-QT ver.2.4.3 Emlid b28
% inp file  : /media/renato/OPERATION/Research/In preparation/ION ITM 2021/data/darw130.14o
% inp file  : /media/renato/OPERATION/Research/In preparation/ION ITM 2021/data/brdc130.14n
% obs start : 2014/01/13 00:00:00.0 GPST (week1775  86400.0s)
% obs end   : 2014/01/13 03:59:30.0 GPST (week1775 100770.0s)
%
% (lat/lon/height=WGS84/ellipsoidal,Q=1:fix,2:float,3:sbas,4:dgps,5:single,6:ppp,ns=# of satellites)
%  GPST                  latitude(deg) longitude(deg)  height(m)   Q  ns   sdn(m)   sde(m)   sdu(m)  sdne(m)  sdeu(m)  sdun(m) age(s)  ratio
2014/01/13 00:00:00.000  -12.843708862  131.132743039   122.5975   5   9   3.1479   3.9150  11.3209  -0.9767   1.9107  -3.1330   0.00    0.0
2014/01/13 00:00:30.000  -12.843709086  131.132741270   122.4293   5   9   3.1450   3.9155  11.3814  -0.9708   1.9260  -3.1335   0.00    0.0
2014/01/13 00:01:00.000  -12.843709258  131.132740838   122.1688   5   9   3.1422   3.9161  11.4421  -0.9648   1.9410  -3.1339   0.00    0.0
2014/01/13 00:01:30.000  -12.843709630  131.132740525   122.2627   5   9   3.1394   3.9166  11.5030  -0.9587   1.9558  -3.1342   0.00    0.0
2014/01/13 00:02:00.000  -12.843709542  131.132741827   122.4645   5   9   3.1368   3.9172  11.5641  -0.9524   1.9702  -3.1345   0.00    0.0
2014/01/13 00:02:30.000  -12.843708051  131.132742236   122.5356   5   9   3.1341   3.9178  11.6252  -0.9459   1.9843  -3.1346   0.00    0.0
2014/01/13 00:03:00.000  -12.843707355  131.132742566   122.6961   5   9   3.1316   3.9183  11.6865  -0.9392   1.9982  -3.1346   0.00    0.0
2014/01/13 00:03:30.000  -12.843707135  131.132742421   122.7030   5   9   3.1291   3.9189  11.7478  -0.9324   2.0117  -3.1346   0.00    0.0
2014/01/13 00:04:00.000  -12.843706941  131.132741868   122.6753   5   9   3.1266   3.9195  11.8091  -0.9254   2.0249  -3.1344   0.00    0.0
2014/01/13 00:04:30.000  -12.843707465  131.132742222   122.5263   5   9   3.1243   3.9201  11.8704  -0.9182   2.0378  -3.1340   0.00    0.0
2014/01/13 00:05:00.000  -12.843707269  131.132741755   122.4636   5   9   3.1220   3.9207  11.9316  -0.9109   2.0503  -3.1335   0.00    0.0
2014/01/13 00:05:30.000  -12.843707274  131.132741465   122.4656   5   9   3.1197   3.9213  11.9927  -0.9033   2.0625  -3.1329   0.00    0.0
2014/01/13 00:06:00.000  -12.843707348  131.132740422   122.5778   5   9   3.1176   3.9219  12.0536  -0.8956   2.0744  -3.1320   0.00    0.0
2014/01/13 00:06:30.000  -12.843707623  131.132740206   122.8163   5   9   3.1154   3.9225  12.1143  -0.8876   2.0859  -3.1310   0.00    0.0
2014/01/13 00:07:00.000  -12.843707389  131.132739845   122.7569   5   9   3.1134   3.9231  12.1748  -0.8795   2.0971  -3.1298   0.00    0.0
2014/01/13 00:07:30.000  -12.843707064  131.132738851   122.7638   5   9   3.1114   3.9237  12.2348  -0.8711   2.1078  -3.1284   0.00    0.0
2014/01/13 00:08:00.000  -12.843707157  131.132737658   122.7876   5   9   3.1095   3.9243  12.2946  -0.8625   2.1182  -3.1268   0.00    0.0
2014/01/13 00:08:30.000  -12.843707783  131.132738863   123.2222   5   9   3.1077   3.9249  12.3538  -0.8537   2.1282  -3.1250   0.00    0.0
2014/01/13 00:09:00.000  -12.843707791  131.132738924   123.3870   5   9   3.1059   3.9255  12.4126  -0.8447   2.1378  -3.1229   0.00    0.0
2014/01/13 00:09:30.000  -12.843707060  131.132738070   123.4513   5   9   3.1042   3.9261  12.4709  -0.8354   2.1470  -3.1206   0.00    0.0
2014/01/13 00:10:00.000  -12.843706545  131.132737863   123.1955   5   9   3.1025   3.9267  12.5285  -0.8259   2.1558  -3.1180   0.00    0.0
2014/01/13 00:10:30.000  -12.843706116  131.132739219   123.1596   5   9   3.1010   3.9273  12.5854  -0.8161   2.1641  -3.1151   0.00    0.0
2014/01/13 00:11:00.000  -12.843705959  131.132739730   123.3763   5   9   3.0995   3.9280  12.6416  -0.8061   2.1720  -3.1119   0.00    0.0
2014/01/13 00:11:30.000  -12.843705631  131.132739337   123.3141   5   9   3.0980   3.9286  12.6971  -0.7958   2.1795  -3.1085   0.00    0.0
2014/01/13 00:12:00.000  -12.843705457  131.132739928   123.5818   5   9   3.0966   3.9292  12.7516  -0.7852   2.1865  -3.1046   0.00    0.0
2014/01/13 00:12:30.000  -12.843705843  131.132741233   123.5486   5   9   3.0953   3.9298  12.8052  -0.7743   2.1931  -3.1005   0.00    0.0
2014/01/13 00:13:00.000  -12.843705990  131.132741596   123.5707   5   9   3.0941   3.9305  12.8578  -0.7630   2.1991  -3.0960   0.00    0.0
2014/01/13 00:13:30.000  -12.843707053  131.132741648   123.5574   5   9   3.0929   3.9311  12.9093  -0.7515   2.2047  -3.0912   0.00    0.0
2014/01/13 00:14:00.000  -12.843707619  131.132741899   123.8209   5   9   3.0918   3.9317  12.9597  -0.7396   2.2098  -3.0859   0.00    0.0
2014/01/13 00:14:30.000  -12.843707842  131.132740725   123.7389   5   9   3.0908   3.9323  13.0088  -0.7274   2.2144  -3.0803   0.00    0.0
2014/01/13 00:15:00.000  -12.843707956  131.132740322   123.3804   5   9   3.0899   3.9330  13.0567  -0.7148   2.2185  -3.0743   0.00    0.0
2014/01/13 00:15:30.000  -12.843708175  131.132740056   123.0161   5   9   3.0890   3.9336  13.1033  -0.7018   2.2221  -3.0678   0.00    0.0
2014/01/13 00:16:00.000  -12.843708860  131.132739915   123.0111   5   9   3.0882   3.9342  13.1484  -0.6884   2.2252  -3.0609   0.00    0.0
2014/01/13 00:16:30.000  -12.843708691  131.132739925   123.0085   5   9   3.0874   3.9349  13.1920  -0.6746   2.2278  -3.0535   0.00    0.0
2014/01/13 00:17:00.000  -12.843707536  131.132739816   123.0800   5   9   3.0868   3.9355  13.2341  -0.6603   2.2298  -3.0457   0.00    0.0
2014/01/13 00:17:30.000  -12.843706149  131.132740033   123.0756   5   9   3.0862   3.9361  13.2745  -0.6456   2.2314  -3.0374   0.00    0.0
2014/01/13 00:18:00.000  -12.843705720  131.132739774   123.0148   5   9   3.0857   3.9368  13.3133  -0.6303   2.2323  -3.0287   0.00    0.0
2014/01/13 00:18:30.000  -12.843705634  131.132739659   123.3113   5   9   3.0852   3.9374  13.3503  -0.6144   2.2328  -3.0194   0.00    0.0
2014/01/13 00:19:00.000  -12.843705925  131.132740709   123.5995   5   9   3.0849   3.9381  13.3856  -0.5980   2.2327  -3.0096   0.00    0.0
2014/01/13 00:19:30.000  -12.843705528  131.132741195   123.6992   5   9   3.0846   3.9387  13.4189  -0.5809   2.2321  -2.9993   0.00    0.0
2014/01/13 00:20:00.000  -12.843705520  131.132740118   123.7035   5   9   3.0844   3.9394  13.4503  -0.5631   2.2309  -2.9884   0.00    0.0
2014/01/13 00:20:30.000  -12.843705699  131.132739456   123.7989   5   9   3.0842   3.9400  13.4797  -0.5445   2.2292  -2.9770   0.00    0.0
2014/01/13 00:21:00.000  -12.843706303  131.132738884   123.9277   5   9   3.0842   3.9407  13.5071  -0.5251   2.2270  -2.9650   0.00    0.0
2014/01/13 00:21:30.000  -12.843707014  131.132739220   124.1436   5   9   3.0842   3.9414  13.5324  -0.5047   2.2242  -2.9525   0.00    0.0
2014/01/13 00:22:00.000  -12.843707093  131.132738670   124.0182   5   9   3.0843   3.9421  13.5556  -0.4833   2.2210  -2.9394   0.00    0.0
2014/01/13 00:22:30.000  -12.843707241  131.132740143   123.8763   5   9   3.0845   3.9428  13.5766  -0.4607   2.2172  -2.9257   0.00    0.0
2014/01/13 00:23:00.000  -12.843706915  131.132740350   123.8237   5   9   3.0848   3.9435  13.5954  -0.4367   2.2128  -2.9114   0.00    0.0
2014/01/13 00:23:30.000  -12.843706117  131.132741551   123.8558   5   9   3.0851   3.9442  13.6120  -0.4111   2.2080  -2.8965   0.00    0.0
2014/01/13 00:24:00.000  -12.843706172  131.132741686   124.1485   5   9   3.0856   3.9449  13.6262  -0.3835   2.2027  -2.8810   0.00    0.0
2014/01/13 00:24:30.000  -12.843706742  131.132742454   124.2976   5   9   3.0861   3.9456  13.6382  -0.3536   2.1969  -2.8648   0.00    0.0
2014/01/13 00:25:00.000  -12.843706477  131.132741363   124.3906   5   9   3.0868   3.9463  13.6478  -0.3207   2.1907  -2.8481   0.00    0.0
2014/01/13 00:25:30.000  -12.843706377  131.132741315   124.4910   5   9   3.0875   3.9471  13.6551  -0.2837   2.1839  -2.8307   0.00    0.0
2014/01/13 00:26:00.000  -12.843706506  131.132741179   124.4816   5   9   3.0883   3.9478  13.6600  -0.2408   2.1768  -2.8127   0.00    0.0
2014/01/13 00:26:30.000  -12.843706341  131.132740987   124.2488   5   9   3.0892   3.9486  13.6625  -0.1879   2.1692  -2.7941   0.00    0.0
2014/01/13 00:27:00.000  -12.843706297  131.132740290   124.0891   5   9   3.0902   3.9494  13.6627  -0.1117   2.1612  -2.7748   0.00    0.0
2014/01/13 00:27:30.000  -12.843705889  131.132740632   124.3662   5   9   3.0913   3.9502  13.6605   0.1023   2.1527  -2.7549   0.00    0.0
2014/01/13 00:28:00.000  -12.843705766  131.132739899   124.6370   5   9   3.0925   3.9510  13.6559   0.1831   2.1440  -2.7344   0.00    0.0
2014/01/13 00:28:30.000  -12.843705711  131.132740774   124.7594   5   9   3.0938   3.9518  13.6489   0.2382   2.1348  -2.7132   0.00    0.0
2014/01/13 00:29:00.000  -12.843705918  131.132740648   124.8977   5   9   3.0952   3.9527  13.6396   0.2830   2.1253  -2.6914   0.00    0.0
2014/01/13 00:29:30.000  -12.843706730  131.132740419   124.8272   5   9   3.0967   3.9536  13.6280   0.3217   2.1156  -2.6690   0.00    0.0
2014/01/13 00:30:00.000  -12.843706112  131.132739783   124.8957   5   9   3.0983   3.9544  13.6140   0.3565   2.1055  -2.6459   0.00    0.0
2014/01/13 00:30:30.000  -12.843705117  131.132739374   124.8549   5   9   3.1000   3.9553  13.5978   0.3882   2.0951  -2.6221   0.00    0.0
2014/01/13 00:31:00.000  -12.843705363  131.132739182   124.8743   5   9   3.1018   3.9563  13.5793   0.4177   2.0845  -2.5978   0.00    0.0
2014/01/13 00:31:30.000  -12.843706341  131.132739658   124.6825   5   9   3.1037   3.9572  13.5586   0.4454   2.0737  -2.5728   0.00    0.0
2014/01/13 00:32:00.000  -12.843706165  131.132739081   124.6459   5   9   3.1058   3.9582  13.5358   0.4715   2.0627  -2.5471   0.00    0.0
2014/01/13 00:32:30.000  -12.843705071  131.132739895   124.5054   5   9   3.1080   3.9591  13.5107   0.4963   2.0516  -2.5208   0.00    0.0
2014/01/13 00:33:00.000  -12.843704796  131.132741301   124.2080   5   9   3.1102   3.9601  13.4837   0.5201   2.0403  -2.4939   0.00    0.0
2014/01/13 00:33:30.000  -12.843704945  131.132740326   123.8424   5   9   3.1126   3.9612  13.4545   0.5429   2.0289  -2.4664   0.00    0.0
2014/01/13 00:34:00.000  -12.843704863  131.132739853   123.9072   5   9   3.1151   3.9622  13.4234   0.5648   2.0174  -2.4382   0.00    0.0
2014/01/13 00:34:30.000  -12.843704825  131.132739603   124.0541   5   9   3.1178   3.9633  13.3904   0.5860   2.0059  -2.4093   0.00    0.0
2014/01/13 00:35:00.000  -12.843704154  131.132739053   124.0935   5   9   3.1205   3.9644  13.3554   0.6065   1.9943  -2.3799   0.00    0.0
2014/01/13 00:35:30.000  -12.843704056  131.132738197   124.1931   5   9   3.1234   3.9655  13.3187   0.6263   1.9828  -2.3498   0.00    0.0
2014/01/13 00:36:00.000  -12.843704792  131.132738617   124.4455   5   9   3.1264   3.9666  13.2802   0.6457   1.9712  -2.3190   0.00    0.0
2014/01/13 00:36:30.000  -12.843705109  131.132738558   124.1045   5   9   3.1296   3.9678  13.2401   0.6645   1.9598  -2.2876   0.00    0.0
2014/01/13 00:37:00.000  -12.843705183  131.132739050   124.0034   5   9   3.1328   3.9690  13.1983   0.6828   1.9484  -2.2556   0.00    0.0
2014/01/13 00:37:30.000  -12.843704856  131.132738849   123.9834   5   9   3.1362   3.9702  13.1550   0.7007   1.9372  -2.2229   0.00    0.0
2014/01/13 00:38:00.000  -12.843705384  131.132738575   124.3174   5   9   3.1397   3.9715  13.1102   0.7183   1.9261  -2.1895   0.00    0.0
2014/01/13 00:38:30.000  -12.843705757  131.132738430   124.6038   5   9   3.1434   3.9727  13.0639   0.7354   1.9151  -2.1555   0.00    0.0
2014/01/13 00:39:00.000  -12.843705894  131.132737514   124.8307   5   9   3.1472   3.9740  13.0164   0.7522   1.9044  -2.1208   0.00    0.0
2014/01/13 00:39:30.000  -12.843705534  131.132737220   124.8568   5   9   3.1511   3.9754  12.9675   0.7687   1.8939  -2.0854   0.00    0.0
2014/01/13 00:40:00.000  -12.843705058  131.132736802   124.7984   5   9   3.1552   3.9767  12.9175   0.7848   1.8837  -2.0492   0.00    0.0
2014/01/13 00:40:30.000  -12.843705264  131.132736627   124.6627   5   9   3.1594   3.9781  12.8663   0.8007   1.8737  -2.0123   0.00    0.0
2014/01/13 00:41:00.000  -12.843705800  131.132737508   124.6896   5   9   3.1637   3.9795  12.8141   0.8163   1.8641  -1.9747   0.00    0.0
2014/01/13 00:41:30.000  -12.843705316  131.132736932   124.7163   5   9   3.1682   3.9810  12.7609   0.8317   1.8547  -1.9363   0.00    0.0
2014/01/13 00:42:00.000  -12.843704943  131.132736593   124.6573   5   9   3.1729   3.9824  12.7067   0.8468   1.8458  -1.8970   0.00    0.0
2014/01/13 00:42:30.000  -12.843705027  131.132737380   124.7481   5   9   3.1776   3.9839  12.6517   0.8618   1.8372  -1.8569   0.00    0.0
2014/01/13 00:43:00.000  -12.843705329  131.132738265   124.8824   5   9   3.1826   3.9854  12.5960   0.8765   1.8290  -1.8159   0.00    0.0
2014/01/13 00:43:30.000  -12.843705676  131.132737799   124.6760   5   9   3.1876   3.9870  12.5395   0.8910   1.8212  -1.7740   0.00    0.0
2014/01/13 00:44:00.000  -12.843706312  131.132738707   124.5455   5   9   3.1929   3.9886  12.4823   0.9053   1.8138  -1.7310   0.00    0.0
2014/01/13 00:44:30.000  -12.843706552  131.132739264   124.6239   5   9   3.1982   3.9902  12.4246   0.9195   1.8069  -1.6870   0.00    0.0
2014/01/13 00:45:00.000  -12.843705880  131.132739373   124.6138   5   9   3.2037   3.9918  12.3664   0.9335   1.8005  -1.6419   0.00    0.0
2014/01/13 00:45:30.000  -12.843705684  131.132738785   124.6231   5   9   3.2094   3.9935  12.3077   0.9473   1.7946  -1.5955   0.00    0.0
2014/01/13 00:46:00.000  -12.843705796  131.132738324   124.6168   5   9   3.2153   3.9952  12.2485   0.9610   1.7891  -1.5479   0.00    0.0
2014/01/13 00:46:30.000  -12.843706182  131.132738793   124.5574   5   9   3.2212   3.9970  12.1891   0.9746   1.7842  -1.4987   0.00    0.0
2014/01/13 00:47:00.000  -12.843706570  131.132739190   124.7446   5   9   3.2274   3.9987  12.1294   0.9880   1.7798  -1.4480   0.00    0.0
2014/01/13 00:47:30.000  -12.843706685  131.132739808   124.9949   5   9   3.2337   4.0005  12.0694   1.0013   1.7759  -1.3956   0.00    0.0
2014/01/13 00:48:00.000  -12.843706208  131.132739703   125.0826   5   9   3.2401   4.0023  12.0092   1.0145   1.7726  -1.3412   0.00    0.0
2014/01/13 00:48:30.000  -12.843705367  131.132739020   124.9534   5   9   3.2468   4.0042  11.9490   1.0276   1.7698  -1.2846   0.00    0.0
2014/01/13 00:49:00.000  -12.843705582  131.132739395   124.7237   5   9   3.2535   4.0061  11.8886   1.0406   1.7675  -1.2256   0.00    0.0
2014/01/13 00:49:30.000  -12.843705544  131.132737441   124.4025   5   9   3.2605   4.0080  11.8283   1.0536   1.7659  -1.1637   0.00    0.0
2014/01/13 00:50:00.000  -12.843705423  131.132737858   124.4553   5   9   3.2676   4.0099  11.7679   1.0664   1.7648  -1.0984   0.00    0.0
2014/01/13 00:50:30.000  -12.843705484  131.132738741   124.5204   5   9   3.2749   4.0119  11.7076   1.0791   1.7642  -1.0291   0.00    0.0
2014/01/13 00:51:00.000  -12.843704650  131.132738482   124.4012   5   9   3.2823   4.0139  11.6475   1.0918   1.7643  -0.9550   0.00    0.0
2014/01/13 00:51:30.000  -12.843703918  131.132737636   124.4106   5   9   3.2899   4.0160  11.5874   1.1045   1.7649  -0.8748   0.00    0.0
2014/01/13 00:52:00.000  -12.843703949  131.132737758   124.4660   5   9   3.2977   4.0181  11.5276   1.1170   1.7660  -0.7865   0.00    0.0
2014/01/13 00:52:30.000  -12.843704129  131.132737988   124.7820   5   9   3.3056   4.0202  11.4680   1.1296   1.7678  -0.6873   0.00    0.0
2014/01/13 00:53:00.000  -12.843704597  131.132738980   124.7112   5   9   3.3137   4.0223  11.4087   1.1420   1.7701  -0.5712   0.00    0.0
2014/01/13 00:53:30.000  -12.843705304  131.132738271   124.6821   5   9   3.3220   4.0245  11.3496   1.1545   1.7730  -0.4248   0.00    0.0
2014/01/13 00:54:00.000  -12.843705766  131.132738923   124.6174   5   9   3.3305   4.0267  11.2909   1.1669   1.7764  -0.1865   0.00    0.0
2014/01/13 00:54:30.000  -12.843706329  131.132737928   124.6309   5   9   3.3392   4.0289  11.2325   1.1792   1.7804   0.3328   0.00    0.0
2014/01/13 00:55:00.000  -12.843706242  131.132738314   124.5167   5   9   3.3480   4.0312  11.1746   1.1916   1.7849   0.5061   0.00    0.0
2014/01/13 00:55:30.000  -12.843705834  131.132739263   124.4544   5   9   3.3570   4.0335  11.1170   1.2039   1.7899   0.6335   0.00    0.0
2014/01/13 00:56:00.000  -12.843705257  131.132740787   124.4006   5   9   3.3662   4.0359  11.0599   1.2162   1.7955   0.7393   0.00    0.0
2014/01/13 00:56:30.000  -12.843704825  131.132740145   124.4259   5   9   3.3756   4.0383  11.0033   1.2285   1.8017   0.8317   0.00    0.0
2014/01/13 00:57:00.000  -12.843705041  131.132740167   124.4855   5   9   3.3851   4.0407  10.9471   1.2408   1.8083   0.9148   0.00    0.0
2014/01/13 00:57:30.000  -12.843705204  131.132740687   124.6293   5   9   3.3949   4.0432  10.8915   1.2531   1.8154   0.9910   0.00    0.0
2014/01/13 00:58:00.000  -12.843705482  131.132741159   124.8454   5   9   3.4048   4.0456  10.8364   1.2654   1.8231   1.0618   0.00    0.0
2014/01/13 00:58:30.000  -12.843706191  131.132741486   124.8488   5   9   3.4149   4.0482  10.7819   1.2777   1.8312   1.1282   0.00    0.0
2014/01/13 00:59:00.000  -12.843706583  131.132742090   124.5967   5   9   3.4252   4.0508  10.7279   1.2900   1.8398   1.1910   0.00    0.0
2014/01/13 00:59:30.000  -12.843705489  131.132741825   124.5315   5   9   3.4358   4.0534  10.6746   1.3024   1.8489   1.2507   0.00    0.0
2014/01/13 01:00:00.000  -12.843704301  131.132741732   124.4629   5   9   3.4465   4.0560  10.6218   1.3147   1.8585   1.3077   0.00    0.0
2014/01/13 01:00:30.000  -12.843703591  131.132741716   124.5065   5   9   3.4574   4.0587  10.5697   1.3271   1.8685   1.3625   0.00    0.0
2014/01/13 01:01:00.000  -12.843703835  131.132741423   124.4529   5   9   3.4685   4.0614  10.5182   1.3395   1.8789   1.4153   0.00    0.0
2014/01/13 01:01:30.000  -12.843704346  131.132741102   124.3036   5   9   3.4798   4.0642  10.4674   1.3520   1.8898   1.4663   0.00    0.0
2014/01/13 01:02:00.000  -12.843704502  131.132742089   124.1138   5   9   3.4913   4.0670  10.4172   1.3645   1.9011   1.5158   0.00    0.0
2014/01/13 01:02:30.000  -12.843704199  131.132741675   123.7699   5   9   3.5030   4.0699  10.3678   1.3770   1.9128   1.5638   0.00    0.0
2014/01/13 01:03:00.000  -12.843704727  131.132741069   124.0691   5   8   3.8796   4.2662  11.4639   2.0041  -1.6239  -2.3679   0.00    0.0
2014/01/13 01:03:30.000  -12.843705086  131.132740610   124.1082   5   8   3.8895   4.2658  11.3988   2.0077  -1.5724  -2.3157   0.00    0.0
2014/01/13 01:04:00.000  -12.843706002  131.132740364   124.0366   5   8   3.8996   4.2656  11.3344   2.0114  -1.5190  -2.2623   0.00    0.0
2014/01/13 01:04:30.000  -12.843704953  131.132739943   123.8298   5   8   3.9100   4.2654  11.2709   2.0153  -1.4635  -2.2076   0.00    0.0
2014/01/13 01:05:00.000  -12.843704465  131.132740124   123.8729   5   8   3.9205   4.2653  11.2082   2.0194  -1.4058  -2.1516   0.00    0.0
2014/01/13 01:05:30.000  -12.843704271  131.132740995   123.7431   5   8   3.9313   4.2653  11.1463   2.0236  -1.3454  -2.0941   0.00    0.0
2014/01/13 01:06:00.000  -12.843704854  131.132741015   123.9394   5   8   3.9423   4.2653  11.0852   2.0279  -1.2822  -2.0349   0.00    0.0
2014/01/13 01:06:30.000  -12.843705458  131.132740898   124.0760   5   8   3.9536   4.2655  11.0251   2.0324  -1.2155  -1.9740   0.00    0.0
2014/01/13 01:07:00.000  -12.843706444  131.132741135   124.1272   5   8   3.9651   4.2657  10.9658   2.0371  -1.1449  -1.9111   0.00    0.0
2014/01/13 01:07:30.000  -12.843705717  131.132741128   123.7624   5   8   3.9768   4.2660  10.9074   2.0419  -1.0696  -1.8460   0.00    0.0
2014/01/13 01:08:00.000  -12.843705293  131.132741324   123.9554   5   8   3.9887   4.2664  10.8499   2.0470  -0.9884  -1.7785   0.00    0.0
2014/01/13 01:08:30.000  -12.843705673  131.132741636   124.0830   5   8   4.0009   4.2669  10.7934   2.0522  -0.8997  -1.7083   0.00    0.0
2014/01/13 01:09:00.000  -12.843706392  131.132741369   124.4382   5   8   4.0134   4.2675  10.7377   2.0575  -0.8013  -1.6350   0.00    0.0
2014/01/13 01:09:30.000  -12.843706418  131.132741172   124.6198   5   8   4.0261   4.2682  10.6830   2.0631  -0.6888  -1.5582   0.00    0.0
2014/01/13 01:10:00.000  -12.843706036  131.132739697   124.5005   5   8   4.0391   4.2689  10.6293   2.0688  -0.5536  -1.4773   0.00    0.0
2014/01/13 01:10:30.000  -12.843705495  131.132738911   124.0993   5   8   4.0523   4.2698  10.5765   2.0748  -0.3721  -1.3915   0.00    0.0
2014/01/13 01:11:00.000  -12.843706489  131.132739792   123.7993   5   8   4.0658   4.2708  10.5246   2.0809   0.1727  -1.3000   0.00    0.0
2014/01/13 01:11:30.000  -12.843706671  131.132740793   123.6467   5   8   4.0795   4.2718  10.4737   2.0873   0.4453  -1.2012   0.00    0.0
2014/01/13 01:12:00.000  -12.843706521  131.132740929   123.6208   5   8   4.0935   4.2730  10.4238   2.0938   0.6058  -1.0933   0.00    0.0
2014/01/13 01:12:30.000  -12.843707075  131.132740623   124.1139   5   9   3.6735   4.2339   9.6222   1.8262   1.6763   2.4869   0.00    0.0
2014/01/13 01:13:00.000  -12.843707304  131.132740943   124.0902   5   9   3.6866   4.2352   9.5958   1.8328   1.7161   2.5183   0.00    0.0
2014/01/13 01:13:30.000  -12.843706713  131.132742233   124.1784   5   9   3.6998   4.2365   9.5701   1.8396   1.7553   2.5496   0.00    0.0
2014/01/13 01:14:00.000  -12.843706472  131.132742911   124.2773   5   9   3.7133   4.2380   9.5449   1.8465   1.7939   2.5809   0.00    0.0
2014/01/13 01:14:30.000  -12.843706641  131.132742404   124.0389   5   9   3.7270   4.2395   9.5204   1.8535   1.8319   2.6122   0.00    0.0
2014/01/13 01:15:00.000  -12.843706384  131.132741900   123.7044   5   9   3.7408   4.2411   9.4964   1.8608   1.8695   2.6435   0.00    0.0
2014/01/13 01:15:30.000  -12.843706172  131.132741906   123.7471   5   9   3.7549   4.2429   9.4731   1.8682   1.9065   2.6748   0.00    0.0
2014/01/13 01:16:00.000  -12.843706694  131.132741774   123.8877   5   9   3.7692   4.2447   9.4503   1.8758   1.9431   2.7061   0.00    0.0
2014/01/13 01:16:30.000  -12.843706615  131.132741323   124.1565   5   9   3.7836   4.2466   9.4283   1.8835   1.9793   2.7375   0.00    0.0
2014/01/13 01:17:00.000  -12.843706913  131.132741002   124.3282   5   9   3.7983   4.2486   9.4068   1.8914   2.0151   2.7689   0.00    0.0
2014/01/13 01:17:30.000  -12.843706681  131.132741418   124.4233   5   9   3.8131   4.2507   9.3860   1.8995   2.0505   2.8004   0.00    0.0
2014/01/13 01:18:00.000  -12.843707209  131.132742003   124.2444   5   9   3.8282   4.2530   9.3658   1.9078   2.0855   2.8318   0.00    0.0
2014/01/13 01:18:30.000  -12.843708071  131.132742406   124.0458   5   9   3.8435   4.2553   9.3463   1.9162   2.1202   2.8634   0.00    0.0
2014/01/13 01:19:00.000  -12.843708131  131.132742409   124.1745   5   9   3.8590   4.2577   9.3275   1.9248   2.1547   2.8949   0.00    0.0
2014/01/13 01:19:30.000  -12.843707033  131.132743123   124.1905   5   9   3.8747   4.2602   9.3093   1.9336   2.1888   2.9266   0.00    0.0
2014/01/13 01:20:00.000  -12.843705591  131.132744495   124.0716   5   9   3.8906   4.2628   9.2917   1.9426   2.2227   2.9583   0.00    0.0
2014/01/13 01:20:30.000  -12.843704777  131.132743578   124.0423   5   9   3.9067   4.2656   9.2749   1.9518   2.2563   2.9901   0.00    0.0
2014/01/13 01:21:00.000  -12.843705964  131.132742676   123.9296   5   9   3.9230   4.2684   9.2587   1.9612   2.2896   3.0219   0.00    0.0
2014/01/13 01:21:30.000  -12.843706779  131.132743903   123.8957   5   9   3.9396   4.2713   9.2432   1.9708   2.3228   3.0538   0.00    0.0
2014/01/13 01:22:00.000  -12.843707282  131.132744202   123.8426   5   9   3.9564   4.2744   9.2284   1.9806   2.3557   3.0858   0.00    0.0
2014/01/13 01:22:30.000  -12.843707041  131.132744493   124.0441   5   9   3.9734   4.2776   9.2142   1.9906   2.3885   3.1179   0.00    0.0
2014/01/13 01:23:00.000  -12.843706596  131.132744852   124.3378   5   9   3.9906   4.2808   9.2008   2.0007   2.4211   3.1501   0.00    0.0
2014/01/13 01:23:30.000  -12.843706553  131.132745351   124.4415   5   9   4.0081   4.2842   9.1881   2.0111   2.4535   3.1824   0.00    0.0
2014/01/13 01:24:00.000  -12.843706511  131.132744805   124.3130   5   9   4.0257   4.2877   9.1760   2.0217   2.4857   3.2148   0.00    0.0
2014/01/13 01:24:30.000  -12.843705735  131.132744425   124.2673   5   9   4.0436   4.2913   9.1646   2.0325   2.5179   3.2473   0.00    0.0
2014/01/13 01:25:00.000  -12.843705376  131.132744740   124.3119   5   9   4.0618   4.2951   9.1540   2.0435   2.5499   3.2799   0.00    0.0
2014/01/13 01:25:30.000  -12.843704959  131.132744994   124.3738   5   9   4.0801   4.2989   9.1440   2.0547   2.5817   3.3127   0.00    0.0
2014/01/13 01:26:00.000  -12.843705515  131.132745234   124.3795   5   9   4.0987   4.3029   9.1348   2.0662   2.6135   3.3455   0.00    0.0
2014/01/13 01:26:30.000  -12.843706145  131.132744797   124.4252   5   9   4.1176   4.3070   9.1262   2.0778   2.6452   3.3785   0.00    0.0
2014/01/13 01:27:00.000  -12.843708292  131.132741689   123.6658   5  10   3.7234   3.8431   8.0661   0.9199  -1.0689   1.9939   0.00    0.0
2014/01/13 01:27:30.000  -12.843707992  131.132741567   123.6613   5  10   3.7353   3.8408   8.0556   0.9125  -1.0208   2.0275   0.00    0.0
2014/01/13 01:28:00.000  -12.843708203  131.132741754   123.7139   5  10   3.7473   3.8386   8.0454   0.9051  -0.9705   2.0607   0.00    0.0
2014/01/13 01:28:30.000  -12.843708409  131.132741905   123.5400   5  10   3.7593   3.8364   8.0356   0.8977  -0.9176   2.0936   0.00    0.0
2014/01/13 01:29:00.000  -12.843708746  131.132742108   123.4745   5  10   3.7715   3.8342   8.0263   0.8904  -0.8616   2.1261   0.00    0.0
2014/01/13 01:29:30.000  -12.843709377  131.132742555   123.4065   5  10   3.7839   3.8321   8.0173   0.8830  -0.8019   2.1583   0.00    0.0
2014/01/13 01:30:00.000  -12.843709682  131.132741659   123.3335   5  10   3.7963   3.8300   8.0088   0.8756  -0.7376   2.1902   0.00    0.0
2014/01/13 01:30:30.000  -12.843708915  131.132742187   123.5166   5  10   3.8088   3.8280   8.0007   0.8683  -0.6674   2.2218   0.00    0.0
2014/01/13 01:31:00.000  -12.843708604  131.132742574   123.7800   5  10   3.8215   3.8261   7.9930   0.8609  -0.5892   2.2532   0.00    0.0
2014/01/13 01:31:30.000  -12.843708756  131.132742435   123.7754   5  10   3.8343   3.8241   7.9858   0.8535  -0.4991   2.2842   0.00    0.0
2014/01/13 01:32:00.000  -12.843707667  131.132742033   123.8625   5  10   3.8471   3.8223   7.9789   0.8462  -0.3890   2.3150   0.00    0.0
2014/01/13 01:32:30.000  -12.843707326  131.132742303   123.8580   5  10   3.8601   3.8204   7.9725   0.8389  -0.2319   2.3456   0.00    0.0
2014/01/13 01:33:00.000  -12.843707894  131.132741737   123.7247   5   9   4.3533   3.8233   8.2651   0.5625   0.6775   1.1269   0.00    0.0
2014/01/13 01:33:30.000  -12.843710020  131.132741106   123.4523   5   9   4.3651   3.8217   8.2570   0.5488   0.7468   1.1973   0.00    0.0
2014/01/13 01:34:00.000  -12.843711204  131.132741577   123.3852   5   9   4.3769   3.8201   8.2494   0.5348   0.8100   1.2641   0.00    0.0
2014/01/13 01:34:30.000  -12.843710997  131.132740719   123.4594   5   9   4.3889   3.8185   8.2423   0.5206   0.8685   1.3277   0.00    0.0
2014/01/13 01:35:00.000  -12.843710341  131.132741326   123.6140   5   9   4.4009   3.8170   8.2355   0.5061   0.9232   1.3887   0.00    0.0
2014/01/13 01:35:30.000  -12.843709509  131.132741206   123.6334   5   9   4.4130   3.8155   8.2292   0.4913   0.9747   1.4473   0.00    0.0
2014/01/13 01:36:00.000  -12.843709597  131.132741401   123.6155   5   9   4.4252   3.8141   8.2233   0.4762   1.0236   1.5038   0.00    0.0
2014/01/13 01:36:30.000  -12.843709650  131.132742189   123.5565   5   9   4.4374   3.8128   8.2179   0.4608   1.0701   1.5584   0.00    0.0
2014/01/13 01:37:00.000  -12.843708865  131.132740900   123.4551   5   9   4.4498   3.8115   8.2129   0.4450   1.1146   1.6114   0.00    0.0
2014/01/13 01:37:30.000  -12.843708963  131.132742148   123.6039   5   9   4.4622   3.8102   8.2083   0.4289   1.1573   1.6629   0.00    0.0
2014/01/13 01:38:00.000  -12.843708711  131.132743030   123.7063   5   9   4.4747   3.8090   8.2042   0.4123   1.1985   1.7129   0.00    0.0
2014/01/13 01:38:30.000  -12.843708821  131.132743475   123.6904   5   9   4.4872   3.8078   8.2005   0.3952   1.2382   1.7617   0.00    0.0
2014/01/13 01:39:00.000  -12.843709275  131.132742992   123.6671   5   9   4.4998   3.8067   8.1972   0.3776   1.2767   1.8093   0.00    0.0
2014/01/13 01:39:30.000  -12.843709482  131.132742483   123.5374   5   9   4.5125   3.8057   8.1944   0.3594   1.3140   1.8558   0.00    0.0
2014/01/13 01:40:00.000  -12.843709284  131.132741897   123.2698   5   9   4.5253   3.8047   8.1920   0.3405   1.3502   1.9013   0.00    0.0
2014/01/13 01:40:30.000  -12.843710854  131.132741136   123.1818   5   9   4.5381   3.8037   8.1900   0.3208   1.3855   1.9458   0.00    0.0
2014/01/13 01:41:00.000  -12.843711408  131.132740975   123.2346   5   9   4.5509   3.8028   8.1885   0.3001   1.4199   1.9894   0.00    0.0
2014/01/13 01:41:30.000  -12.843711327  131.132741870   123.2878   5   9   4.5638   3.8019   8.1874   0.2783   1.4534   2.0322   0.00    0.0
2014/01/13 01:42:00.000  -12.843710009  131.132744405   122.8660   5   8   4.6123   4.0714   8.7537   0.9481  -1.5205   1.5909   0.00    0.0
2014/01/13 01:42:30.000  -12.843708658  131.132745905   123.1110   5   8   4.6251   4.0665   8.7486   0.9378  -1.4694   1.6468   0.00    0.0
2014/01/13 01:43:00.000  -12.843708689  131.132745811   123.1194   5   8   4.6380   4.0616   8.7440   0.9276  -1.4167   1.7010   0.00    0.0
2014/01/13 01:43:30.000  -12.843710267  131.132744546   123.0291   5   8   4.6510   4.0568   8.7400   0.9174  -1.3622   1.7534   0.00    0.0
2014/01/13 01:44:00.000  -12.843710788  131.132744007   123.1061   5   8   4.6639   4.0522   8.7365   0.9073  -1.3058   1.8044   0.00    0.0
2014/01/13 01:44:30.000  -12.843710258  131.132745795   123.1022   5   8   4.6769   4.0476   8.7335   0.8973  -1.2472   1.8539   0.00    0.0
2014/01/13 01:45:00.000  -12.843709584  131.132746547   123.1105   5   8   4.6899   4.0431   8.7310   0.8873  -1.1860   1.9021   0.00    0.0
2014/01/13 01:45:30.000  -12.843710759  131.132747671   123.2016   5   8   4.7030   4.0387   8.7290   0.8773  -1.1218   1.9490   0.00    0.0
2014/01/13 01:46:00.000  -12.843711616  131.132747308   123.2870   5   8   4.7160   4.0344   8.7275   0.8674  -1.0540   1.9948   0.00    0.0
2014/01/13 01:46:30.000  -12.843712978  131.132746446   123.0334   5   8   4.7290   4.0302   8.7266   0.8576  -0.9818   2.0395   0.00    0.0
2014/01/13 01:47:00.000  -12.843712530  131.132744837   122.8318   5   8   4.7421   4.0260   8.7261   0.8478  -0.9043   2.0832   0.00    0.0
2014/01/13 01:47:30.000  -12.843711714  131.132745387   122.7408   5   8   4.7551   4.0220   8.7261   0.8382  -0.8198   2.1259   0.00    0.0
2014/01/13 01:48:00.000  -12.843710485  131.132745075   122.8840   5   8   4.7682   4.0181   8.7266   0.8286  -0.7259   2.1677   0.00    0.0
2014/01/13 01:48:30.000  -12.843709300  131.132744903   123.0730   5   8   4.7812   4.0142   8.7276   0.8191  -0.6183   2.2086   0.00    0.0
2014/01/13 01:49:00.000  -12.843708257  131.132744853   123.1888   5   8   4.7942   4.0104   8.7291   0.8096  -0.4880   2.2487   0.00    0.0
2014/01/13 01:49:30.000  -12.843708121  131.132745634   123.1583   5   8   4.8072   4.0067   8.7311   0.8003  -0.3074   2.2879   0.00    0.0
2014/01/13 01:50:00.000  -12.843709257  131.132745919   122.9177   5   8   4.8202   4.0031   8.7335   0.7911   0.2208   2.3263   0.00    0.0
2014/01/13 01:50:30.000  -12.843710148  131.132747021   122.9301   5   8   4.8331   3.9996   8.7364   0.7820   0.4378   2.3640   0.00    0.0
2014/01/13 01:51:00.000  -12.843711087  131.132746440   122.8960   5   8   4.8459   3.9962   8.7398   0.7730   0.5781   2.4010   0.00    0.0
2014/01/13 01:51:30.000  -12.843711954  131.132747132   122.9865   5   8   4.8588   3.9929   8.7436   0.7641   0.6902   2.4372   0.00    0.0
2014/01/13 01:52:00.000  -12.843710806  131.132746921   123.0401   5   8   4.8715   3.9896   8.7479   0.7554   0.7864   2.4727   0.00    0.0
2014/01/13 01:52:30.000  -12.843710602  131.132746457   123.2683   5   8   4.8842   3.9865   8.7527   0.7467   0.8718   2.5076   0.00    0.0
2014/01/13 01:53:00.000  -12.843711511  131.132745467   123.3060   5   8   4.8969   3.9834   8.7578   0.7382   0.9495   2.5417   0.00    0.0
2014/01/13 01:53:30.000  -12.843712357  131.132745995   123.0539   5   8   4.9094   3.9804   8.7635   0.7299   1.0212   2.5753   0.00    0.0
2014/01/13 01:54:00.000  -12.843712764  131.132745843   122.9208   5   8   4.9219   3.9775   8.7695   0.7217   1.0881   2.6082   0.00    0.0
2014/01/13 01:54:30.000  -12.843712367  131.132745474   122.8240   5   8   4.9343   3.9747   8.7760   0.7137   1.1511   2.6404   0.00    0.0
2014/01/13 01:55:00.000  -12.843713150  131.132745179   122.8346   5   8   4.9466   3.9720   8.7829   0.7058   1.2108   2.6720   0.00    0.0
2014/01/13 01:55:30.000  -12.843712409  131.132744901   122.8999   5   8   4.9588   3.9694   8.7902   0.6981   1.2677   2.7030   0.00    0.0
2014/01/13 01:56:00.000  -12.843711348  131.132745032   123.0593   5   8   4.9709   3.9669   8.7979   0.6905   1.3221   2.7334   0.00    0.0
2014/01/13 01:56:30.000  -12.843710532  131.132746047   122.8992   5   8   4.9829   3.9644   8.8061   0.6832   1.3743   2.7632   0.00    0.0
2014/01/13 01:57:00.000  -12.843709427  131.132746386   122.8963   5   8   4.9947   3.9620   8.8146   0.6760   1.4247   2.7924   0.00    0.0
2014/01/13 01:57:30.000  -12.843709115  131.132745751   122.9274   5   8   5.0065   3.9598   8.8235   0.6690   1.4734   2.8210   0.00    0.0
2014/01/13 01:58:00.000  -12.843709901  131.132746787   123.0122   5   8   5.0180   3.9576   8.8328   0.6623   1.5205   2.8491   0.00    0.0
2014/01/13 01:58:30.000  -12.843710374  131.132748124   122.9277   5   8   5.0295   3.9555   8.8425   0.6557   1.5663   2.8765   0.00    0.0
2014/01/13 01:59:00.000  -12.843709984  131.132747331   122.9520   5   8   5.0408   3.9535   8.8525   0.6493   1.6109   2.9033   0.00    0.0
2014/01/13 01:59:30.000  -12.843710303  131.132746211   122.7576   5   8   5.0520   3.9515   8.8629   0.6432   1.6543   2.9296   0.00    0.0
2014/01/13 02:00:00.000  -12.843710805  131.132746116   122.9418   5   8   5.0629   3.9497   8.8737   0.6373   1.6967   2.9552   0.00    0.0
2014/01/13 02:00:30.000  -12.843712304  131.132745479   123.0855   5   8   5.0738   3.9480   8.8848   0.6316   1.7381   2.9803   0.00    0.0
2014/01/13 02:01:00.000  -12.843712676  131.132745860   122.9460   5   8   5.0844   3.9463   8.8962   0.6261   1.7786   3.0048   0.00    0.0
2014/01/13 02:01:30.000  -12.843712051  131.132746532   122.8833   5   8   5.0949   3.9447   8.9080   0.6209   1.8183   3.0287   0.00    0.0
2014/01/13 02:02:00.000  -12.843712152  131.132746341   123.0174   5   8   5.1051   3.9432   8.9202   0.6159   1.8573   3.0520   0.00    0.0
2014/01/13 02:02:30.000  -12.843710922  131.132746718   123.3707   5   8   5.1152   3.9419   8.9326   0.6111   1.8956   3.0747   0.00    0.0
2014/01/13 02:03:00.000  -12.843710851  131.132746600   123.2301   5   8   5.1251   3.9406   8.9454   0.6066   1.9332   3.0968   0.00    0.0
2014/01/13 02:03:30.000  -12.843711579  131.132745783   122.8316   5   8   5.1348   3.9393   8.9584   0.6024   1.9702   3.1183   0.00    0.0
2014/01/13 02:04:00.000  -12.843712312  131.132746644   122.7397   5   8   5.1443   3.9382   8.9718   0.5984   2.0067   3.1393   0.00    0.0
2014/01/13 02:04:30.000  -12.843710454  131.132747502   122.7862   5   8   5.1535   3.9372   8.9855   0.5947   2.0426   3.1596   0.00    0.0
2014/01/13 02:05:00.000  -12.843711654  131.132747526   122.5251   5   8   5.1625   3.9363   8.9994   0.5912   2.0781   3.1793   0.00    0.0
2014/01/13 02:05:30.000  -12.843712843  131.132747648   122.4909   5   8   5.1713   3.9354   9.0137   0.5880   2.1130   3.1984   0.00    0.0
2014/01/13 02:06:00.000  -12.843712134  131.132746343   122.4371   5   8   5.1799   3.9347   9.0282   0.5850   2.1476   3.2169   0.00    0.0
2014/01/13 02:06:30.000  -12.843710788  131.132745662   122.6291   5   8   5.1883   3.9340   9.0430   0.5823   2.1817   3.2348   0.00    0.0
2014/01/13 02:07:00.000  -12.843709290  131.132746439   122.9654   5   8   5.1964   3.9334   9.0580   0.5798   2.2155   3.2521   0.00    0.0
2014/01/13 02:07:30.000  -12.843710690  131.132746764   123.0644   5   8   5.2042   3.9329   9.0733   0.5776   2.2489   3.2688   0.00    0.0
2014/01/13 02:08:00.000  -12.843712194  131.132747553   123.2395   5   8   5.2118   3.9325   9.0889   0.5756   2.2820   3.2848   0.00    0.0
2014/01/13 02:08:30.000  -12.843712279  131.132747792   123.3000   5   8   5.2192   3.9322   9.1047   0.5739   2.3147   3.3002   0.00    0.0
2014/01/13 02:09:00.000  -12.843711491  131.132747299   123.3924   5   8   5.2263   3.9320   9.1207   0.5724   2.3471   3.3150   0.00    0.0
2014/01/13 02:09:30.000  -12.843711528  131.132746623   122.9991   5   8   5.2331   3.9319   9.1370   0.5712   2.3793   3.3291   0.00    0.0
2014/01/13 02:10:00.000  -12.843713131  131.132747212   123.0023   5   8   5.2397   3.9319   9.1535   0.5701   2.4112   3.3426   0.00    0.0
2014/01/13 02:10:30.000  -12.843713672  131.132747902   123.1075   5   8   5.2460   3.9320   9.1703   0.5693   2.4429   3.3555   0.00    0.0
2014/01/13 02:11:00.000  -12.843713218  131.132748589   123.1104   5   8   5.2520   3.9322   9.1872   0.5687   2.4743   3.3677   0.00    0.0
2014/01/13 02:11:30.000  -12.843712847  131.132748469   123.1223   5   8   5.2578   3.9324   9.2044   0.5684   2.5055   3.3793   0.00    0.0
2014/01/13 02:12:00.000  -12.843712926  131.132747859   122.9761   5   8   5.2633   3.9328   9.2218   0.5682   2.5364   3.3902   0.00    0.0
2014/01/13 02:12:30.000  -12.843711432  131.132747181   122.8225   5   8   5.2685   3.9333   9.2394   0.5682   2.5672   3.4004   0.00    0.0
2014/01/13 02:13:00.000  -12.843711899  131.132747295   122.8400   5   8   5.2734   3.9338   9.2571   0.5684   2.5978   3.4100   0.00    0.0
2014/01/13 02:13:30.000  -12.843712110  131.132747516   122.8695   5   8   5.2781   3.9345   9.2751   0.5688   2.6282   3.4190   0.00    0.0
2014/01/13 02:14:00.000  -12.843711392  131.132747406   122.9578   5   8   5.2825   3.9352   9.2933   0.5693   2.6584   3.4273   0.00    0.0
2014/01/13 02:14:30.000  -12.843711821  131.132746870   122.9470   5   8   5.2866   3.9361   9.3117   0.5700   2.6885   3.4349   0.00    0.0
2014/01/13 02:15:00.000  -12.843711432  131.132747503   123.0968   5   8   5.2905   3.9370   9.3302   0.5708   2.7184   3.4418   0.00    0.0
2014/01/13 02:15:30.000  -12.843711800  131.132747770   123.0957   5   8   5.2941   3.9381   9.3490   0.5718   2.7482   3.4481   0.00    0.0
2014/01/13 02:16:00.000  -12.843712240  131.132749254   123.0460   5   8   5.2974   3.9392   9.3679   0.5728   2.7779   3.4537   0.00    0.0
2014/01/13 02:16:30.000  -12.843714585  131.132749096   122.8937   5   8   5.3004   3.9405   9.3870   0.5740   2.8074   3.4586   0.00    0.0
2014/01/13 02:17:00.000  -12.843715368  131.132748745   122.7154   5   8   5.3031   3.9418   9.4062   0.5753   2.8368   3.4629   0.00    0.0
2014/01/13 02:17:30.000  -12.843715186  131.132748083   122.7934   5   8   5.3056   3.9433   9.4257   0.5767   2.8661   3.4664   0.00    0.0
2014/01/13 02:18:00.000  -12.843715281  131.132747652   122.9001   5   8   5.3079   3.9448   9.4453   0.5782   2.8952   3.4693   0.00    0.0
2014/01/13 02:18:30.000  -12.843714627  131.132747626   122.8975   5   8   5.3098   3.9465   9.4651   0.5797   2.9243   3.4716   0.00    0.0
2014/01/13 02:19:00.000  -12.843713824  131.132747891   122.7726   5   8   5.3115   3.9482   9.4851   0.5813   2.9533   3.4731   0.00    0.0
2014/01/13 02:19:30.000  -12.843714132  131.132748469   122.9227   5   8   5.3129   3.9501   9.5052   0.5829   2.9822   3.4739   0.00    0.0
2014/01/13 02:20:00.000  -12.843714033  131.132748487   122.9466   5   8   5.3141   3.9520   9.5255   0.5845   3.0110   3.4741   0.00    0.0
2014/01/13 02:20:30.000  -12.843714066  131.132747810   123.0200   5   8   5.3150   3.9541   9.5459   0.5862   3.0397   3.4736   0.00    0.0
2014/01/13 02:21:00.000  -12.843712970  131.132747602   123.2784   5   8   5.3157   3.9562   9.5666   0.5879   3.0683   3.4724   0.00    0.0
2014/01/13 02:21:30.000  -12.843711257  131.132748363   123.6756   5   8   5.3162   3.9585   9.5874   0.5896   3.0969   3.4705   0.00    0.0
2014/01/13 02:22:00.000  -12.843711699  131.132749491   123.8166   5   8   5.3164   3.9609   9.6083   0.5913   3.1254   3.4679   0.00    0.0
2014/01/13 02:22:30.000  -12.843711732  131.132750202   123.6689   5   8   5.3163   3.9633   9.6294   0.5930   3.1538   3.4647   0.00    0.0
2014/01/13 02:23:00.000  -12.843710255  131.132749405   123.6670   5   8   5.3161   3.9659   9.6507   0.5946   3.1822   3.4607   0.00    0.0
2014/01/13 02:23:30.000  -12.843710349  131.132748805   123.7615   5   8   5.3156   3.9686   9.6722   0.5962   3.2105   3.4561   0.00    0.0
2014/01/13 02:24:00.000  -12.843711165  131.132747919   123.6055   5   8   5.3149   3.9714   9.6938   0.5978   3.2387   3.4508   0.00    0.0
2014/01/13 02:24:30.000  -12.843710984  131.132747578   123.4674   5   8   5.3140   3.9742   9.7157   0.5993   3.2669   3.4449   0.00    0.0
2014/01/13 02:25:00.000  -12.843710717  131.132747348   123.6158   5   7   6.5278   3.9969  11.9489  -1.0683   2.8487   6.1714   0.00    0.0
2014/01/13 02:25:30.000  -12.843709790  131.132747463   123.8046   5   7   6.5199   3.9992  11.9744  -1.0504   2.8902   6.1647   0.00    0.0
2014/01/13 02:26:00.000  -12.843708633  131.132747131   123.5381   5   8   6.0565   3.9347  11.7736   0.8223   2.6280   6.5915   0.00    0.0
2014/01/13 02:26:30.000  -12.843710405  131.132746776   123.5230   5   8   6.0471   3.9368  11.7959   0.8482   2.6707   6.5858   0.00    0.0
2014/01/13 02:27:00.000  -12.843710419  131.132747090   123.7797   5   8   6.0373   3.9390  11.8178   0.8732   2.7130   6.5791   0.00    0.0
2014/01/13 02:27:30.000  -12.843710276  131.132747372   123.8301   5   8   6.0269   3.9414  11.8391   0.8975   2.7549   6.5715   0.00    0.0
2014/01/13 02:28:00.000  -12.843710547  131.132747127   123.7843   5   8   6.0160   3.9438  11.8601   0.9211   2.7965   6.5631   0.00    0.0
2014/01/13 02:28:30.000  -12.843710968  131.132746792   123.8382   5   8   6.0047   3.9464  11.8806   0.9440   2.8378   6.5537   0.00    0.0
2014/01/13 02:29:00.000  -12.843710857  131.132746554   123.8439   5   8   5.9929   3.9491  11.9008   0.9662   2.8787   6.5435   0.00    0.0
2014/01/13 02:29:30.000  -12.843710376  131.132746452   123.8237   5   8   5.9807   3.9520  11.9206   0.9877   2.9193   6.5325   0.00    0.0
2014/01/13 02:30:00.000  -12.843710230  131.132747102   123.8212   5   8   5.9680   3.9550  11.9400   1.0087   2.9596   6.5206   0.00    0.0
2014/01/13 02:30:30.000  -12.843709621  131.132748151   123.9607   5   8   5.9550   3.9581  11.9591   1.0290   2.9996   6.5079   0.00    0.0
2014/01/13 02:31:00.000  -12.843710300  131.132748121   123.8836   5   8   5.9416   3.9613  11.9779   1.0488   3.0393   6.4945   0.00    0.0
2014/01/13 02:31:30.000  -12.843711325  131.132748221   123.8952   5   8   5.9278   3.9646  11.9964   1.0679   3.0787   6.4803   0.00    0.0
2014/01/13 02:32:00.000  -12.843715543  131.132750379   124.3787   5   7   6.0914   4.4095  12.9323  -1.2760   4.3499   5.9002   0.00    0.0
2014/01/13 02:32:30.000  -12.843716353  131.132750905   124.6147   5   7   6.0731   4.4150  12.9789  -1.2494   4.3982   5.8806   0.00    0.0
2014/01/13 02:33:00.000  -12.843716340  131.132751379   124.8631   5   7   6.0546   4.4207  13.0259  -1.2229   4.4465   5.8602   0.00    0.0
2014/01/13 02:33:30.000  -12.843714857  131.132751637   124.9484   5   7   6.0360   4.4267  13.0733  -1.1964   4.4948   5.8390   0.00    0.0
2014/01/13 02:34:00.000  -12.843714556  131.132751010   124.8731   5   7   6.0172   4.4329  13.1211  -1.1699   4.5431   5.8171   0.00    0.0
2014/01/13 02:34:30.000  -12.843714791  131.132749693   124.8158   5   7   5.9983   4.4394  13.1694  -1.1435   4.5915   5.7945   0.00    0.0
2014/01/13 02:35:00.000  -12.843715637  131.132749765   124.6225   5   7   5.9793   4.4461  13.2182  -1.1172   4.6399   5.7712   0.00    0.0
2014/01/13 02:35:30.000  -12.843716066  131.132751345   124.6887   5   7   5.9602   4.4531  13.2675  -1.0910   4.6884   5.7471   0.00    0.0
2014/01/13 02:36:00.000  -12.843715264  131.132752922   125.1690   5   7   5.9411   4.4603  13.3174  -1.0649   4.7369   5.7224   0.00    0.0
2014/01/13 02:36:30.000  -12.843714804  131.132753232   125.5862   5   7   5.9219   4.4678  13.3678  -1.0389   4.7855   5.6969   0.00    0.0
2014/01/13 02:37:00.000  -12.843715089  131.132751941   125.2431   5   7   5.9026   4.4756  13.4189  -1.0132   4.8342   5.6708   0.00    0.0
2014/01/13 02:37:30.000  -12.843714010  131.132752398   125.2014   5   7   5.8834   4.4836  13.4706  -0.9876   4.8829   5.6440   0.00    0.0
2014/01/13 02:38:00.000  -12.843713484  131.132752020   124.9595   5   7   5.8642   4.4919  13.5229  -0.9622   4.9317   5.6165   0.00    0.0
2014/01/13 02:38:30.000  -12.843713774  131.132751275   124.7471   5   7   5.8449   4.5004  13.5760  -0.9372   4.9806   5.5884   0.00    0.0
2014/01/13 02:39:00.000  -12.843714435  131.132751225   124.5866   5   7   5.8257   4.5092  13.6297  -0.9124   5.0297   5.5596   0.00    0.0
2014/01/13 02:39:30.000  -12.843714870  131.132751151   124.5009   5   7   5.8066   4.5183  13.6842  -0.8879   5.0788   5.5301   0.00    0.0
2014/01/13 02:40:00.000  -12.843714695  131.132751119   124.6451   5   7   5.7875   4.5277  13.7394  -0.8638   5.1281   5.5000   0.00    0.0
2014/01/13 02:40:30.000  -12.843714778  131.132752200   125.0830   5   7   5.7685   4.5373  13.7955  -0.8401   5.1775   5.4692   0.00    0.0
2014/01/13 02:41:00.000  -12.843714104  131.132752411   125.2333   5   7   5.7496   4.5471  13.8523  -0.8168   5.2270   5.4378   0.00    0.0
2014/01/13 02:41:30.000  -12.843713634  131.132751944   125.2406   5   7   5.7308   4.5573  13.9100  -0.7941   5.2767   5.4057   0.00    0.0
2014/01/13 02:42:00.000  -12.843713162  131.132751557   125.3232   5   7   5.7121   4.5677  13.9685  -0.7719   5.3265   5.3729   0.00    0.0
2014/01/13 02:42:30.000  -12.843713493  131.132751948   125.1629   5   7   5.6935   4.5783  14.0280  -0.7503   5.3765   5.3395   0.00    0.0
2014/01/13 02:43:00.000  -12.843713350  131.132752977   125.3851   5   7   5.6751   4.5893  14.0883  -0.7294   5.4266   5.3054   0.00    0.0
2014/01/13 02:43:30.000  -12.843713094  131.132754822   125.7276   5   7   5.6568   4.6005  14.1496  -0.7092   5.4770   5.2706   0.00    0.0
2014/01/13 02:44:00.000  -12.843713891  131.132755341   125.8625   5   7   5.6387   4.6120  14.2118  -0.6899   5.5275   5.2351   0.00    0.0
2014/01/13 02:44:30.000  -12.843714935  131.132756207   126.1167   5   7   5.6207   4.6237  14.2751  -0.6714   5.5782   5.1990   0.00    0.0
2014/01/13 02:45:00.000  -12.843714983  131.132756290   126.1938   5   7   5.6030   4.6357  14.3393  -0.6540   5.6292   5.1621   0.00    0.0
2014/01/13 02:45:30.000  -12.843714877  131.132756284   126.2374   5   7   5.5854   4.6480  14.4046  -0.6375   5.6803   5.1245   0.00    0.0
2014/01/13 02:46:00.000  -12.843715445  131.132756279   126.1838   5   7   5.5681   4.6605  14.4709  -0.6223   5.7317   5.0862   0.00    0.0
2014/01/13 02:46:30.000  -12.843715732  131.132755054   125.8991   5   7   5.5509   4.6733  14.5383  -0.6083   5.7833   5.0471   0.00    0.0
2014/01/13 02:47:00.000  -12.843714886  131.132753931   125.5493   5   7   5.5340   4.6864  14.6068  -0.5956   5.8351   5.0073   0.00    0.0
2014/01/13 02:47:30.000  -12.843714596  131.132753383   125.5510   5   7   5.5174   4.6998  14.6763  -0.5844   5.8872   4.9667   0.00    0.0
2014/01/13 02:48:00.000  -12.843714287  131.132752116   125.7780   5   7   5.5009   4.7134  14.7471  -0.5747   5.9395   4.9253   0.00    0.0
2014/01/13 02:48:30.000  -12.843714827  131.132751510   125.8381   5   7   5.4847   4.7273  14.8189  -0.5667   5.9921   4.8830   0.00    0.0
2014/01/13 02:49:00.000  -12.843716101  131.132752160   125.6746   5   7   5.4688   4.7415  14.8920  -0.5603   6.0449   4.8399   0.00    0.0
2014/01/13 02:49:30.000  -12.843716892  131.132753311   125.8545   5   7   5.4531   4.7559  14.9662  -0.5557   6.0980   4.7959   0.00    0.0
2014/01/13 02:50:00.000  -12.843717025  131.132754146   126.0029   5   7   5.4377   4.7706  15.0416  -0.5529   6.1514   4.7510   0.00    0.0
2014/01/13 02:50:30.000  -12.843715735  131.132754953   126.0498   5   7   5.4226   4.7855  15.1183  -0.5519   6.2051   4.7052   0.00    0.0
2014/01/13 02:51:00.000  -12.843714887  131.132755179   125.9786   5   7   5.4078   4.8008  15.1962  -0.5528   6.2590   4.6584   0.00    0.0
2014/01/13 02:51:30.000  -12.843714913  131.132753688   125.8238   5   7   5.3932   4.8163  15.2753  -0.5556   6.3133   4.6106   0.00    0.0
2014/01/13 02:52:00.000  -12.843721516  131.132747800   123.2967   5   8   4.7789   4.1773  11.0182  -2.5120   3.8173  -2.3659   0.00    0.0
2014/01/13 02:52:30.000  -12.843721891  131.132748288   123.5315   5   8   4.7723   4.1839  11.0865  -2.5149   3.8653  -2.4447   0.00    0.0
2014/01/13 02:53:00.000  -12.843721999  131.132748841   123.6534   5   8   4.7660   4.1908  11.1562  -2.5180   3.9135  -2.5221   0.00    0.0
2014/01/13 02:53:30.000  -12.843722088  131.132749143   124.2301   5   8   4.7600   4.1979  11.2272  -2.5215   3.9620  -2.5982   0.00    0.0
2014/01/13 02:54:00.000  -12.843722145  131.132749530   124.5077   5   8   4.7543   4.2052  11.2997  -2.5253   4.0107  -2.6732   0.00    0.0
2014/01/13 02:54:30.000  -12.843722246  131.132748429   124.3532   5   8   4.7488   4.2128  11.3737  -2.5294   4.0598  -2.7471   0.00    0.0
2014/01/13 02:55:00.000  -12.843722488  131.132747595   124.0291   5   8   4.7436   4.2206  11.4490  -2.5339   4.1091  -2.8201   0.00    0.0
2014/01/13 02:55:30.000  -12.843722713  131.132747053   123.6428   5   8   4.7388   4.2286  11.5259  -2.5387   4.1587  -2.8923   0.00    0.0
2014/01/13 02:56:00.000  -12.843722547  131.132746485   123.4779   5   8   4.7342   4.2369  11.6043  -2.5438   4.2087  -2.9638   0.00    0.0
2014/01/13 02:56:30.000  -12.843722280  131.132746647   123.5723   5   8   4.7299   4.2454  11.6842  -2.5493   4.2589  -3.0346   0.00    0.0
2014/01/13 02:57:00.000  -12.843721867  131.132746774   123.9628   5   8   4.7259   4.2542  11.7656  -2.5550   4.3096  -3.1048   0.00    0.0
2014/01/13 02:57:30.000  -12.843721217  131.132746547   124.0692   5   8   4.7221   4.2632  11.8486  -2.5611   4.3605  -3.1744   0.00    0.0
2014/01/13 02:58:00.000  -12.843720903  131.132747286   124.5222   5   8   4.7187   4.2724  11.9332  -2.5676   4.4119  -3.2436   0.00    0.0
2014/01/13 02:58:30.000  -12.843721835  131.132748038   124.6559   5   8   4.7156   4.2819  12.0194  -2.5743   4.4636  -3.3123   0.00    0.0
2014/01/13 02:59:00.000  -12.843722279  131.132747801   124.3833   5   8   4.7127   4.2917  12.1071  -2.5814   4.5157  -3.3806   0.00    0.0
2014/01/13 02:59:30.000  -12.843722187  131.132746660   124.1831   5   8   4.7101   4.3016  12.1966  -2.5889   4.5682  -3.4486   0.00    0.0
2014/01/13 03:00:00.000  -12.843721841  131.132740205   124.2453   5   8   4.7079   4.3119  12.2877  -2.5966   4.6210  -3.5163   0.00    0.0
2014/01/13 03:00:30.000  -12.843721412  131.132740852   124.1701   5   8   4.7059   4.3224  12.3804  -2.6047   4.6743  -3.5837   0.00    0.0
2014/01/13 03:01:00.000  -12.843720695  131.132740966   124.3625   5   8   4.7042   4.3331  12.4748  -2.6130   4.7280  -3.6509   0.00    0.0
2014/01/13 03:01:30.000  -12.843721784  131.132740931   124.3248   5   8   4.7028   4.3441  12.5710  -2.6218   4.7822  -3.7178   0.00    0.0
2014/01/13 03:02:00.000  -12.843722892  131.132743118   124.4944   5   8   4.7017   4.3553  12.6688  -2.6308   4.8367  -3.7846   0.00    0.0
2014/01/13 03:02:30.000  -12.843723569  131.132743952   124.5787   5   8   4.7008   4.3668  12.7684  -2.6401   4.8917  -3.8512   0.00    0.0
2014/01/13 03:03:00.000  -12.843723790  131.132744223   124.9269   5   8   4.7003   4.3786  12.8697  -2.6498   4.9471  -3.9176   0.00    0.0
2014/01/13 03:03:30.000  -12.843723780  131.132744425   125.4609   5   8   4.7000   4.3906  12.9727  -2.6597   5.0030  -3.9840   0.00    0.0
2014/01/13 03:04:00.000  -12.843723650  131.132744753   125.8304   5   8   4.7000   4.4029  13.0775  -2.6700   5.0593  -4.0502   0.00    0.0
2014/01/13 03:04:30.000  -12.843723182  131.132744039   125.7844   5   8   4.7003   4.4154  13.1840  -2.6805   5.1160  -4.1163   0.00    0.0
2014/01/13 03:05:00.000  -12.843723152  131.132743867   125.8052   5   8   4.7008   4.4282  13.2923  -2.6913   5.1732  -4.1824   0.00    0.0
2014/01/13 03:05:30.000  -12.843722950  131.132743327   125.4184   5   8   4.7016   4.4412  13.4023  -2.7025   5.2309  -4.2484   0.00    0.0
2014/01/13 03:06:00.000  -12.843722841  131.132743263   125.3278   5   8   4.7027   4.4545  13.5141  -2.7139   5.2890  -4.3143   0.00    0.0
2014/01/13 03:06:30.000  -12.843723092  131.132743405   125.0986   5   8   4.7040   4.4680  13.6276  -2.7255   5.3475  -4.3801   0.00    0.0
2014/01/13 03:07:00.000  -12.843722980  131.132743317   125.1048   5   8   4.7056   4.4818  13.7428  -2.7375   5.4064  -4.4459   0.00    0.0
2014/01/13 03:07:30.000  -12.843723564  131.132743248   125.2127   5   8   4.7074   4.4958  13.8598  -2.7497   5.4658  -4.5116   0.00    0.0
2014/01/13 03:08:00.000  -12.843723919  131.132742845   125.2087   5   8   4.7095   4.5101  13.9785  -2.7621   5.5256  -4.5772   0.00    0.0
2014/01/13 03:08:30.000  -12.843724045  131.132743131   125.5335   5   8   4.7117   4.5246  14.0988  -2.7748   5.5858  -4.6428   0.00    0.0
2014/01/13 03:09:00.000  -12.843723570  131.132742298   125.6141   5   8   4.7143   4.5393  14.2209  -2.7877   5.6464  -4.7083   0.00    0.0
2014/01/13 03:09:30.000  -12.843722839  131.132743006   125.8852   5   8   4.7170   4.5543  14.3445  -2.8008   5.7074  -4.7737   0.00    0.0
2014/01/13 03:10:00.000  -12.843721564  131.132743332   125.9917   5   8   4.7199   4.5695  14.4698  -2.8140   5.7688  -4.8390   0.00    0.0
2014/01/13 03:10:30.000  -12.843721815  131.132744419   126.1056   5   8   4.7231   4.5849  14.5966  -2.8275   5.8305  -4.9041   0.00    0.0
2014/01/13 03:11:00.000  -12.843722012  131.132744091   126.0436   5   8   4.7264   4.6005  14.7249  -2.8412   5.8925  -4.9691   0.00    0.0
2014/01/13 03:11:30.000  -12.843722789  131.132744328   126.2378   5   8   4.7299   4.6163  14.8547  -2.8550   5.9549  -5.0340   0.00    0.0
2014/01/13 03:12:00.000  -12.843723895  131.132744019   126.1942   5   8   4.7336   4.6323  14.9860  -2.8689   6.0175  -5.0986   0.00    0.0
2014/01/13 03:12:30.000  -12.843723977  131.132743492   125.8179   5   8   4.7374   4.6486  15.1185  -2.8830   6.0804  -5.1630   0.00    0.0
2014/01/13 03:13:00.000  -12.843724460  131.132742458   125.4360   5   8   4.7413   4.6649  15.2524  -2.8971   6.1435  -5.2272   0.00    0.0
2014/01/13 03:13:30.000  -12.843724671  131.132741987   125.6221   5   9   4.6692   3.8207  12.1367  -2.4870   3.5963  -4.4705   0.00    0.0
2014/01/13 03:14:00.000  -12.843725964  131.132741959   125.7261   5   9   4.6714   3.8272  12.2195  -2.4942   3.6365  -4.5228   0.00    0.0
2014/01/13 03:14:30.000  -12.843725067  131.132742058   125.2896   5   9   4.6737   3.8337  12.3028  -2.5014   3.6765  -4.5747   0.00    0.0
2014/01/13 03:15:00.000  -12.843724958  131.132742529   125.4829   5   9   4.6761   3.8404  12.3867  -2.5087   3.7163  -4.6261   0.00    0.0
2014/01/13 03:15:30.000  -12.843724509  131.132742552   125.5559   5   9   4.6785   3.8470  12.4709  -2.5159   3.7559  -4.6769   0.00    0.0
2014/01/13 03:16:00.000  -12.843726114  131.132743651   126.2694   5   9   4.6809   3.8538  12.5556  -2.5231   3.7952  -4.7272   0.00    0.0
2014/01/13 03:16:30.000  -12.843725717  131.132743046   126.2381   5   9   4.6834   3.8606  12.6405  -2.5303   3.8342  -4.7770   0.00    0.0
2014/01/13 03:17:00.000  -12.843725574  131.132741928   126.0949   5   9   4.6859   3.8675  12.7257  -2.5374   3.8729  -4.8261   0.00    0.0
2014/01/13 03:17:30.000  -12.843725067  131.132741915   126.1647   5   9   4.6884   3.8743  12.8111  -2.5445   3.9113  -4.8747   0.00    0.0
2014/01/13 03:18:00.000  -12.843724546  131.132742192   126.3754   5   9   4.6908   3.8813  12.8966  -2.5515   3.9494  -4.9225   0.00    0.0
2014/01/13 03:18:30.000  -12.843724364  131.132743435   126.6353   5   9   4.6933   3.8882  12.9821  -2.5584   3.9870  -4.9697   0.00    0.0
2014/01/13 03:19:00.000  -12.843724879  131.132743089   126.3790   5   9   4.6956   3.8952  13.0675  -2.5652   4.0243  -5.0161   0.00    0.0
2014/01/13 03:19:30.000  -12.843725398  131.132742137   126.2386   5   9   4.6980   3.9022  13.1528  -2.5719   4.0611  -5.0618   0.00    0.0
2014/01/13 03:20:00.000  -12.843724922  131.132742066   126.3364   5   9   4.7002   3.9092  13.2379  -2.5784   4.0974  -5.1066   0.00    0.0
2014/01/13 03:20:30.000  -12.843724706  131.132742936   126.5632   5   9   4.7023   3.9162  13.3226  -2.5848   4.1332  -5.1506   0.00    0.0
2014/01/13 03:21:00.000  -12.843724599  131.132743156   126.5307   5   9   4.7044   3.9232  13.4069  -2.5910   4.1685  -5.1937   0.00    0.0
2014/01/13 03:21:30.000  -12.843724762  131.132743681   126.7691   5   9   4.7062   3.9302  13.4907  -2.5970   4.2032  -5.2358   0.00    0.0
2014/01/13 03:22:00.000  -12.843724894  131.132743966   127.1251   5   9   4.7080   3.9372  13.5738  -2.6028   4.2373  -5.2770   0.00    0.0
2014/01/13 03:22:30.000  -12.843725796  131.132744755   127.5229   5   9   4.7095   3.9441  13.6562  -2.6083   4.2707  -5.3171   0.00    0.0
2014/01/13 03:23:00.000  -12.843727968  131.132744786   127.6654   5   9   4.7109   3.9511  13.7377  -2.6137   4.3035  -5.3561   0.00    0.0
2014/01/13 03:23:30.000  -12.843729027  131.132744689   127.7323   5   9   4.7121   3.9579  13.8183  -2.6187   4.3355  -5.3940   0.00    0.0
2014/01/13 03:24:00.000  -12.843730163  131.132745127   127.5142   5   9   4.7130   3.9647  13.8977  -2.6235   4.3667  -5.4306   0.00    0.0
2014/01/13 03:24:30.000  -12.843729976  131.132745663   127.2379   5   9   4.7137   3.9715  13.9760  -2.6279   4.3972  -5.4661   0.00    0.0
2014/01/13 03:25:00.000  -12.843729574  131.132745624   127.1226   5   9   4.7141   3.9782  14.0529  -2.6320   4.4268  -5.5002   0.00    0.0
2014/01/13 03:25:30.000  -12.843728634  131.132744299   127.1837   5   9   4.7142   3.9848  14.1284  -2.6358   4.4555  -5.5330   0.00    0.0
2014/01/13 03:26:00.000  -12.843727668  131.132744229   127.5047   5   9   4.7140   3.9914  14.2023  -2.6392   4.4832  -5.5643   0.00    0.0
2014/01/13 03:26:30.000  -12.843728046  131.132744121   127.6377   5   9   4.7136   3.9979  14.2745  -2.6422   4.5100  -5.5943   0.00    0.0
2014/01/13 03:27:00.000  -12.843728479  131.132744159   127.5881   5   9   4.7127   4.0042  14.3448  -2.6449   4.5358  -5.6227   0.00    0.0
2014/01/13 03:27:30.000  -12.843728836  131.132744621   127.5603   5   9   4.7115   4.0105  14.4132  -2.6471   4.5605  -5.6495   0.00    0.0
2014/01/13 03:28:00.000  -12.843729636  131.132745118   127.9658   5   9   4.7100   4.0166  14.4795  -2.6488   4.5841  -5.6747   0.00    0.0
2014/01/13 03:28:30.000  -12.843730056  131.132744418   128.1566   5   9   4.7081   4.0227  14.5436  -2.6501   4.6066  -5.6983   0.00    0.0
2014/01/13 03:29:00.000  -12.843730446  131.132744278   128.3206   5   9   4.7057   4.0286  14.6054  -2.6510   4.6278  -5.7201   0.00    0.0
2014/01/13 03:29:30.000  -12.843729806  131.132743857   128.1680   5   9   4.7030   4.0343  14.6647  -2.6513   4.6479  -5.7402   0.00    0.0
2014/01/13 03:30:00.000  -12.843729064  131.132743425   128.0820   5   9   4.6998   4.0400  14.7214  -2.6512   4.6667  -5.7585   0.00    0.0
2014/01/13 03:30:30.000  -12.843728306  131.132743925   128.0302   5   9   4.6962   4.0455  14.7755  -2.6505   4.6842  -5.7749   0.00    0.0
2014/01/13 03:31:00.000  -12.843728274  131.132745361   128.3277   5   9   4.6921   4.0508  14.8267  -2.6493   4.7004  -5.7894   0.00    0.0
2014/01/13 03:31:30.000  -12.843728255  131.132745726   128.5265   5   9   4.6876   4.0560  14.8751  -2.6476   4.7152  -5.8020   0.00    0.0
2014/01/13 03:32:00.000  -12.843728749  131.132744733   128.2632   5   9   4.6826   4.0611  14.9204  -2.6453   4.7287  -5.8126   0.00    0.0
2014/01/13 03:32:30.000  -12.843728855  131.132744459   127.9439   5   9   4.6771   4.0660  14.9626  -2.6425   4.7407  -5.8212   0.00    0.0
2014/01/13 03:33:00.000  -12.843728266  131.132743592   127.9494   5   9   4.6712   4.0707  15.0016  -2.6391   4.7513  -5.8278   0.00    0.0
2014/01/13 03:33:30.000  -12.843728526  131.132743332   128.1044   5   9   4.6648   4.0753  15.0374  -2.6351   4.7605  -5.8324   0.00    0.0
2014/01/13 03:34:00.000  -12.843729311  131.132744201   128.7539   5   9   4.6579   4.0797  15.0698  -2.6305   4.7681  -5.8348   0.00    0.0
2014/01/13 03:34:30.000  -12.843730001  131.132744844   129.1193   5   9   4.6506   4.0839  15.0987  -2.6254   4.7743  -5.8352   0.00    0.0
2014/01/13 03:35:00.000  -12.843729757  131.132745776   129.0047   5   9   4.6427   4.0880  15.1242  -2.6196   4.7790  -5.8335   0.00    0.0
2014/01/13 03:35:30.000  -12.843729801  131.132746051   128.9550   5   9   4.6344   4.0919  15.1461  -2.6133   4.7821  -5.8297   0.00    0.0
2014/01/13 03:36:00.000  -12.843730085  131.132746725   129.4096   5   9   4.6256   4.0956  15.1645  -2.6064   4.7837  -5.8237   0.00    0.0
2014/01/13 03:36:30.000  -12.843730671  131.132746692   129.6761   5   9   4.6164   4.0992  15.1792  -2.5990   4.7838  -5.8156   0.00    0.0
2014/01/13 03:37:00.000  -12.843731593  131.132746293   129.4939   5   9   4.6067   4.1026  15.1903  -2.5909   4.7824  -5.8055   0.00    0.0
2014/01/13 03:37:30.000  -12.843731010  131.132745678   129.3416   5   9   4.5966   4.1059  15.1977  -2.5823   4.7795  -5.7932   0.00    0.0
2014/01/13 03:38:00.000  -12.843722573  131.132746404   124.9128   5   8   5.0045   4.1335  18.1957  -2.3919   4.2792  -7.3095   0.00    0.0
2014/01/13 03:38:30.000  -12.843721628  131.132746680   125.0342   5   8   4.9967   4.1361  18.2263  -2.3826   4.2743  -7.3079   0.00    0.0
2014/01/13 03:39:00.000  -12.843721737  131.132746382   124.4489   5   8   4.9880   4.1385  18.2508  -2.3725   4.2675  -7.3031   0.00    0.0
2014/01/13 03:39:30.000  -12.843721603  131.132745287   124.0875   5   8   4.9785   4.1409  18.2691  -2.3618   4.2586  -7.2951   0.00    0.0
2014/01/13 03:40:00.000  -12.843721478  131.132745602   124.6370   5   8   4.9681   4.1433  18.2811  -2.3503   4.2478  -7.2839   0.00    0.0
2014/01/13 03:40:30.000  -12.843721812  131.132746276   125.0899   5   8   4.9569   4.1456  18.2870  -2.3382   4.2349  -7.2695   0.00    0.0
2014/01/13 03:41:00.000  -12.843721265  131.132746355   125.2152   5   8   4.9448   4.1478  18.2866  -2.3254   4.2201  -7.2520   0.00    0.0
2014/01/13 03:41:30.000  -12.843721239  131.132746555   125.3329   5   8   4.9320   4.1501  18.2800  -2.3119   4.2034  -7.2313   0.00    0.0
2014/01/13 03:42:00.000  -12.843721573  131.132747570   125.8069   5   8   4.9185   4.1522  18.2672  -2.2978   4.1848  -7.2074   0.00    0.0
2014/01/13 03:42:30.000  -12.843721908  131.132747270   125.2637   5   8   4.9042   4.1544  18.2483  -2.2831   4.1644  -7.1806   0.00    0.0
2014/01/13 03:43:00.000  -12.843722921  131.132747789   125.1558   5   8   4.8892   4.1566  18.2234  -2.2678   4.1421  -7.1508   0.00    0.0
2014/01/13 03:43:30.000  -12.843722762  131.132748181   125.0369   5   8   4.8736   4.1587  18.1926  -2.2519   4.1181  -7.1180   0.00    0.0
2014/01/13 03:44:00.000  -12.843721342  131.132747756   124.8799   5   8   4.8573   4.1608  18.1559  -2.2354   4.0924  -7.0825   0.00    0.0
2014/01/13 03:44:30.000  -12.843721395  131.132747624   125.0270   5   8   4.8405   4.1630  18.1136  -2.2185   4.0651  -7.0442   0.00    0.0
2014/01/13 03:45:00.000  -12.843721996  131.132746578   125.2591   5   8   4.8231   4.1652  18.0658  -2.2010   4.0362  -7.0032   0.00    0.0
2014/01/13 03:45:30.000  -12.843723469  131.132746374   125.7391   5   8   4.8052   4.1674  18.0126  -2.1831   4.0059  -6.9597   0.00    0.0
2014/01/13 03:46:00.000  -12.843723476  131.132746843   126.0998   5   8   4.7868   4.1696  17.9543  -2.1648   3.9741  -6.9137   0.00    0.0
2014/01/13 03:46:30.000  -12.843722684  131.132746546   125.1846   5   8   4.7681   4.1719  17.8909  -2.1460   3.9409  -6.8654   0.00    0.0
2014/01/13 03:47:00.000  -12.843722491  131.132746531   124.9837   5   8   4.7490   4.1742  17.8228  -2.1269   3.9065  -6.8148   0.00    0.0
2014/01/13 03:47:30.000  -12.843722140  131.132746291   125.1563   5   8   4.7296   4.1766  17.7501  -2.1075   3.8709  -6.7621   0.00    0.0
2014/01/13 03:48:00.000  -12.843721804  131.132746197   125.5778   5   8   4.7099   4.1791  17.6731  -2.0877   3.8341  -6.7074   0.00    0.0
2014/01/13 03:48:30.000  -12.843721744  131.132746519   125.9230   5   8   4.6899   4.1817  17.5920  -2.0677   3.7963  -6.6508   0.00    0.0
2014/01/13 03:49:00.000  -12.843721103  131.132746886   125.9452   5   8   4.6698   4.1843  17.5069  -2.0474   3.7576  -6.5924   0.00    0.0
2014/01/13 03:49:30.000  -12.843721255  131.132747017   125.7344   5   8   4.6496   4.1870  17.4182  -2.0269   3.7179  -6.5323   0.00    0.0
2014/01/13 03:50:00.000  -12.843721346  131.132747235   125.7920   5   8   4.6292   4.1898  17.3261  -2.0063   3.6775  -6.4707   0.00    0.0
2014/01/13 03:50:30.000  -12.843721496  131.132747122   125.6252   5   8   4.6088   4.1928  17.2307  -1.9854   3.6363  -6.4077   0.00    0.0
2014/01/13 03:51:00.000  -12.843722255  131.132746527   125.4302   5   8   4.5884   4.1958  17.1324  -1.9645   3.5944  -6.3434   0.00    0.0
2014/01/13 03:51:30.000  -12.843722755  131.132745362   125.8480   5   8   4.5681   4.1989  17.0313  -1.9434   3.5520  -6.2778   0.00    0.0
2014/01/13 03:52:00.000  -12.843722649  131.132745107   126.0184   5   8   4.5478   4.2022  16.9277  -1.9223   3.5091  -6.2112   0.00    0.0
2014/01/13 03:52:30.000  -12.843722631  131.132745656   126.1457   5   8   4.5275   4.2056  16.8217  -1.9011   3.4657  -6.1435   0.00    0.0
2014/01/13 03:53:00.000  -12.843722452  131.132746455   126.2938   5   8   4.5075   4.2091  16.7137  -1.8799   3.4219  -6.0750   0.00    0.0
2014/01/13 03:53:30.000  -12.843722345  131.132745983   126.1420   5   8   4.4876   4.2128  16.6038  -1.8586   3.3779  -6.0057   0.00    0.0
2014/01/13 03:54:00.000  -12.843722752  131.132745104   126.2819   5   8   4.4678   4.2165  16.4923  -1.8374   3.3336  -5.9357   0.00    0.0
2014/01/13 03:54:30.000  -12.843723091  131.132744399   126.5736   5   8   4.4483   4.2205  16.3792  -1.8162   3.2892  -5.8651   0.00    0.0
2014/01/13 03:55:00.000  -12.843723643  131.132744873   126.6196   5   8   4.4291   4.2245  16.2649  -1.7951   3.2446  -5.7940   0.00    0.0
2014/01/13 03:55:30.000  -12.843723925  131.132744558   126.6049   5   8   4.4101   4.2287  16.1495  -1.7741   3.2000  -5.7225   0.00    0.0
2014/01/13 03:56:00.000  -12.843723975  131.132744367   126.3328   5   8   4.3915   4.2331  16.0332  -1.7531   3.1553  -5.6506   0.00    0.0
2014/01/13 03:56:30.000  -12.843723194  131.132743673   125.8110   5   8   4.3731   4.2375  15.9161  -1.7322   3.1107  -5.5785   0.00    0.0
2014/01/13 03:57:00.000  -12.843722766  131.132744224   126.0670   5   8   4.3551   4.2422  15.7984  -1.7114   3.0663  -5.5062   0.00    0.0
2014/01/13 03:57:30.000  -12.843723232  131.132744459   126.5073   5   8   4.3375   4.2469  15.6802  -1.6908   3.0219  -5.4338   0.00    0.0
2014/01/13 03:58:00.000  -12.843722972  131.132743572   126.4367   5   8   4.3202   4.2519  15.5618  -1.6703   2.9778  -5.3613   0.00    0.0
2014/01/13 03:58:30.000  -12.843722779  131.132744396   126.9094   5   8   4.3032   4.2569  15.4432  -1.6499   2.9339  -5.2888   0.00    0.0
2014/01/13 03:59:00.000  -12.843722414  131.132744592   126.9543   5   8   4.2867   4.2622  15.3245  -1.6297   2.8902  -5.2163   0.00    0.0
2014/01/13 03:59:30.000  -12.843722810  131.132744884   126.6237   5   8   4.2706   4.2675  15.2060  -1.6096   2.8469  -5.1440   0.00    0.0
