% program   : RTKPOST ver.demo5 b34b
% inp file  : D:\My Documents\Spoljar\Privat\Boston 2022\iqal2720.14o
% inp file  : D:\My Documents\Spoljar\Privat\Boston 2022\brdc2720.14n
% obs start : 2014/09/29 18:09:00.0 GPST (week1812 151740.0s)
% obs end   : 2014/09/29 23:59:30.0 GPST (week1812 172770.0s)
% pos mode  : Single
% elev mask : 15.0 deg
% ionos opt : Broadcast
% tropo opt : Saastamoinen
% ephemeris : Broadcast
% navi sys  : GPS
%
% (lat/lon/height=WGS84/ellipsoidal,Q=1:fix,2:float,3:sbas,4:dgps,5:single,6:ppp,ns=# of satellites)
%  GPST                  latitude(deg) longitude(deg)  height(m)   Q  ns   sdn(m)   sde(m)   sdu(m)  sdne(m)  sdeu(m)  sdun(m) age(s)  ratio
2014/09/29 18:09:00.000   63.755979115  -68.510462961    95.4560   5   8   3.7025   2.7445   9.0209   1.3620   2.7072   3.2226   0.00    0.0
2014/09/29 18:09:30.000   63.755975184  -68.510466698    95.4518   5   8   3.7057   2.7467   9.0435   1.3617   2.7320   3.2330   0.00    0.0
2014/09/29 18:10:00.000   63.755978605  -68.510464512    95.6767   5   8   3.7089   2.7490   9.0656   1.3614   2.7562   3.2434   0.00    0.0
2014/09/29 18:10:30.000   63.755978783  -68.510464394    95.0076   5   8   3.7123   2.7514   9.0873   1.3610   2.7800   3.2540   0.00    0.0
2014/09/29 18:11:00.000   63.755975960  -68.510470698    94.7682   5   8   3.7158   2.7537   9.1086   1.3605   2.8033   3.2646   0.00    0.0
2014/09/29 18:11:30.000   63.755977276  -68.510459338    94.7580   5   8   3.7193   2.7561   9.1293   1.3600   2.8261   3.2753   0.00    0.0
2014/09/29 18:12:00.000   63.755976208  -68.510464363    94.6894   5   8   3.7230   2.7586   9.1495   1.3595   2.8483   3.2861   0.00    0.0
2014/09/29 18:12:30.000   63.755976343  -68.510466930    94.2994   5   8   3.7267   2.7610   9.1692   1.3588   2.8701   3.2970   0.00    0.0
2014/09/29 18:13:00.000   63.755974251  -68.510455772    95.1367   5   8   3.7306   2.7635   9.1883   1.3582   2.8914   3.3079   0.00    0.0
2014/09/29 18:13:30.000   63.755974018  -68.510462131    95.4780   5   8   3.7345   2.7660   9.2069   1.3574   2.9121   3.3189   0.00    0.0
2014/09/29 18:14:00.000   63.755975048  -68.510465639    94.8113   5   8   3.7386   2.7684   9.2248   1.3566   2.9323   3.3299   0.00    0.0
2014/09/29 18:14:30.000   63.755974436  -68.510462166    95.0925   5   8   3.7427   2.7709   9.2422   1.3557   2.9520   3.3409   0.00    0.0
2014/09/29 18:15:00.000   63.755972139  -68.510461901    95.0638   5   8   3.7470   2.7734   9.2588   1.3547   2.9712   3.3520   0.00    0.0
2014/09/29 18:15:30.000   63.755975331  -68.510462434    94.6552   5   8   3.7513   2.7759   9.2749   1.3537   2.9898   3.3631   0.00    0.0
2014/09/29 18:16:00.000   63.755975947  -68.510457194    94.8656   5   8   3.7557   2.7784   9.2902   1.3525   3.0078   3.3742   0.00    0.0
2014/09/29 18:16:30.000   63.755978178  -68.510461587    94.9781   5   8   3.7603   2.7808   9.3049   1.3513   3.0252   3.3853   0.00    0.0
2014/09/29 18:17:00.000   63.755979846  -68.510463847    94.3959   5   8   3.7649   2.7833   9.3189   1.3499   3.0421   3.3964   0.00    0.0
2014/09/29 18:17:30.000   63.755976425  -68.510456670    94.8651   5   8   3.7697   2.7857   9.3321   1.3484   3.0585   3.4075   0.00    0.0
2014/09/29 18:18:00.000   63.755975881  -68.510463487    94.0867   5   8   3.7745   2.7880   9.3446   1.3469   3.0742   3.4185   0.00    0.0
2014/09/29 18:18:30.000   63.755981012  -68.510463575    94.7038   5   8   3.7795   2.7904   9.3563   1.3452   3.0893   3.4296   0.00    0.0
2014/09/29 18:19:00.000   63.755981582  -68.510460438    94.2150   5   8   3.7845   2.7927   9.3673   1.3433   3.1039   3.4405   0.00    0.0
2014/09/29 18:19:30.000   63.755979337  -68.510461539    94.1146   5   8   3.7897   2.7950   9.3774   1.3414   3.1178   3.4515   0.00    0.0
2014/09/29 18:20:00.000   63.755980840  -68.510467976    93.8775   5   8   3.7949   2.7972   9.3868   1.3393   3.1312   3.4624   0.00    0.0
2014/09/29 18:20:30.000   63.755981874  -68.510467409    94.1682   5   8   3.8002   2.7994   9.3954   1.3371   3.1439   3.4732   0.00    0.0
2014/09/29 18:21:00.000   63.755984492  -68.510462313    93.9104   5   8   3.8057   2.8015   9.4031   1.3347   3.1560   3.4840   0.00    0.0
2014/09/29 18:21:30.000   63.755982155  -68.510461398    94.1684   5   8   3.8112   2.8035   9.4100   1.3321   3.1675   3.4947   0.00    0.0
2014/09/29 18:22:00.000   63.755981527  -68.510469249    94.0865   5   8   3.8169   2.8055   9.4161   1.3294   3.1784   3.5053   0.00    0.0
2014/09/29 18:22:30.000   63.755980822  -68.510470395    93.6757   5   8   3.8226   2.8075   9.4213   1.3265   3.1886   3.5159   0.00    0.0
2014/09/29 18:23:00.000   63.755982975  -68.510464136    93.2657   5   8   3.8284   2.8093   9.4256   1.3235   3.1982   3.5263   0.00    0.0
2014/09/29 18:23:30.000   63.755983916  -68.510461671    92.6931   5   9   3.6864   2.7911   8.7062   1.4479   3.3910   2.9476   0.00    0.0
2014/09/29 18:24:00.000   63.755980440  -68.510463643    92.1416   5   9   3.6917   2.7923   8.7154   1.4468   3.4005   2.9606   0.00    0.0
2014/09/29 18:24:30.000   63.755979074  -68.510464956    92.4262   5   9   3.6972   2.7934   8.7239   1.4455   3.4094   2.9736   0.00    0.0
2014/09/29 18:25:00.000   63.755980916  -68.510467507    92.6172   5   9   3.7027   2.7943   8.7317   1.4442   3.4177   2.9866   0.00    0.0
2014/09/29 18:25:30.000   63.755980595  -68.510468079    91.9520   5   9   3.7083   2.7952   8.7388   1.4428   3.4255   2.9995   0.00    0.0
2014/09/29 18:26:00.000   63.755984075  -68.510462201    92.3074   5   9   3.7141   2.7960   8.7452   1.4413   3.4327   3.0125   0.00    0.0
2014/09/29 18:26:30.000   63.755982066  -68.510462805    92.1466   5   9   3.7199   2.7966   8.7508   1.4397   3.4393   3.0254   0.00    0.0
2014/09/29 18:27:00.000   63.755982509  -68.510467280    92.1861   5   9   3.7259   2.7971   8.7556   1.4379   3.4454   3.0382   0.00    0.0
2014/09/29 18:27:30.000   63.755982644  -68.510467456    91.8227   5   9   3.7320   2.7975   8.7598   1.4360   3.4509   3.0511   0.00    0.0
2014/09/29 18:28:00.000   63.755983263  -68.510470315    92.1737   5   9   3.7381   2.7977   8.7631   1.4340   3.4558   3.0638   0.00    0.0
2014/09/29 18:28:30.000   63.755982950  -68.510468625    92.5863   5   9   3.7444   2.7979   8.7657   1.4318   3.4601   3.0765   0.00    0.0
2014/09/29 18:29:00.000   63.755976045  -68.510462122    94.1640   5  10   3.2882   2.7804   8.2879   1.6147   3.3324   3.8347   0.00    0.0
2014/09/29 18:29:30.000   63.755976163  -68.510464464    93.8377   5  10   3.2935   2.7795   8.2931   1.6164   3.3334   3.8435   0.00    0.0
2014/09/29 18:30:00.000   63.755976221  -68.510462762    93.1559   5  10   3.2989   2.7785   8.2977   1.6180   3.3340   3.8521   0.00    0.0
2014/09/29 18:30:30.000   63.755972098  -68.510462200    93.0955   5  10   3.3044   2.7774   8.3016   1.6194   3.3341   3.8606   0.00    0.0
2014/09/29 18:31:00.000   63.755977267  -68.510464001    93.7357   5  10   3.3099   2.7762   8.3049   1.6207   3.3336   3.8690   0.00    0.0
2014/09/29 18:31:30.000   63.755976027  -68.510461583    93.4130   5  10   3.3156   2.7748   8.3075   1.6217   3.3327   3.8773   0.00    0.0
2014/09/29 18:32:00.000   63.755974228  -68.510465355    93.5855   5  10   3.3212   2.7733   8.3094   1.6226   3.3312   3.8854   0.00    0.0
2014/09/29 18:32:30.000   63.755975009  -68.510469406    93.6416   5  10   3.3270   2.7716   8.3107   1.6233   3.3292   3.8934   0.00    0.0
2014/09/29 18:33:00.000   63.755973032  -68.510465617    93.6403   5  10   3.3327   2.7698   8.3113   1.6238   3.3266   3.9013   0.00    0.0
2014/09/29 18:33:30.000   63.755973353  -68.510467946    93.1449   5  10   3.3386   2.7679   8.3112   1.6242   3.3236   3.9090   0.00    0.0
2014/09/29 18:34:00.000   63.755969145  -68.510467599    93.2380   5  10   3.3445   2.7659   8.3105   1.6243   3.3201   3.9166   0.00    0.0
2014/09/29 18:34:30.000   63.755975365  -68.510465690    92.3353   5  10   3.3505   2.7637   8.3092   1.6243   3.3160   3.9240   0.00    0.0
2014/09/29 18:35:00.000   63.755975329  -68.510462001    94.0903   5  10   3.3565   2.7614   8.3072   1.6240   3.3115   3.9313   0.00    0.0
2014/09/29 18:35:30.000   63.755977499  -68.510463071    93.2826   5  10   3.3626   2.7590   8.3045   1.6236   3.3065   3.9384   0.00    0.0
2014/09/29 18:36:00.000   63.755976458  -68.510458086    93.9934   5  10   3.3687   2.7564   8.3013   1.6230   3.3009   3.9454   0.00    0.0
2014/09/29 18:36:30.000   63.755967628  -68.510454280    94.0781   5  10   3.3749   2.7538   8.2974   1.6221   3.2949   3.9523   0.00    0.0
2014/09/29 18:37:00.000   63.755981530  -68.510454863    94.1059   5  10   3.3811   2.7510   8.2929   1.6211   3.2884   3.9590   0.00    0.0
2014/09/29 18:37:30.000   63.755975070  -68.510446542    94.0469   5  10   3.3874   2.7481   8.2879   1.6199   3.2814   3.9655   0.00    0.0
2014/09/29 18:38:00.000   63.755977773  -68.510449213    95.3243   5  10   3.3937   2.7451   8.2822   1.6185   3.2739   3.9719   0.00    0.0
2014/09/29 18:38:30.000   63.755980471  -68.510447036    94.6684   5  10   3.4001   2.7420   8.2760   1.6168   3.2659   3.9782   0.00    0.0
2014/09/29 18:39:00.000   63.755979089  -68.510446756    95.2229   5  10   3.4066   2.7387   8.2691   1.6150   3.2575   3.9843   0.00    0.0
2014/09/29 18:39:30.000   63.755978921  -68.510449181    95.4924   5  10   3.4130   2.7354   8.2618   1.6130   3.2486   3.9903   0.00    0.0
2014/09/29 18:40:00.000   63.755979703  -68.510440524    95.8323   5  10   3.4196   2.7320   8.2538   1.6108   3.2393   3.9962   0.00    0.0
2014/09/29 18:40:30.000   63.755981077  -68.510441355    95.5550   5  10   3.4262   2.7285   8.2454   1.6083   3.2295   4.0019   0.00    0.0
2014/09/29 18:41:00.000   63.755976843  -68.510438850    95.4435   5  10   3.4328   2.7249   8.2364   1.6057   3.2193   4.0074   0.00    0.0
2014/09/29 18:41:30.000   63.755975592  -68.510446650    95.7108   5  10   3.4395   2.7211   8.2269   1.6029   3.2086   4.0128   0.00    0.0
2014/09/29 18:42:00.000   63.755982024  -68.510452948    96.2690   5  10   3.4462   2.7174   8.2170   1.5998   3.1975   4.0181   0.00    0.0
2014/09/29 18:42:30.000   63.755979134  -68.510442624    96.4746   5  10   3.4530   2.7135   8.2065   1.5966   3.1860   4.0233   0.00    0.0
2014/09/29 18:43:00.000   63.755971857  -68.510450866    94.4409   5  11   3.2807   2.6993   7.7160   1.6722   3.2748   3.6321   0.00    0.0
2014/09/29 18:43:30.000   63.755979249  -68.510443952    95.5929   5  11   3.2873   2.6947   7.7081   1.6711   3.2652   3.6385   0.00    0.0
2014/09/29 18:44:00.000   63.755977768  -68.510451159    96.0484   5  11   3.2940   2.6900   7.6998   1.6697   3.2552   3.6449   0.00    0.0
2014/09/29 18:44:30.000   63.755976325  -68.510449454    95.5827   5  11   3.3007   2.6852   7.6911   1.6683   3.2449   3.6512   0.00    0.0
2014/09/29 18:45:00.000   63.755971534  -68.510453170    94.1109   5  11   3.3075   2.6803   7.6820   1.6666   3.2342   3.6574   0.00    0.0
2014/09/29 18:45:30.000   63.755972386  -68.510450410    94.7193   5  11   3.3143   2.6753   7.6726   1.6648   3.2232   3.6636   0.00    0.0
2014/09/29 18:46:00.000   63.755975356  -68.510456480    94.7435   5  11   3.3212   2.6702   7.6629   1.6629   3.2118   3.6696   0.00    0.0
2014/09/29 18:46:30.000   63.755976697  -68.510454834    95.5533   5  11   3.3282   2.6651   7.6528   1.6607   3.2000   3.6756   0.00    0.0
2014/09/29 18:47:00.000   63.755975082  -68.510461733    94.7341   5  11   3.3352   2.6598   7.6424   1.6585   3.1880   3.6815   0.00    0.0
2014/09/29 18:47:30.000   63.755979726  -68.510456123    94.6833   5  11   3.3423   2.6546   7.6317   1.6560   3.1756   3.6873   0.00    0.0
2014/09/29 18:48:00.000   63.755976929  -68.510458104    96.1191   5  11   3.3494   2.6492   7.6206   1.6534   3.1629   3.6931   0.00    0.0
2014/09/29 18:48:30.000   63.755971277  -68.510462095    95.3649   5  11   3.3566   2.6438   7.6093   1.6507   3.1498   3.6988   0.00    0.0
2014/09/29 18:49:00.000   63.755974281  -68.510461902    94.6197   5  11   3.3639   2.6383   7.5978   1.6477   3.1365   3.7044   0.00    0.0
2014/09/29 18:49:30.000   63.755973326  -68.510461909    94.4835   5  11   3.3713   2.6328   7.5859   1.6446   3.1229   3.7099   0.00    0.0
2014/09/29 18:50:00.000   63.755974180  -68.510462590    95.1859   5  11   3.3786   2.6273   7.5738   1.6414   3.1089   3.7154   0.00    0.0
2014/09/29 18:50:30.000   63.755970881  -68.510458361    94.5665   5  11   3.3861   2.6217   7.5615   1.6380   3.0947   3.7208   0.00    0.0
2014/09/29 18:51:00.000   63.755972322  -68.510462994    94.9428   5  11   3.3936   2.6160   7.5489   1.6344   3.0802   3.7262   0.00    0.0
2014/09/29 18:51:30.000   63.755970645  -68.510457313    94.1985   5  11   3.4012   2.6103   7.5361   1.6307   3.0654   3.7315   0.00    0.0
2014/09/29 18:52:00.000   63.755977407  -68.510458998    94.9146   5  11   3.4088   2.6046   7.5231   1.6268   3.0504   3.7368   0.00    0.0
2014/09/29 18:52:30.000   63.755976119  -68.510457598    94.8732   5  11   3.4165   2.5989   7.5099   1.6228   3.0351   3.7420   0.00    0.0
2014/09/29 18:53:00.000   63.755972345  -68.510454084    94.1925   5  11   3.4243   2.5931   7.4966   1.6186   3.0195   3.7471   0.00    0.0
2014/09/29 18:53:30.000   63.755972003  -68.510461897    94.7322   5  11   3.4321   2.5873   7.4830   1.6142   3.0037   3.7522   0.00    0.0
2014/09/29 18:54:00.000   63.755972957  -68.510460510    94.0068   5  11   3.4400   2.5815   7.4694   1.6097   2.9876   3.7573   0.00    0.0
2014/09/29 18:54:30.000   63.755974319  -68.510465632    94.2030   5  11   3.4480   2.5757   7.4555   1.6050   2.9713   3.7624   0.00    0.0
2014/09/29 18:55:00.000   63.755973707  -68.510463824    94.0133   5  11   3.4560   2.5699   7.4415   1.6001   2.9547   3.7674   0.00    0.0
2014/09/29 18:55:30.000   63.755969347  -68.510466533    94.0761   5  11   3.4640   2.5640   7.4274   1.5951   2.9379   3.7723   0.00    0.0
2014/09/29 18:56:00.000   63.755969397  -68.510463300    94.2227   5  11   3.4722   2.5582   7.4132   1.5900   2.9209   3.7773   0.00    0.0
2014/09/29 18:56:30.000   63.755974130  -68.510456260    93.6938   5  11   3.4804   2.5524   7.3989   1.5846   2.9037   3.7822   0.00    0.0
2014/09/29 18:57:00.000   63.755974382  -68.510464614    93.7163   5  11   3.4886   2.5466   7.3845   1.5791   2.8862   3.7870   0.00    0.0
2014/09/29 18:57:30.000   63.755975443  -68.510459423    94.2083   5  11   3.4969   2.5408   7.3700   1.5734   2.8685   3.7919   0.00    0.0
2014/09/29 18:58:00.000   63.755969904  -68.510460989    93.9513   5  11   3.5053   2.5350   7.3555   1.5676   2.8506   3.7967   0.00    0.0
2014/09/29 18:58:30.000   63.755975294  -68.510459968    95.4374   5   9   4.2537   2.6393   8.6978   1.8692   2.8238   4.8415   0.00    0.0
2014/09/29 18:59:00.000   63.755977573  -68.510461256    95.1128   5   9   4.2656   2.6316   8.7066   1.8601   2.8019   4.8564   0.00    0.0
2014/09/29 18:59:30.000   63.755979317  -68.510464776    95.2307   5   9   4.2777   2.6239   8.7154   1.8508   2.7797   4.8712   0.00    0.0
2014/09/29 19:00:00.000   63.755967016  -68.510465360    93.8781   5   9   4.1773   2.6152   8.7091   1.8204   2.7499   4.8348   0.00    0.0
2014/09/29 19:00:30.000   63.755967779  -68.510466597    93.5637   5   9   4.1906   2.6078   8.7186   1.8113   2.7273   4.8516   0.00    0.0
2014/09/29 19:01:00.000   63.755964029  -68.510465338    93.4754   5   9   4.2040   2.6005   8.7279   1.8019   2.7043   4.8683   0.00    0.0
2014/09/29 19:01:30.000   63.755964881  -68.510463672    93.0626   5   9   4.2174   2.5932   8.7371   1.7922   2.6808   4.8850   0.00    0.0
2014/09/29 19:02:00.000   63.755973111  -68.510469287    93.6079   5   9   4.2309   2.5861   8.7462   1.7822   2.6569   4.9016   0.00    0.0
2014/09/29 19:02:30.000   63.755969394  -68.510471844    92.9598   5   9   4.2444   2.5790   8.7551   1.7719   2.6325   4.9182   0.00    0.0
2014/09/29 19:03:00.000   63.755963945  -68.510475736    90.6336   5   9   4.2580   2.5720   8.7638   1.7613   2.6076   4.9348   0.00    0.0
2014/09/29 19:03:30.000   63.755962077  -68.510473475    90.1227   5   9   4.2717   2.5651   8.7724   1.7504   2.5822   4.9513   0.00    0.0
2014/09/29 19:04:00.000   63.755960703  -68.510471498    90.5060   5   9   4.2854   2.5583   8.7809   1.7392   2.5564   4.9678   0.00    0.0
2014/09/29 19:04:30.000   63.755964833  -68.510479672    90.7525   5   9   4.2991   2.5515   8.7891   1.7276   2.5300   4.9842   0.00    0.0
2014/09/29 19:05:00.000   63.755964186  -68.510482343    91.3780   5   9   4.3129   2.5449   8.7972   1.7157   2.5030   5.0005   0.00    0.0
2014/09/29 19:05:30.000   63.755965554  -68.510472671    91.4170   5   9   4.3268   2.5384   8.8052   1.7034   2.4755   5.0168   0.00    0.0
2014/09/29 19:06:00.000   63.755966016  -68.510475239    91.6953   5   9   4.3406   2.5320   8.8129   1.6908   2.4475   5.0330   0.00    0.0
2014/09/29 19:06:30.000   63.755964880  -68.510469442    92.5813   5   9   4.3546   2.5257   8.8205   1.6778   2.4189   5.0492   0.00    0.0
2014/09/29 19:07:00.000   63.755965132  -68.510473880    91.4478   5   9   4.3685   2.5195   8.8279   1.6644   2.3896   5.0652   0.00    0.0
2014/09/29 19:07:30.000   63.755969596  -68.510473674    92.0642   5   9   4.3825   2.5134   8.8351   1.6506   2.3598   5.0812   0.00    0.0
2014/09/29 19:08:00.000   63.755963737  -68.510467632    91.7374   5   9   4.3965   2.5075   8.8422   1.6364   2.3292   5.0971   0.00    0.0
2014/09/29 19:08:30.000   63.755966029  -68.510473212    91.6159   5   9   4.4105   2.5016   8.8491   1.6218   2.2981   5.1129   0.00    0.0
2014/09/29 19:09:00.000   63.755966369  -68.510473735    92.7769   5   9   4.4246   2.4959   8.8557   1.6068   2.2662   5.1286   0.00    0.0
2014/09/29 19:09:30.000   63.755962768  -68.510469629    91.5459   5   9   4.4386   2.4903   8.8622   1.5913   2.2336   5.1442   0.00    0.0
2014/09/29 19:10:00.000   63.755963681  -68.510465606    90.3133   5   9   4.4527   2.4849   8.8685   1.5754   2.2003   5.1598   0.00    0.0
2014/09/29 19:10:30.000   63.755957020  -68.510470753    91.4117   5   9   4.4668   2.4795   8.8746   1.5590   2.1661   5.1752   0.00    0.0
2014/09/29 19:11:00.000   63.755964772  -68.510473017    92.3658   5   9   4.4808   2.4744   8.8805   1.5421   2.1312   5.1905   0.00    0.0
2014/09/29 19:11:30.000   63.755959810  -68.510468241    89.8121   5   9   4.4949   2.4693   8.8863   1.5248   2.0954   5.2056   0.00    0.0
2014/09/29 19:12:00.000   63.755962935  -68.510472821    91.7176   5   9   4.5090   2.4644   8.8918   1.5068   2.0587   5.2207   0.00    0.0
2014/09/29 19:12:30.000   63.755952132  -68.510465952    89.8298   5   9   4.5231   2.4596   8.8971   1.4884   2.0211   5.2356   0.00    0.0
2014/09/29 19:13:00.000   63.755952249  -68.510465448    91.2746   5   9   4.5372   2.4550   8.9022   1.4694   1.9825   5.2505   0.00    0.0
2014/09/29 19:13:30.000   63.755952281  -68.510466375    91.7520   5   9   4.5512   2.4505   8.9071   1.4498   1.9429   5.2651   0.00    0.0
2014/09/29 19:14:00.000   63.755959873  -68.510461892    92.1812   5  10   3.5922   2.3697   7.0691   0.5772   0.5686   3.5478   0.00    0.0
2014/09/29 19:14:30.000   63.755961038  -68.510459835    91.5027   5  10   3.5974   2.3677   7.0706   0.5387   0.4607   3.5548   0.00    0.0
2014/09/29 19:15:00.000   63.755953794  -68.510457800    91.4882   5  10   3.6026   2.3659   7.0722   0.4970   0.3178   3.5619   0.00    0.0
2014/09/29 19:15:30.000   63.755951590  -68.510465742    91.0502   5  10   3.6079   2.3642   7.0739   0.4509  -0.1025   3.5691   0.00    0.0
2014/09/29 19:16:00.000   63.755952308  -68.510457969    92.1177   5  10   3.6133   2.3627   7.0758   0.3991  -0.3496   3.5765   0.00    0.0
2014/09/29 19:16:30.000   63.755943939  -68.510449300    90.6109   5  10   3.6186   2.3614   7.0778   0.3389  -0.4839   3.5839   0.00    0.0
2014/09/29 19:17:00.000   63.755955376  -68.510450882    91.3562   5  10   3.6241   2.3602   7.0799   0.2646  -0.5885   3.5915   0.00    0.0
2014/09/29 19:17:30.000   63.755947299  -68.510450317    90.3554   5  10   3.6295   2.3592   7.0822   0.1573  -0.6773   3.5992   0.00    0.0
2014/09/29 19:18:00.000   63.755950625  -68.510452131    90.7259   5  10   3.6350   2.3583   7.0846  -0.1446  -0.7559   3.6070   0.00    0.0
2014/09/29 19:18:30.000   63.755946412  -68.510449482    90.5826   5  10   3.6406   2.3576   7.0871  -0.2588  -0.8273   3.6150   0.00    0.0
2014/09/29 19:19:00.000   63.755943213  -68.510451530    90.5286   5  10   3.6462   2.3571   7.0898  -0.3369  -0.8931   3.6230   0.00    0.0
2014/09/29 19:19:30.000   63.755950931  -68.510451169    90.1697   5  10   3.6519   2.3567   7.0926  -0.4005  -0.9545   3.6312   0.00    0.0
2014/09/29 19:20:00.000   63.755953167  -68.510458120    90.7540   5  10   3.6576   2.3564   7.0955  -0.4558  -1.0123   3.6395   0.00    0.0
2014/09/29 19:20:30.000   63.755948570  -68.510451113    90.3340   5  10   3.6634   2.3564   7.0986  -0.5055  -1.0672   3.6479   0.00    0.0
2014/09/29 19:21:00.000   63.755956471  -68.510464851    91.5784   5  10   3.6692   2.3565   7.1018  -0.5511  -1.1195   3.6565   0.00    0.0
2014/09/29 19:21:30.000   63.755950764  -68.510463440    89.2134   5  10   3.6751   2.3567   7.1052  -0.5936  -1.1695   3.6652   0.00    0.0
2014/09/29 19:22:00.000   63.755949435  -68.510464121    89.6243   5  10   3.6811   2.3571   7.1088  -0.6337  -1.2177   3.6740   0.00    0.0
2014/09/29 19:22:30.000   63.755950728  -68.510465353    89.6014   5  10   3.6870   2.3577   7.1124  -0.6716  -1.2642   3.6829   0.00    0.0
2014/09/29 19:23:00.000   63.755951632  -68.510469574    89.0606   5  10   3.6931   2.3585   7.1163  -0.7079  -1.3091   3.6920   0.00    0.0
2014/09/29 19:23:30.000   63.755952393  -68.510463660    88.8775   5  10   3.6992   2.3594   7.1203  -0.7427  -1.3527   3.7012   0.00    0.0
2014/09/29 19:24:00.000   63.755950509  -68.510470015    89.4348   5  10   3.7053   2.3605   7.1244  -0.7762  -1.3951   3.7105   0.00    0.0
2014/09/29 19:24:30.000   63.755946787  -68.510463893    89.1835   5  10   3.7115   2.3617   7.1287  -0.8087  -1.4363   3.7200   0.00    0.0
2014/09/29 19:25:00.000   63.755950399  -68.510460789    88.3001   5  10   3.7178   2.3631   7.1332  -0.8402  -1.4765   3.7296   0.00    0.0
2014/09/29 19:25:30.000   63.755953053  -68.510461926    88.5562   5  10   3.7241   2.3647   7.1378  -0.8708  -1.5158   3.7393   0.00    0.0
2014/09/29 19:26:00.000   63.755970916  -68.510470363    87.0752   5   9   4.8452   2.5107   7.4308  -1.8452  -0.8344   2.7783   0.00    0.0
2014/09/29 19:26:30.000   63.755960701  -68.510466890    86.9483   5   9   4.8510   2.5162   7.4319  -1.8689  -0.8963   2.7987   0.00    0.0
2014/09/29 19:27:00.000   63.755960870  -68.510468545    87.4344   5   9   4.8568   2.5219   7.4332  -1.8926  -0.9546   2.8192   0.00    0.0
2014/09/29 19:27:30.000   63.755961763  -68.510479365    87.6027   5   9   4.8627   2.5278   7.4345  -1.9161  -1.0100   2.8399   0.00    0.0
2014/09/29 19:28:00.000   63.755966166  -68.510480242    87.8445   5   9   4.8685   2.5339   7.4360  -1.9396  -1.0628   2.8608   0.00    0.0
2014/09/29 19:28:30.000   63.755968264  -68.510474128    87.6913   5   9   4.8744   2.5402   7.4377  -1.9629  -1.1134   2.8819   0.00    0.0
2014/09/29 19:29:00.000   63.755951829  -68.510454129    87.2662   5  10   4.2677   2.2936   7.1102  -1.1506  -1.9426   3.6891   0.00    0.0
2014/09/29 19:29:30.000   63.755955019  -68.510467584    88.8992   5  10   4.2662   2.2961   7.1255  -1.1728  -1.9645   3.6963   0.00    0.0
2014/09/29 19:30:00.000   63.755953801  -68.510461487    89.7138   5  10   4.2646   2.2988   7.1408  -1.1944  -1.9862   3.7035   0.00    0.0
2014/09/29 19:30:30.000   63.755955472  -68.510469641    90.5470   5  10   4.2631   2.3015   7.1560  -1.2156  -2.0076   3.7106   0.00    0.0
2014/09/29 19:31:00.000   63.755955299  -68.510469435    90.1761   5  10   4.2614   2.3043   7.1713  -1.2363  -2.0287   3.7177   0.00    0.0
2014/09/29 19:31:30.000   63.755955751  -68.510467587    89.7142   5  10   4.2598   2.3072   7.1864  -1.2566  -2.0496   3.7247   0.00    0.0
2014/09/29 19:32:00.000   63.755953461  -68.510471730    89.3800   5  10   4.2581   2.3102   7.2016  -1.2764  -2.0703   3.7316   0.00    0.0
2014/09/29 19:32:30.000   63.755956238  -68.510471054    89.1550   5  10   4.2564   2.3133   7.2167  -1.2959  -2.0907   3.7384   0.00    0.0
2014/09/29 19:33:00.000   63.755957246  -68.510471204    89.6829   5  10   4.2546   2.3164   7.2317  -1.3150  -2.1109   3.7452   0.00    0.0
2014/09/29 19:33:30.000   63.755953842  -68.510469917    88.5900   5  10   4.2528   2.3197   7.2467  -1.3336  -2.1308   3.7519   0.00    0.0
2014/09/29 19:34:00.000   63.755954171  -68.510468277    88.5453   5  10   4.2509   2.3230   7.2616  -1.3520  -2.1505   3.7585   0.00    0.0
2014/09/29 19:34:30.000   63.755957011  -68.510462408    88.7723   5  10   4.2490   2.3264   7.2764  -1.3699  -2.1699   3.7651   0.00    0.0
2014/09/29 19:35:00.000   63.755955269  -68.510470243    89.1255   5  10   4.2470   2.3298   7.2912  -1.3875  -2.1890   3.7715   0.00    0.0
2014/09/29 19:35:30.000   63.755955664  -68.510469881    89.3449   5  10   4.2450   2.3333   7.3059  -1.4048  -2.2079   3.7779   0.00    0.0
2014/09/29 19:36:00.000   63.755956628  -68.510465840    88.5974   5  10   4.2430   2.3369   7.3204  -1.4217  -2.2266   3.7842   0.00    0.0
2014/09/29 19:36:30.000   63.755955661  -68.510461603    87.6476   5  10   4.2409   2.3405   7.3349  -1.4383  -2.2450   3.7903   0.00    0.0
2014/09/29 19:37:00.000   63.755956428  -68.510460470    87.7316   5  10   4.2388   2.3442   7.3493  -1.4546  -2.2631   3.7964   0.00    0.0
2014/09/29 19:37:30.000   63.755958479  -68.510468834    89.0147   5  10   4.2366   2.3480   7.3635  -1.4705  -2.2809   3.8024   0.00    0.0
2014/09/29 19:38:00.000   63.755956265  -68.510464787    88.3248   5  10   4.2344   2.3518   7.3776  -1.4862  -2.2985   3.8083   0.00    0.0
2014/09/29 19:38:30.000   63.755957579  -68.510466270    87.3464   5  10   4.2321   2.3556   7.3916  -1.5016  -2.3159   3.8141   0.00    0.0
2014/09/29 19:39:00.000   63.755961508  -68.510461534    87.9769   5  10   4.2298   2.3595   7.4054  -1.5166  -2.3329   3.8198   0.00    0.0
2014/09/29 19:39:30.000   63.755958069  -68.510456710    86.9763   5  10   4.2274   2.3635   7.4192  -1.5314  -2.3497   3.8253   0.00    0.0
2014/09/29 19:40:00.000   63.755955451  -68.510457521    86.9662   5  10   4.2250   2.3674   7.4327  -1.5459  -2.3662   3.8308   0.00    0.0
2014/09/29 19:40:30.000   63.755960189  -68.510454787    87.9562   5  10   4.2225   2.3714   7.4461  -1.5601  -2.3824   3.8361   0.00    0.0
2014/09/29 19:41:00.000   63.755955086  -68.510454481    87.1044   5  10   4.2200   2.3755   7.4593  -1.5740  -2.3983   3.8413   0.00    0.0
2014/09/29 19:41:30.000   63.755955708  -68.510454944    87.9196   5  10   4.2174   2.3795   7.4723  -1.5876  -2.4140   3.8464   0.00    0.0
2014/09/29 19:42:00.000   63.755951800  -68.510447829    87.1602   5  10   4.2147   2.3836   7.4852  -1.6010  -2.4293   3.8513   0.00    0.0
2014/09/29 19:42:30.000   63.755953747  -68.510443703    87.5854   5  10   4.2121   2.3877   7.4978  -1.6140  -2.4443   3.8562   0.00    0.0
2014/09/29 19:43:00.000   63.755953891  -68.510445796    87.4804   5  10   4.2093   2.3918   7.5103  -1.6269  -2.4591   3.8608   0.00    0.0
2014/09/29 19:43:30.000   63.755946379  -68.510449423    87.0515   5  10   4.2065   2.3959   7.5225  -1.6394  -2.4735   3.8654   0.00    0.0
2014/09/29 19:44:00.000   63.755954314  -68.510453955    87.4022   5  10   4.2037   2.4001   7.5345  -1.6517  -2.4876   3.8698   0.00    0.0
2014/09/29 19:44:30.000   63.755950402  -68.510453094    87.7450   5  10   4.2008   2.4042   7.5463  -1.6637  -2.5014   3.8741   0.00    0.0
2014/09/29 19:45:00.000   63.755946075  -68.510450915    87.1223   5  10   4.1978   2.4084   7.5579  -1.6754  -2.5149   3.8782   0.00    0.0
2014/09/29 19:45:30.000   63.755944736  -68.510450394    87.2159   5  10   4.1948   2.4125   7.5692  -1.6869  -2.5281   3.8821   0.00    0.0
2014/09/29 19:46:00.000   63.755943749  -68.510455535    86.4136   5  10   4.1918   2.4166   7.5802  -1.6982  -2.5409   3.8859   0.00    0.0
2014/09/29 19:46:30.000   63.755943055  -68.510446032    86.7511   5  10   4.1886   2.4208   7.5910  -1.7091  -2.5534   3.8896   0.00    0.0
2014/09/29 19:47:00.000   63.755944509  -68.510456930    87.2978   5  10   4.1855   2.4249   7.6015  -1.7199  -2.5655   3.8930   0.00    0.0
2014/09/29 19:47:30.000   63.755944046  -68.510453788    86.8450   5  10   4.1822   2.4290   7.6117  -1.7303  -2.5773   3.8964   0.00    0.0
2014/09/29 19:48:00.000   63.755950144  -68.510450096    87.1800   5  10   4.1790   2.4331   7.6217  -1.7405  -2.5888   3.8995   0.00    0.0
2014/09/29 19:48:30.000   63.755942260  -68.510450094    86.5615   5  10   4.1756   2.4371   7.6313  -1.7505  -2.5999   3.9025   0.00    0.0
2014/09/29 19:49:00.000   63.755947187  -68.510448383    87.2682   5  10   4.1722   2.4412   7.6407  -1.7602  -2.6106   3.9053   0.00    0.0
2014/09/29 19:49:30.000   63.755943617  -68.510447346    87.5053   5  10   4.1688   2.4452   7.6497  -1.7696  -2.6210   3.9079   0.00    0.0
2014/09/29 19:50:00.000   63.755943777  -68.510453870    86.6998   5  10   4.1652   2.4492   7.6584  -1.7788  -2.6310   3.9104   0.00    0.0
2014/09/29 19:50:30.000   63.755948141  -68.510445711    86.9771   5  10   4.1617   2.4531   7.6668  -1.7878  -2.6406   3.9126   0.00    0.0
2014/09/29 19:51:00.000   63.755948045  -68.510449032    86.7054   5  10   4.1580   2.4570   7.6749  -1.7965  -2.6498   3.9147   0.00    0.0
2014/09/29 19:51:30.000   63.755944493  -68.510451079    87.5056   5  10   4.1544   2.4609   7.6826  -1.8050  -2.6587   3.9166   0.00    0.0
2014/09/29 19:52:00.000   63.755947322  -68.510452391    87.3767   5  10   4.1506   2.4647   7.6900  -1.8132  -2.6672   3.9183   0.00    0.0
2014/09/29 19:52:30.000   63.755947381  -68.510447966    86.7456   5  10   4.1468   2.4685   7.6970  -1.8211  -2.6753   3.9198   0.00    0.0
2014/09/29 19:53:00.000   63.755950853  -68.510442481    86.9334   5  10   4.1430   2.4722   7.7036  -1.8289  -2.6830   3.9211   0.00    0.0
2014/09/29 19:53:30.000   63.755946073  -68.510446419    87.0853   5  10   4.1391   2.4759   7.7099  -1.8363  -2.6903   3.9223   0.00    0.0
2014/09/29 19:54:00.000   63.755945869  -68.510449252    86.9415   5  10   4.1351   2.4795   7.7158  -1.8436  -2.6971   3.9232   0.00    0.0
2014/09/29 19:54:30.000   63.755944965  -68.510449483    86.8339   5  10   4.1311   2.4830   7.7213  -1.8506  -2.7036   3.9239   0.00    0.0
2014/09/29 19:55:00.000   63.755949406  -68.510447447    86.8897   5  10   4.1270   2.4865   7.7265  -1.8573  -2.7097   3.9245   0.00    0.0
2014/09/29 19:55:30.000   63.755950207  -68.510455580    88.1359   5  10   4.1229   2.4900   7.7312  -1.8638  -2.7153   3.9248   0.00    0.0
2014/09/29 19:56:00.000   63.755954688  -68.510454320    87.4407   5  10   4.1187   2.4934   7.7356  -1.8701  -2.7206   3.9249   0.00    0.0
2014/09/29 19:56:30.000   63.755951345  -68.510460217    87.2801   5  10   4.1145   2.4967   7.7395  -1.8762  -2.7254   3.9249   0.00    0.0
2014/09/29 19:57:00.000   63.755951200  -68.510459679    87.7558   5  10   4.1102   2.4999   7.7431  -1.8820  -2.7298   3.9246   0.00    0.0
2014/09/29 19:57:30.000   63.755956456  -68.510455830    88.0814   5  10   4.1059   2.5031   7.7462  -1.8875  -2.7337   3.9241   0.00    0.0
2014/09/29 19:58:00.000   63.755953654  -68.510453763    87.5286   5  10   4.1015   2.5062   7.7490  -1.8929  -2.7373   3.9235   0.00    0.0
2014/09/29 19:58:30.000   63.755948799  -68.510453593    87.6984   5  10   4.0971   2.5092   7.7513  -1.8980  -2.7403   3.9226   0.00    0.0
2014/09/29 19:59:00.000   63.755952765  -68.510460151    87.8357   5  10   4.0926   2.5122   7.7532  -1.9029  -2.7430   3.9215   0.00    0.0
2014/09/29 19:59:30.000   63.755950418  -68.510458976    87.0873   5  10   4.0881   2.5151   7.7547  -1.9075  -2.7452   3.9203   0.00    0.0
2014/09/29 20:00:00.000   63.755943640  -68.510461054    85.4039   5   9   4.6529   2.5206   9.0861  -1.8416  -2.6430   5.0906   0.00    0.0
2014/09/29 20:00:30.000   63.755943594  -68.510464549    85.7363   5   9   4.6476   2.5231   9.0943  -1.8498  -2.6496   5.0914   0.00    0.0
2014/09/29 20:01:00.000   63.755942147  -68.510465134    84.7646   5   9   4.6422   2.5255   9.1016  -1.8575  -2.6556   5.0916   0.00    0.0
2014/09/29 20:01:30.000   63.755943822  -68.510469858    85.9634   5   9   4.6366   2.5278   9.1081  -1.8649  -2.6610   5.0914   0.00    0.0
2014/09/29 20:02:00.000   63.755948001  -68.510468764    85.8663   5   9   4.6308   2.5301   9.1138  -1.8719  -2.6657   5.0906   0.00    0.0
2014/09/29 20:02:30.000   63.755945416  -68.510463640    85.2401   5   9   4.6248   2.5323   9.1187  -1.8785  -2.6697   5.0894   0.00    0.0
2014/09/29 20:03:00.000   63.755948838  -68.510464976    85.2199   5   9   4.6187   2.5345   9.1227  -1.8847  -2.6731   5.0877   0.00    0.0
2014/09/29 20:03:30.000   63.755946021  -68.510468085    85.9211   5   9   4.6124   2.5366   9.1259  -1.8905  -2.6759   5.0856   0.00    0.0
2014/09/29 20:04:00.000   63.755942744  -68.510466669    84.8351   5   9   4.6060   2.5386   9.1283  -1.8960  -2.6780   5.0829   0.00    0.0
2014/09/29 20:04:30.000   63.755943171  -68.510466117    84.9162   5   9   4.5993   2.5406   9.1298  -1.9011  -2.6794   5.0798   0.00    0.0
2014/09/29 20:05:00.000   63.755940444  -68.510466879    85.0171   5   9   4.5926   2.5425   9.1305  -1.9058  -2.6802   5.0761   0.00    0.0
2014/09/29 20:05:30.000   63.755938602  -68.510463001    84.7778   5   9   4.5856   2.5443   9.1303  -1.9101  -2.6803   5.0721   0.00    0.0
2014/09/29 20:06:00.000   63.755941106  -68.510464783    84.5544   5   9   4.5785   2.5461   9.1293  -1.9141  -2.6798   5.0675   0.00    0.0
2014/09/29 20:06:30.000   63.755943354  -68.510468692    84.9441   5   9   4.5713   2.5478   9.1274  -1.9177  -2.6786   5.0625   0.00    0.0
2014/09/29 20:07:00.000   63.755937369  -68.510464606    84.3609   5   9   4.5639   2.5494   9.1247  -1.9209  -2.6767   5.0570   0.00    0.0
2014/09/29 20:07:30.000   63.755937628  -68.510459234    84.2102   5   9   4.5564   2.5510   9.1212  -1.9238  -2.6742   5.0510   0.00    0.0
2014/09/29 20:08:00.000   63.755939951  -68.510461383    84.5792   5   9   4.5487   2.5525   9.1168  -1.9264  -2.6710   5.0446   0.00    0.0
2014/09/29 20:08:30.000   63.755938988  -68.510462405    84.6401   5   9   4.5409   2.5539   9.1116  -1.9286  -2.6672   5.0378   0.00    0.0
2014/09/29 20:09:00.000   63.755931746  -68.510456060    84.1616   5   9   4.5329   2.5553   9.1056  -1.9305  -2.6626   5.0305   0.00    0.0
2014/09/29 20:09:30.000   63.755941623  -68.510462865    84.2198   5   9   4.5249   2.5566   9.0988  -1.9321  -2.6575   5.0229   0.00    0.0
2014/09/29 20:10:00.000   63.755936476  -68.510460739    83.4766   5   9   4.5167   2.5578   9.0912  -1.9333  -2.6516   5.0147   0.00    0.0
2014/09/29 20:10:30.000   63.755935221  -68.510462867    84.7123   5   9   4.5084   2.5590   9.0828  -1.9342  -2.6451   5.0062   0.00    0.0
2014/09/29 20:11:00.000   63.755933246  -68.510460776    84.2131   5   9   4.5000   2.5601   9.0736  -1.9348  -2.6380   4.9973   0.00    0.0
2014/09/29 20:11:30.000   63.755937355  -68.510462351    84.3592   5   9   4.4914   2.5612   9.0636  -1.9351  -2.6302   4.9880   0.00    0.0
2014/09/29 20:12:00.000   63.755937850  -68.510465840    84.6596   5   9   4.4828   2.5622   9.0529  -1.9351  -2.6218   4.9783   0.00    0.0
2014/09/29 20:12:30.000   63.755937984  -68.510469191    84.7474   5   9   4.4740   2.5631   9.0415  -1.9348  -2.6127   4.9682   0.00    0.0
2014/09/29 20:13:00.000   63.755938942  -68.510466494    84.8299   5   9   4.4652   2.5640   9.0293  -1.9342  -2.6030   4.9578   0.00    0.0
2014/09/29 20:13:30.000   63.755939199  -68.510474046    84.8951   5   9   4.4563   2.5649   9.0164  -1.9333  -2.5927   4.9470   0.00    0.0
2014/09/29 20:14:00.000   63.755941795  -68.510467504    84.8286   5   9   4.4473   2.5657   9.0028  -1.9321  -2.5817   4.9359   0.00    0.0
2014/09/29 20:14:30.000   63.755941734  -68.510469067    84.2508   5   9   4.4382   2.5664   8.9885  -1.9307  -2.5701   4.9245   0.00    0.0
2014/09/29 20:15:00.000   63.755939499  -68.510477648    86.2100   5   9   4.4291   2.5671   8.9736  -1.9290  -2.5579   4.9127   0.00    0.0
2014/09/29 20:15:30.000   63.755942857  -68.510471754    85.1693   5   9   4.4198   2.5678   8.9580  -1.9270  -2.5451   4.9006   0.00    0.0
2014/09/29 20:16:00.000   63.755943700  -68.510475429    85.4233   5   9   4.4105   2.5684   8.9418  -1.9248  -2.5317   4.8883   0.00    0.0
2014/09/29 20:16:30.000   63.755936651  -68.510474859    85.1434   5   9   4.4012   2.5690   8.9250  -1.9224  -2.5177   4.8757   0.00    0.0
2014/09/29 20:17:00.000   63.755943599  -68.510478288    86.0293   5   9   4.3918   2.5696   8.9076  -1.9197  -2.5031   4.8628   0.00    0.0
2014/09/29 20:17:30.000   63.755942780  -68.510477204    85.4229   5   9   4.3824   2.5701   8.8896  -1.9167  -2.4879   4.8496   0.00    0.0
2014/09/29 20:18:00.000   63.755943496  -68.510481437    86.0231   5   9   4.3729   2.5706   8.8710  -1.9136  -2.4721   4.8363   0.00    0.0
2014/09/29 20:18:30.000   63.755939651  -68.510478427    85.5287   5   9   4.3634   2.5711   8.8519  -1.9102  -2.4557   4.8227   0.00    0.0
2014/09/29 20:19:00.000   63.755944923  -68.510476707    86.0468   5   9   4.3538   2.5716   8.8323  -1.9066  -2.4387   4.8088   0.00    0.0
2014/09/29 20:19:30.000   63.755947225  -68.510475396    85.6788   5   9   4.3443   2.5720   8.8122  -1.9028  -2.4212   4.7948   0.00    0.0
2014/09/29 20:20:00.000   63.755945543  -68.510480102    85.9308   5   9   4.3347   2.5725   8.7917  -1.8988  -2.4031   4.7806   0.00    0.0
2014/09/29 20:20:30.000   63.755944365  -68.510474511    85.4431   5   9   4.3251   2.5729   8.7707  -1.8947  -2.3845   4.7662   0.00    0.0
2014/09/29 20:21:00.000   63.755943744  -68.510477834    85.1159   5   9   4.3155   2.5734   8.7492  -1.8903  -2.3653   4.7517   0.00    0.0
2014/09/29 20:21:30.000   63.755941404  -68.510479022    86.5433   5   9   4.3059   2.5738   8.7273  -1.8857  -2.3455   4.7370   0.00    0.0
2014/09/29 20:22:00.000   63.755940782  -68.510479800    86.4219   5   9   4.2962   2.5742   8.7051  -1.8810  -2.3252   4.7221   0.00    0.0
2014/09/29 20:22:30.000   63.755943447  -68.510477945    86.2001   5   9   4.2866   2.5746   8.6824  -1.8761  -2.3043   4.7072   0.00    0.0
2014/09/29 20:23:00.000   63.755946519  -68.510479809    85.9866   5   9   4.2770   2.5751   8.6594  -1.8710  -2.2829   4.6921   0.00    0.0
2014/09/29 20:23:30.000   63.755947302  -68.510477864    85.2403   5   9   4.2675   2.5755   8.6361  -1.8657  -2.2610   4.6770   0.00    0.0
2014/09/29 20:24:00.000   63.755946398  -68.510477725    85.9112   5   9   4.2579   2.5760   8.6124  -1.8604  -2.2385   4.6617   0.00    0.0
2014/09/29 20:24:30.000   63.755944609  -68.510475756    86.4764   5   9   4.2484   2.5765   8.5885  -1.8548  -2.2155   4.6464   0.00    0.0
2014/09/29 20:25:00.000   63.755946821  -68.510479973    86.7181   5   9   4.2388   2.5770   8.5643  -1.8491  -2.1920   4.6310   0.00    0.0
2014/09/29 20:25:30.000   63.755945786  -68.510484343    86.5089   5   9   4.2294   2.5776   8.5399  -1.8433  -2.1679   4.6156   0.00    0.0
2014/09/29 20:26:00.000   63.755948824  -68.510479904    87.3287   5   9   4.2199   2.5781   8.5152  -1.8374  -2.1433   4.6001   0.00    0.0
2014/09/29 20:26:30.000   63.755951107  -68.510481821    87.9816   5   9   4.2105   2.5787   8.4903  -1.8313  -2.1182   4.5846   0.00    0.0
2014/09/29 20:27:00.000   63.755948214  -68.510483161    86.9720   5   9   4.2012   2.5794   8.4651  -1.8251  -2.0925   4.5690   0.00    0.0
2014/09/29 20:27:30.000   63.755947621  -68.510479556    86.3485   5   9   4.1919   2.5800   8.4399  -1.8187  -2.0663   4.5535   0.00    0.0
2014/09/29 20:28:00.000   63.755951457  -68.510480142    87.0745   5   9   4.1826   2.5807   8.4144  -1.8123  -2.0395   4.5380   0.00    0.0
2014/09/29 20:28:30.000   63.755952345  -68.510480186    86.9205   5   9   4.1734   2.5815   8.3889  -1.8057  -2.0122   4.5225   0.00    0.0
2014/09/29 20:29:00.000   63.755951209  -68.510477638    87.9164   5   9   4.1643   2.5823   8.3631  -1.7991  -1.9843   4.5070   0.00    0.0
2014/09/29 20:29:30.000   63.755950194  -68.510479183    87.6102   5   9   4.1552   2.5832   8.3373  -1.7923  -1.9559   4.4915   0.00    0.0
2014/09/29 20:30:00.000   63.755954005  -68.510482132    87.1652   5   9   4.1461   2.5841   8.3114  -1.7854  -1.9269   4.4761   0.00    0.0
2014/09/29 20:30:30.000   63.755949750  -68.510481759    86.1733   5   9   4.1372   2.5850   8.2855  -1.7785  -1.8973   4.4607   0.00    0.0
2014/09/29 20:31:00.000   63.755950075  -68.510480343    86.9885   5   9   4.1283   2.5860   8.2594  -1.7714  -1.8671   4.4454   0.00    0.0
2014/09/29 20:31:30.000   63.755949547  -68.510480178    88.1593   5   9   4.1195   2.5871   8.2334  -1.7643  -1.8364   4.4302   0.00    0.0
2014/09/29 20:32:00.000   63.755948638  -68.510476211    87.5727   5   9   4.1108   2.5883   8.2073  -1.7570  -1.8049   4.4150   0.00    0.0
2014/09/29 20:32:30.000   63.755947627  -68.510478166    87.7480   5   9   4.1021   2.5895   8.1812  -1.7497  -1.7729   4.3999   0.00    0.0
2014/09/29 20:33:00.000   63.755950263  -68.510475594    88.3861   5   9   4.0935   2.5907   8.1551  -1.7423  -1.7402   4.3850   0.00    0.0
2014/09/29 20:33:30.000   63.755950588  -68.510474374    88.5883   5   9   4.0851   2.5921   8.1290  -1.7348  -1.7068   4.3701   0.00    0.0
2014/09/29 20:34:00.000   63.755951942  -68.510479207    88.6498   5   9   4.0766   2.5935   8.1030  -1.7273  -1.6726   4.3553   0.00    0.0
2014/09/29 20:34:30.000   63.755951716  -68.510482397    88.6277   5   9   4.0683   2.5950   8.0770  -1.7197  -1.6378   4.3406   0.00    0.0
2014/09/29 20:35:00.000   63.755947096  -68.510488062    87.4770   5   9   4.0601   2.5965   8.0510  -1.7120  -1.6021   4.3261   0.00    0.0
2014/09/29 20:35:30.000   63.755949965  -68.510485171    88.4566   5   9   4.0519   2.5982   8.0251  -1.7042  -1.5656   4.3117   0.00    0.0
2014/09/29 20:36:00.000   63.755948610  -68.510483108    87.9691   5   9   4.0439   2.5999   7.9994  -1.6964  -1.5282   4.2974   0.00    0.0
2014/09/29 20:36:30.000   63.755952965  -68.510492104    88.0439   5   9   4.0359   2.6017   7.9737  -1.6885  -1.4899   4.2832   0.00    0.0
2014/09/29 20:37:00.000   63.755945948  -68.510488245    87.4845   5   9   4.0281   2.6035   7.9481  -1.6805  -1.4507   4.2692   0.00    0.0
2014/09/29 20:37:30.000   63.755960221  -68.510480950    83.9848   5   8   4.2872   2.6099   8.7872  -1.6034  -1.6021   3.5282   0.00    0.0
2014/09/29 20:38:00.000   63.755958749  -68.510489766    84.7053   5   8   4.2777   2.6114   8.7679  -1.6001  -1.5534   3.5135   0.00    0.0
2014/09/29 20:38:30.000   63.755962382  -68.510486713    85.8897   5   8   4.2683   2.6129   8.7485  -1.5967  -1.5030   3.4992   0.00    0.0
2014/09/29 20:39:00.000   63.755957415  -68.510488392    84.8557   5   8   4.2590   2.6146   8.7292  -1.5933  -1.4507   3.4851   0.00    0.0
2014/09/29 20:39:30.000   63.755958064  -68.510478425    84.2624   5   8   4.2498   2.6165   8.7099  -1.5899  -1.3965   3.4712   0.00    0.0
2014/09/29 20:40:00.000   63.755950500  -68.510518089    78.1665   5   7   4.5566   3.0446  11.9749   0.2699   3.3170   5.0684   0.00    0.0
2014/09/29 20:40:30.000   63.755940557  -68.510517190    75.5609   5   7   4.5501   3.0538  11.9866   0.3412   3.3669   5.0697   0.00    0.0
2014/09/29 20:41:00.000   63.755947819  -68.510518628    77.8986   5   7   4.5437   3.0634  11.9977   0.4004   3.4162   5.0710   0.00    0.0
2014/09/29 20:41:30.000   63.755946026  -68.510516777    77.8627   5   7   4.5373   3.0731  12.0081   0.4523   3.4649   5.0721   0.00    0.0
2014/09/29 20:42:00.000   63.755942438  -68.510519232    76.5953   5   7   4.5310   3.0832  12.0178   0.4991   3.5130   5.0733   0.00    0.0
2014/09/29 20:42:30.000   63.755946883  -68.510519975    78.4162   5   7   4.5247   3.0934  12.0268   0.5421   3.5605   5.0743   0.00    0.0
2014/09/29 20:43:00.000   63.755945226  -68.510520248    78.0306   5   7   4.5185   3.1040  12.0352   0.5822   3.6075   5.0753   0.00    0.0
2014/09/29 20:43:30.000   63.755950743  -68.510526743    79.8335   5   7   4.5123   3.1147  12.0429   0.6199   3.6538   5.0762   0.00    0.0
2014/09/29 20:44:00.000   63.755940100  -68.510523611    76.4728   5   7   4.5062   3.1257  12.0499   0.6556   3.6995   5.0770   0.00    0.0
2014/09/29 20:44:30.000   63.755945811  -68.510522801    77.8951   5   7   4.5002   3.1369  12.0561   0.6895   3.7446   5.0778   0.00    0.0
2014/09/29 20:45:00.000   63.755944912  -68.510522608    77.3479   5   7   4.4942   3.1483  12.0617   0.7220   3.7891   5.0785   0.00    0.0
2014/09/29 20:45:30.000   63.755944451  -68.510529149    78.8744   5   7   4.4882   3.1599  12.0665   0.7532   3.8330   5.0790   0.00    0.0
2014/09/29 20:46:00.000   63.755944564  -68.510525661    78.9109   5   7   4.4823   3.1717  12.0706   0.7832   3.8763   5.0795   0.00    0.0
2014/09/29 20:46:30.000   63.755938735  -68.510530691    76.8273   5   7   4.4764   3.1838  12.0740   0.8122   3.9189   5.0799   0.00    0.0
2014/09/29 20:47:00.000   63.755946292  -68.510533523    79.8798   5   7   4.4705   3.1960  12.0766   0.8402   3.9609   5.0802   0.00    0.0
2014/09/29 20:47:30.000   63.755948433  -68.510530422    79.6092   5   7   4.4647   3.2084  12.0784   0.8673   4.0023   5.0803   0.00    0.0
2014/09/29 20:48:00.000   63.755939085  -68.510530560    76.6719   5   7   4.4590   3.2210  12.0795   0.8936   4.0431   5.0804   0.00    0.0
2014/09/29 20:48:30.000   63.755946220  -68.510532460    80.5758   5   7   4.4533   3.2337  12.0798   0.9192   4.0832   5.0803   0.00    0.0
2014/09/29 20:49:00.000   63.755936322  -68.510530419    76.8453   5   7   4.4476   3.2466  12.0794   0.9440   4.1227   5.0801   0.00    0.0
2014/09/29 20:49:30.000   63.755946911  -68.510532787    80.5022   5   7   4.4419   3.2597  12.0781   0.9682   4.1615   5.0798   0.00    0.0
2014/09/29 20:50:00.000   63.755944113  -68.510533611    80.4392   5   7   4.4363   3.2728  12.0761   0.9917   4.1996   5.0794   0.00    0.0
2014/09/29 20:50:30.000   63.755938744  -68.510532170    77.8118   5   7   4.4307   3.2862  12.0733   1.0146   4.2371   5.0788   0.00    0.0
2014/09/29 20:51:00.000   63.755938044  -68.510530107    78.8214   5   7   4.4252   3.2996  12.0697   1.0369   4.2739   5.0780   0.00    0.0
2014/09/29 20:51:30.000   63.755943722  -68.510529434    79.6534   5   7   4.4197   3.3131  12.0652   1.0587   4.3101   5.0771   0.00    0.0
2014/09/29 20:52:00.000   63.755948209  -68.510535999    81.9221   5   7   4.4142   3.3268  12.0600   1.0799   4.3455   5.0761   0.00    0.0
2014/09/29 20:52:30.000   63.755928771  -68.510542178    75.3679   5   7   4.4087   3.3406  12.0539   1.1006   4.3803   5.0749   0.00    0.0
2014/09/29 20:53:00.000   63.755943174  -68.510535326    79.6236   5   7   4.4033   3.3544  12.0470   1.1208   4.4144   5.0735   0.00    0.0
2014/09/29 20:53:30.000   63.755950738  -68.510530106    82.8319   5   7   4.3979   3.3683  12.0393   1.1405   4.4477   5.0719   0.00    0.0
2014/09/29 20:54:00.000   63.755950266  -68.510524331    82.0099   5   7   4.3925   3.3822  12.0308   1.1597   4.4804   5.0702   0.00    0.0
2014/09/29 20:54:30.000   63.755943943  -68.510516266    79.8548   5   7   4.3871   3.3963  12.0214   1.1784   4.5124   5.0683   0.00    0.0
2014/09/29 20:55:00.000   63.755942086  -68.510525081    80.1165   5   7   4.3817   3.4103  12.0112   1.1967   4.5436   5.0662   0.00    0.0
2014/09/29 20:55:30.000   63.755936896  -68.510529374    78.7083   5   7   4.3764   3.4244  12.0001   1.2145   4.5741   5.0639   0.00    0.0
2014/09/29 20:56:00.000   63.755941618  -68.510524263    78.6331   5   7   4.3711   3.4385  11.9882   1.2318   4.6039   5.0614   0.00    0.0
2014/09/29 20:56:30.000   63.755937974  -68.510530334    77.3324   5   7   4.3658   3.4526  11.9755   1.2487   4.6329   5.0588   0.00    0.0
2014/09/29 20:57:00.000   63.755940549  -68.510526869    78.7939   5   7   4.3605   3.4667  11.9619   1.2652   4.6612   5.0559   0.00    0.0
2014/09/29 20:57:30.000   63.755946500  -68.510521627    81.5915   5   7   4.3552   3.4808  11.9474   1.2812   4.6887   5.0528   0.00    0.0
2014/09/29 20:58:00.000   63.755945172  -68.510521653    80.5967   5   7   4.3500   3.4949  11.9322   1.2968   4.7155   5.0495   0.00    0.0
2014/09/29 20:58:30.000   63.755945919  -68.510515855    84.8415   5   8   4.3392   3.4950  10.4965   1.2855   4.5517   4.9217   0.00    0.0
2014/09/29 20:59:00.000   63.755954516  -68.510527319    86.0181   5   8   4.3347   3.5091  10.5183   1.3026   4.5806   4.9290   0.00    0.0
2014/09/29 20:59:30.000   63.755947379  -68.510522437    84.0592   5   8   4.3302   3.5231  10.5392   1.3192   4.6091   4.9360   0.00    0.0
2014/09/29 21:00:00.000   63.755941492  -68.510525748    84.8349   5   8   4.3257   3.5371  10.5591   1.3354   4.6370   4.9426   0.00    0.0
2014/09/29 21:00:30.000   63.755947505  -68.510517571    85.9055   5   8   4.3211   3.5511  10.5780   1.3511   4.6644   4.9488   0.00    0.0
2014/09/29 21:01:00.000   63.755930741  -68.510526304    80.4915   5   8   4.3165   3.5651  10.5958   1.3664   4.6912   4.9546   0.00    0.0
2014/09/29 21:01:30.000   63.755944855  -68.510522815    84.6752   5   8   4.3118   3.5790  10.6126   1.3812   4.7174   4.9600   0.00    0.0
2014/09/29 21:02:00.000   63.755943451  -68.510520946    83.8908   5   8   4.3070   3.5928  10.6283   1.3956   4.7431   4.9650   0.00    0.0
2014/09/29 21:02:30.000   63.755945252  -68.510523313    84.3149   5   8   4.3022   3.6066  10.6428   1.4095   4.7681   4.9695   0.00    0.0
2014/09/29 21:03:00.000   63.755938808  -68.510522577    82.5964   5   8   4.2973   3.6202  10.6562   1.4230   4.7924   4.9735   0.00    0.0
2014/09/29 21:03:30.000   63.755949630  -68.510516656    85.6913   5   8   4.2923   3.6338  10.6684   1.4359   4.8161   4.9771   0.00    0.0
2014/09/29 21:04:00.000   63.755944542  -68.510526440    83.6673   5   8   4.2872   3.6473  10.6795   1.4484   4.8391   4.9802   0.00    0.0
2014/09/29 21:04:30.000   63.755947533  -68.510528295    85.1857   5   8   4.2821   3.6606  10.6892   1.4604   4.8614   4.9828   0.00    0.0
2014/09/29 21:05:00.000   63.755942701  -68.510527999    84.5440   5   8   4.2768   3.6738  10.6978   1.4719   4.8830   4.9850   0.00    0.0
2014/09/29 21:05:30.000   63.755948042  -68.510527525    85.2226   5   8   4.2715   3.6868  10.7051   1.4828   4.9038   4.9866   0.00    0.0
2014/09/29 21:06:00.000   63.755958508  -68.510526440    87.4994   5   7   8.2991   3.9456  20.8034   3.4627   6.9784  12.3220   0.00    0.0
2014/09/29 21:06:30.000   63.755952435  -68.510527554    87.4288   5   7   8.3247   3.9735  20.9223   3.5199   7.0632  12.3854   0.00    0.0
2014/09/29 21:07:00.000   63.755967819  -68.510515317    92.5345   5   7   8.3468   4.0010  21.0300   3.5742   7.1444  12.4421   0.00    0.0
2014/09/29 21:07:30.000   63.755958475  -68.510513187    89.9751   5   7   8.3650   4.0282  21.1260   3.6254   7.2217  12.4916   0.00    0.0
2014/09/29 21:08:00.000   63.755965703  -68.510513618    91.8213   5   7   8.3793   4.0549  21.2097   3.6734   7.2948  12.5336   0.00    0.0
2014/09/29 21:08:30.000   63.755975401  -68.510510752    94.2098   5   7   8.3894   4.0809  21.2805   3.7181   7.3635  12.5678   0.00    0.0
2014/09/29 21:09:00.000   63.755973510  -68.510513898    92.9641   5   7   8.3953   4.1063  21.3379   3.7594   7.4275  12.5939   0.00    0.0
2014/09/29 21:09:30.000   63.755975674  -68.510504704    94.2252   5   7   8.3968   4.1308  21.3817   3.7970   7.4866  12.6118   0.00    0.0
2014/09/29 21:10:00.000   63.755972453  -68.510509037    91.9650   5   7   8.3937   4.1544  21.4114   3.8309   7.5405  12.6212   0.00    0.0
2014/09/29 21:10:30.000   63.755962211  -68.510514972    89.1668   5   8   6.0657   3.9721  14.1039   2.7245   6.0620   8.1183   0.00    0.0
2014/09/29 21:11:00.000   63.755959038  -68.510519077    88.6462   5   8   6.0883   3.9929  14.2109   2.7654   6.1183   8.1801   0.00    0.0
2014/09/29 21:11:30.000   63.755955048  -68.510521462    87.7525   5   8   6.1103   4.0135  14.3152   2.8051   6.1733   8.2402   0.00    0.0
2014/09/29 21:12:00.000   63.755959371  -68.510521733    88.3581   5   8   6.1315   4.0338  14.4165   2.8436   6.2270   8.2984   0.00    0.0
2014/09/29 21:12:30.000   63.755954457  -68.510525598    86.7491   5   8   6.1518   4.0537  14.5144   2.8807   6.2792   8.3545   0.00    0.0
2014/09/29 21:13:00.000   63.755948989  -68.510528316    87.2367   5   8   6.1711   4.0733  14.6086   2.9163   6.3297   8.4084   0.00    0.0
2014/09/29 21:13:30.000   63.755955738  -68.510529384    87.3246   5   8   6.1894   4.0924  14.6988   2.9505   6.3784   8.4598   0.00    0.0
2014/09/29 21:14:00.000   63.755956517  -68.510532755    86.7502   5   8   6.2065   4.1110  14.7847   2.9830   6.4251   8.5086   0.00    0.0
2014/09/29 21:14:30.000   63.755965756  -68.510529463    88.7547   5   8   6.2224   4.1291  14.8659   3.0138   6.4697   8.5546   0.00    0.0
2014/09/29 21:15:00.000   63.755958174  -68.510532072    88.6921   5   8   6.2369   4.1465  14.9422   3.0429   6.5120   8.5976   0.00    0.0
2014/09/29 21:15:30.000   63.755956365  -68.510530601    88.0187   5   8   6.2500   4.1633  15.0131   3.0700   6.5518   8.6374   0.00    0.0
2014/09/29 21:16:00.000   63.755956435  -68.510532362    87.1960   5   8   6.2615   4.1793  15.0786   3.0952   6.5891   8.6738   0.00    0.0
2014/09/29 21:16:30.000   63.755953511  -68.510538860    87.2162   5   8   6.2714   4.1945  15.1382   3.1184   6.6238   8.7068   0.00    0.0
2014/09/29 21:17:00.000   63.755942370  -68.510549809    84.3732   5   8   6.2796   4.2089  15.1917   3.1394   6.6556   8.7361   0.00    0.0
2014/09/29 21:17:30.000   63.755961086  -68.510542822    87.7586   5   8   6.2861   4.2224  15.2388   3.1583   6.6844   8.7616   0.00    0.0
2014/09/29 21:18:00.000   63.755953469  -68.510534338    88.7859   5   8   6.2907   4.2350  15.2794   3.1749   6.7102   8.7832   0.00    0.0
2014/09/29 21:18:30.000   63.755954397  -68.510541869    87.5326   5   8   6.2934   4.2466  15.3132   3.1893   6.7328   8.8007   0.00    0.0
2014/09/29 21:19:00.000   63.755964204  -68.510535859    89.0737   5   8   6.2941   4.2572  15.3401   3.2012   6.7522   8.8141   0.00    0.0
2014/09/29 21:19:30.000   63.755960122  -68.510530273    89.3327   5   8   6.2929   4.2668  15.3600   3.2108   6.7683   8.8234   0.00    0.0
2014/09/29 21:20:00.000   63.755962249  -68.510534709    88.8838   5   8   6.2896   4.2753  15.3726   3.2179   6.7811   8.8283   0.00    0.0
2014/09/29 21:20:30.000   63.755965003  -68.510534567    89.2859   5   8   6.2843   4.2827  15.3780   3.2226   6.7904   8.8289   0.00    0.0
2014/09/29 21:21:00.000   63.755956532  -68.510541641    87.3776   5   8   6.2770   4.2890  15.3762   3.2248   6.7962   8.8252   0.00    0.0
2014/09/29 21:21:30.000   63.755949283  -68.510546963    86.0470   5   8   6.2676   4.2942  15.3669   3.2245   6.7986   8.8172   0.00    0.0
2014/09/29 21:22:00.000   63.755962144  -68.510538153    88.3342   5   8   6.2561   4.2983  15.3505   3.2217   6.7975   8.8049   0.00    0.0
2014/09/29 21:22:30.000   63.755959079  -68.510534789    88.4039   5   8   6.2426   4.3013  15.3267   3.2165   6.7930   8.7882   0.00    0.0
2014/09/29 21:23:00.000   63.755958569  -68.510534314    88.1466   5   8   6.2271   4.3031  15.2959   3.2088   6.7851   8.7674   0.00    0.0
2014/09/29 21:23:30.000   63.755958909  -68.510531126    89.7643   5   8   6.2097   4.3039  15.2580   3.1987   6.7738   8.7424   0.00    0.0
2014/09/29 21:24:00.000   63.755955886  -68.510535198    87.7763   5   9   3.5190   3.6560   8.5760  -1.1878   4.1421   3.4537   0.00    0.0
2014/09/29 21:24:30.000   63.755953002  -68.510546885    86.4000   5   9   3.5096   3.6604   8.5731  -1.1884   4.1442   3.4500   0.00    0.0
2014/09/29 21:25:00.000   63.755954321  -68.510538550    87.4131   5   9   3.5002   3.6647   8.5695  -1.1892   4.1458   3.4463   0.00    0.0
2014/09/29 21:25:30.000   63.755951354  -68.510538059    87.7188   5   9   3.4910   3.6688   8.5653  -1.1901   4.1469   3.4425   0.00    0.0
2014/09/29 21:26:00.000   63.755952898  -68.510537663    87.8507   5   9   3.4818   3.6728   8.5605  -1.1912   4.1475   3.4386   0.00    0.0
2014/09/29 21:26:30.000   63.755955261  -68.510535253    88.9920   5   9   3.4727   3.6767   8.5550  -1.1925   4.1477   3.4347   0.00    0.0
2014/09/29 21:27:00.000   63.755955307  -68.510533010    87.7003   5   9   3.4636   3.6804   8.5490  -1.1940   4.1474   3.4307   0.00    0.0
2014/09/29 21:27:30.000   63.755949457  -68.510536774    88.0207   5   9   3.4547   3.6840   8.5424  -1.1956   4.1466   3.4266   0.00    0.0
2014/09/29 21:28:00.000   63.755952938  -68.510532565    89.0375   5   9   3.4458   3.6875   8.5351  -1.1974   4.1454   3.4225   0.00    0.0
2014/09/29 21:28:30.000   63.755949562  -68.510532460    88.3468   5   9   3.4370   3.6908   8.5273  -1.1994   4.1436   3.4183   0.00    0.0
2014/09/29 21:29:00.000   63.755950698  -68.510525693    88.6323   5   9   3.4283   3.6940   8.5189  -1.2015   4.1414   3.4141   0.00    0.0
2014/09/29 21:29:30.000   63.755947352  -68.510528986    88.1601   5   9   3.4197   3.6970   8.5099  -1.2038   4.1388   3.4099   0.00    0.0
2014/09/29 21:30:00.000   63.755945609  -68.510530947    87.7238   5   9   3.4111   3.6999   8.5004  -1.2063   4.1357   3.4056   0.00    0.0
2014/09/29 21:30:30.000   63.755947123  -68.510529898    87.8484   5   9   3.4027   3.7027   8.4903  -1.2089   4.1321   3.4013   0.00    0.0
2014/09/29 21:31:00.000   63.755948104  -68.510522441    88.2539   5   9   3.3943   3.7054   8.4796  -1.2117   4.1281   3.3969   0.00    0.0
2014/09/29 21:31:30.000   63.755945077  -68.510523283    88.9398   5   9   3.3860   3.7079   8.4684  -1.2146   4.1236   3.3926   0.00    0.0
2014/09/29 21:32:00.000   63.755945413  -68.510534902    87.4422   5   9   3.3778   3.7103   8.4567  -1.2176   4.1187   3.3882   0.00    0.0
2014/09/29 21:32:30.000   63.755943365  -68.510529038    87.7652   5   9   3.3697   3.7125   8.4444  -1.2208   4.1134   3.3837   0.00    0.0
2014/09/29 21:33:00.000   63.755943494  -68.510529321    88.1142   5   9   3.3617   3.7147   8.4317  -1.2242   4.1076   3.3793   0.00    0.0
2014/09/29 21:33:30.000   63.755941807  -68.510534774    86.9460   5   9   3.3538   3.7167   8.4184  -1.2276   4.1013   3.3748   0.00    0.0
2014/09/29 21:34:00.000   63.755941498  -68.510528374    87.8809   5   9   3.3459   3.7186   8.4046  -1.2312   4.0947   3.3704   0.00    0.0
2014/09/29 21:34:30.000   63.755947632  -68.510530891    88.1215   5   9   3.3382   3.7203   8.3903  -1.2349   4.0876   3.3659   0.00    0.0
2014/09/29 21:35:00.000   63.755936877  -68.510518471    87.1585   5  10   3.1336   3.0729   7.7447   0.9138   3.1543   3.8597   0.00    0.0
2014/09/29 21:35:30.000   63.755935458  -68.510519868    88.8191   5  10   3.1251   3.0734   7.7405   0.9109   3.1531   3.8519   0.00    0.0
2014/09/29 21:36:00.000   63.755934579  -68.510520969    87.8273   5  10   3.1168   3.0739   7.7359   0.9078   3.1516   3.8440   0.00    0.0
2014/09/29 21:36:30.000   63.755935439  -68.510524389    87.7193   5  10   3.1085   3.0743   7.7309   0.9046   3.1497   3.8360   0.00    0.0
2014/09/29 21:37:00.000   63.755940133  -68.510522729    88.2373   5  10   3.1003   3.0746   7.7255   0.9012   3.1476   3.8281   0.00    0.0
2014/09/29 21:37:30.000   63.755935508  -68.510508783    88.2068   5  10   3.0921   3.0749   7.7196   0.8977   3.1452   3.8201   0.00    0.0
2014/09/29 21:38:00.000   63.755940608  -68.510512365    88.5060   5  10   3.0840   3.0751   7.7134   0.8940   3.1424   3.8120   0.00    0.0
2014/09/29 21:38:30.000   63.755937581  -68.510515001    87.3565   5  10   3.0760   3.0752   7.7067   0.8902   3.1394   3.8039   0.00    0.0
2014/09/29 21:39:00.000   63.755938181  -68.510501527    89.2717   5  10   3.0681   3.0753   7.6997   0.8863   3.1361   3.7958   0.00    0.0
2014/09/29 21:39:30.000   63.755939753  -68.510502245    89.1202   5  10   3.0603   3.0753   7.6922   0.8822   3.1324   3.7877   0.00    0.0
2014/09/29 21:40:00.000   63.755941211  -68.510507782    88.8249   5  10   3.0525   3.0752   7.6844   0.8780   3.1285   3.7795   0.00    0.0
2014/09/29 21:40:30.000   63.755942508  -68.510501439    89.4816   5  10   3.0448   3.0750   7.6762   0.8737   3.1243   3.7713   0.00    0.0
2014/09/29 21:41:00.000   63.755939558  -68.510504230    89.1921   5   9   3.0714   3.0770   7.7889   0.8996   3.0939   3.6790   0.00    0.0
2014/09/29 21:41:30.000   63.755937934  -68.510515861    88.7754   5   9   3.0627   3.0765   7.7860   0.8932   3.0897   3.6702   0.00    0.0
2014/09/29 21:42:00.000   63.755940393  -68.510508546    89.0747   5   9   3.0541   3.0760   7.7827   0.8867   3.0853   3.6615   0.00    0.0
2014/09/29 21:42:30.000   63.755944407  -68.510512030    90.4492   5   9   3.0456   3.0754   7.7792   0.8802   3.0807   3.6528   0.00    0.0
2014/09/29 21:43:00.000   63.755941599  -68.510518840    89.8250   5   9   3.0372   3.0747   7.7755   0.8736   3.0758   3.6442   0.00    0.0
2014/09/29 21:43:30.000   63.755942447  -68.510517623    88.8775   5   9   3.0289   3.0740   7.7714   0.8669   3.0707   3.6357   0.00    0.0
2014/09/29 21:44:00.000   63.755937647  -68.510507113    89.9365   5   9   3.0207   3.0732   7.7670   0.8603   3.0653   3.6272   0.00    0.0
2014/09/29 21:44:30.000   63.755942512  -68.510506897    89.3003   5   9   3.0127   3.0724   7.7624   0.8535   3.0597   3.6188   0.00    0.0
2014/09/29 21:45:00.000   63.755943061  -68.510501836    89.8969   5   9   3.0047   3.0715   7.7575   0.8468   3.0539   3.6105   0.00    0.0
2014/09/29 21:45:30.000   63.755938759  -68.510505930    89.6667   5   9   2.9969   3.0706   7.7523   0.8400   3.0478   3.6022   0.00    0.0
2014/09/29 21:46:00.000   63.755942375  -68.510510866    90.1800   5   9   2.9891   3.0696   7.7468   0.8331   3.0415   3.5940   0.00    0.0
2014/09/29 21:46:30.000   63.755940514  -68.510503180    90.4795   5   9   2.9815   3.0686   7.7410   0.8262   3.0350   3.5859   0.00    0.0
2014/09/29 21:47:00.000   63.755941481  -68.510509134    90.3457   5   9   2.9740   3.0675   7.7350   0.8193   3.0282   3.5779   0.00    0.0
2014/09/29 21:47:30.000   63.755941344  -68.510509337    89.7202   5   9   2.9667   3.0664   7.7286   0.8123   3.0212   3.5699   0.00    0.0
2014/09/29 21:48:00.000   63.755939337  -68.510504483    90.8059   5   9   2.9594   3.0652   7.7220   0.8053   3.0139   3.5620   0.00    0.0
2014/09/29 21:48:30.000   63.755941028  -68.510507461    90.2899   5   9   2.9522   3.0640   7.7151   0.7983   3.0065   3.5542   0.00    0.0
2014/09/29 21:49:00.000   63.755939588  -68.510504533    90.2899   5   9   2.9452   3.0628   7.7079   0.7912   2.9987   3.5465   0.00    0.0
2014/09/29 21:49:30.000   63.755940194  -68.510512197    89.4892   5  10   2.9238   2.4228   6.9262   0.2657   1.6269   3.3977   0.00    0.0
2014/09/29 21:50:00.000   63.755943207  -68.510509014    89.8760   5  10   2.9178   2.4213   6.9316   0.2737   1.6290   3.3951   0.00    0.0
2014/09/29 21:50:30.000   63.755941899  -68.510515846    89.1796   5  10   2.9118   2.4199   6.9369   0.2816   1.6312   3.3925   0.00    0.0
2014/09/29 21:51:00.000   63.755945259  -68.510513155    89.0577   5  10   2.9059   2.4185   6.9420   0.2894   1.6334   3.3899   0.00    0.0
2014/09/29 21:51:30.000   63.755947099  -68.510504772    89.6178   5  10   2.9001   2.4172   6.9469   0.2971   1.6356   3.3874   0.00    0.0
2014/09/29 21:52:00.000   63.755945285  -68.510511244    89.4315   5  10   2.8944   2.4158   6.9517   0.3047   1.6379   3.3849   0.00    0.0
2014/09/29 21:52:30.000   63.755944703  -68.510509648    89.6468   5  10   2.8888   2.4145   6.9562   0.3122   1.6402   3.3825   0.00    0.0
2014/09/29 21:53:00.000   63.755943369  -68.510504998    90.0161   5  11   2.7763   2.3251   6.5806   0.7776   2.0403   3.1080   0.00    0.0
2014/09/29 21:53:30.000   63.755940988  -68.510508909    89.4953   5  11   2.7733   2.3229   6.5927   0.7783   2.0403   3.1115   0.00    0.0
2014/09/29 21:54:00.000   63.755942841  -68.510514648    90.0157   5  11   2.7704   2.3207   6.6046   0.7790   2.0403   3.1151   0.00    0.0
2014/09/29 21:54:30.000   63.755942553  -68.510512362    89.8325   5  11   2.7675   2.3186   6.6163   0.7797   2.0403   3.1187   0.00    0.0
2014/09/29 21:55:00.000   63.755942841  -68.510510338    90.4325   5  11   2.7647   2.3164   6.6278   0.7803   2.0401   3.1223   0.00    0.0
2014/09/29 21:55:30.000   63.755938406  -68.510507054    89.9317   5  11   2.7620   2.3142   6.6391   0.7810   2.0399   3.1259   0.00    0.0
2014/09/29 21:56:00.000   63.755944818  -68.510503537    90.5463   5  11   2.7594   2.3121   6.6502   0.7816   2.0396   3.1295   0.00    0.0
2014/09/29 21:56:30.000   63.755945692  -68.510510059    90.7661   5  11   2.7568   2.3099   6.6610   0.7822   2.0392   3.1330   0.00    0.0
2014/09/29 21:57:00.000   63.755947009  -68.510507659    90.8723   5  11   2.7543   2.3078   6.6715   0.7828   2.0387   3.1366   0.00    0.0
2014/09/29 21:57:30.000   63.755943269  -68.510513498    90.4283   5  11   2.7518   2.3057   6.6818   0.7834   2.0381   3.1401   0.00    0.0
2014/09/29 21:58:00.000   63.755943103  -68.510518519    91.1068   5  10   2.8546   2.3215   6.7471   0.9144   1.9755   3.0364   0.00    0.0
2014/09/29 21:58:30.000   63.755945620  -68.510513117    92.0271   5  10   2.8499   2.3190   6.7615   0.9117   1.9730   3.0368   0.00    0.0
2014/09/29 21:59:00.000   63.755947645  -68.510518533    91.6213   5  10   2.8452   2.3164   6.7757   0.9090   1.9704   3.0372   0.00    0.0
2014/09/29 21:59:30.000   63.755942186  -68.510507693    91.6857   5  10   2.8405   2.3139   6.7898   0.9064   1.9677   3.0376   0.00    0.0
2014/09/29 22:00:00.000   63.755945823  -68.510515312    91.6128   5  10   2.8360   2.3114   6.8038   0.9038   1.9650   3.0381   0.00    0.0
2014/09/29 22:00:30.000   63.755946868  -68.510520689    91.7492   5  10   2.8316   2.3089   6.8176   0.9012   1.9623   3.0387   0.00    0.0
2014/09/29 22:01:00.000   63.755945957  -68.510508937    91.6143   5  10   2.8272   2.3065   6.8313   0.8986   1.9595   3.0392   0.00    0.0
2014/09/29 22:01:30.000   63.755943150  -68.510526167    90.8121   5  10   2.8229   2.3040   6.8448   0.8961   1.9566   3.0398   0.00    0.0
2014/09/29 22:02:00.000   63.755946946  -68.510520433    91.7744   5  10   2.8186   2.3016   6.8580   0.8935   1.9537   3.0404   0.00    0.0
2014/09/29 22:02:30.000   63.755944135  -68.510519315    92.4521   5  10   2.8145   2.2992   6.8711   0.8910   1.9507   3.0410   0.00    0.0
2014/09/29 22:03:00.000   63.755947803  -68.510512899    92.3138   5  10   2.8104   2.2968   6.8840   0.8885   1.9477   3.0416   0.00    0.0
2014/09/29 22:03:30.000   63.755948358  -68.510513723    92.1401   5  10   2.8064   2.2944   6.8966   0.8860   1.9446   3.0422   0.00    0.0
2014/09/29 22:04:00.000   63.755945485  -68.510517013    91.7519   5  10   2.8024   2.2921   6.9089   0.8835   1.9414   3.0428   0.00    0.0
2014/09/29 22:04:30.000   63.755946219  -68.510519432    91.2672   5  10   2.7986   2.2897   6.9210   0.8811   1.9381   3.0434   0.00    0.0
2014/09/29 22:05:00.000   63.755946644  -68.510515802    91.6056   5  10   2.7948   2.2874   6.9328   0.8786   1.9348   3.0440   0.00    0.0
2014/09/29 22:05:30.000   63.755950244  -68.510508804    91.7676   5  10   2.7910   2.2851   6.9443   0.8761   1.9313   3.0445   0.00    0.0
2014/09/29 22:06:00.000   63.755947301  -68.510511992    91.6176   5  10   2.7874   2.2829   6.9555   0.8737   1.9278   3.0451   0.00    0.0
2014/09/29 22:06:30.000   63.755944434  -68.510511900    90.3771   5  10   2.7837   2.2806   6.9663   0.8713   1.9242   3.0455   0.00    0.0
2014/09/29 22:07:00.000   63.755943057  -68.510520188    90.5978   5  10   2.7802   2.2784   6.9768   0.8688   1.9206   3.0460   0.00    0.0
2014/09/29 22:07:30.000   63.755946054  -68.510504669    90.4828   5  10   2.7767   2.2762   6.9870   0.8664   1.9168   3.0463   0.00    0.0
2014/09/29 22:08:00.000   63.755947195  -68.510513982    90.5362   5  10   2.7733   2.2740   6.9967   0.8640   1.9130   3.0467   0.00    0.0
2014/09/29 22:08:30.000   63.755946836  -68.510507505    89.9263   5  10   2.7699   2.2718   7.0061   0.8616   1.9090   3.0469   0.00    0.0
2014/09/29 22:09:00.000   63.755949746  -68.510502845    90.0101   5  10   2.7666   2.2697   7.0151   0.8591   1.9050   3.0471   0.00    0.0
2014/09/29 22:09:30.000   63.755951148  -68.510507891    90.0369   5  10   2.7633   2.2675   7.0236   0.8567   1.9008   3.0472   0.00    0.0
2014/09/29 22:10:00.000   63.755945918  -68.510495467    89.7385   5  10   2.7601   2.2654   7.0317   0.8543   1.8966   3.0472   0.00    0.0
2014/09/29 22:10:30.000   63.755949481  -68.510500091    90.3187   5  10   2.7570   2.2633   7.0393   0.8519   1.8923   3.0471   0.00    0.0
2014/09/29 22:11:00.000   63.755953428  -68.510504218    92.0366   5  10   2.7539   2.2613   7.0465   0.8495   1.8878   3.0469   0.00    0.0
2014/09/29 22:11:30.000   63.755948080  -68.510505774    91.3964   5  10   2.7508   2.2592   7.0532   0.8470   1.8833   3.0466   0.00    0.0
2014/09/29 22:12:00.000   63.755946580  -68.510494779    90.5871   5  10   2.7478   2.2572   7.0594   0.8446   1.8787   3.0463   0.00    0.0
2014/09/29 22:12:30.000   63.755950505  -68.510499931    91.3103   5  10   2.7449   2.2552   7.0651   0.8422   1.8739   3.0457   0.00    0.0
2014/09/29 22:13:00.000   63.755955555  -68.510502146    92.1394   5  10   2.7420   2.2532   7.0702   0.8397   1.8691   3.0451   0.00    0.0
2014/09/29 22:13:30.000   63.755953871  -68.510504662    91.6623   5  10   2.7391   2.2512   7.0749   0.8373   1.8641   3.0444   0.00    0.0
2014/09/29 22:14:00.000   63.755953211  -68.510495337    91.3114   5  10   2.7363   2.2493   7.0789   0.8349   1.8590   3.0435   0.00    0.0
2014/09/29 22:14:30.000   63.755953525  -68.510498605    91.8002   5  10   2.7335   2.2474   7.0825   0.8324   1.8539   3.0424   0.00    0.0
2014/09/29 22:15:00.000   63.755953916  -68.510500010    91.5830   5  10   2.7308   2.2455   7.0854   0.8299   1.8486   3.0413   0.00    0.0
2014/09/29 22:15:30.000   63.755952699  -68.510494591    90.7214   5  10   2.7281   2.2436   7.0878   0.8275   1.8431   3.0399   0.00    0.0
2014/09/29 22:16:00.000   63.755952800  -68.510496259    90.8839   5  10   2.7255   2.2418   7.0896   0.8250   1.8376   3.0385   0.00    0.0
2014/09/29 22:16:30.000   63.755952713  -68.510495291    91.4115   5  10   2.7228   2.2399   7.0908   0.8225   1.8320   3.0368   0.00    0.0
2014/09/29 22:17:00.000   63.755954372  -68.510494850    91.7161   5  10   2.7203   2.2381   7.0914   0.8200   1.8262   3.0351   0.00    0.0
2014/09/29 22:17:30.000   63.755953474  -68.510497468    91.7806   5  10   2.7177   2.2363   7.0914   0.8175   1.8204   3.0331   0.00    0.0
2014/09/29 22:18:00.000   63.755950532  -68.510488688    89.9648   5  10   2.4301   2.3352   6.8753  -0.3768  -0.3202   2.4792   0.00    0.0
2014/09/29 22:18:30.000   63.755949553  -68.510487931    90.5053   5  10   2.4279   2.3336   6.8938  -0.3895  -0.3942   2.4845   0.00    0.0
2014/09/29 22:19:00.000   63.755948749  -68.510491451    90.8672   5  10   2.4258   2.3322   6.9121  -0.4019  -0.4563   2.4899   0.00    0.0
2014/09/29 22:19:30.000   63.755948902  -68.510492540    90.4975   5  10   2.4237   2.3308   6.9303  -0.4138  -0.5109   2.4953   0.00    0.0
2014/09/29 22:20:00.000   63.755948258  -68.510484995    91.2764   5  10   2.4218   2.3294   6.9482  -0.4254  -0.5601   2.5010   0.00    0.0
2014/09/29 22:20:30.000   63.755947336  -68.510484659    90.8494   5  10   2.4199   2.3281   6.9659  -0.4366  -0.6052   2.5067   0.00    0.0
2014/09/29 22:21:00.000   63.755945558  -68.510489252    90.0534   5  10   2.4181   2.3268   6.9834  -0.4475  -0.6471   2.5125   0.00    0.0
2014/09/29 22:21:30.000   63.755944964  -68.510494842    89.7750   5  10   2.4165   2.3256   7.0006  -0.4582  -0.6863   2.5184   0.00    0.0
2014/09/29 22:22:00.000   63.755945242  -68.510491013    89.7680   5  10   2.4149   2.3244   7.0175  -0.4685  -0.7233   2.5244   0.00    0.0
2014/09/29 22:22:30.000   63.755948831  -68.510492461    90.6248   5  10   2.4134   2.3232   7.0341  -0.4787  -0.7584   2.5305   0.00    0.0
2014/09/29 22:23:00.000   63.755946652  -68.510492048    90.8143   5  10   2.4120   2.3221   7.0504  -0.4885  -0.7918   2.5367   0.00    0.0
2014/09/29 22:23:30.000   63.755949065  -68.510496500    90.8715   5  10   2.4107   2.3210   7.0664  -0.4982  -0.8236   2.5429   0.00    0.0
2014/09/29 22:24:00.000   63.755947687  -68.510494477    90.4600   5  10   2.4095   2.3200   7.0820  -0.5077  -0.8542   2.5492   0.00    0.0
2014/09/29 22:24:30.000   63.755945136  -68.510490971    90.2115   5  10   2.4083   2.3190   7.0973  -0.5169  -0.8835   2.5555   0.00    0.0
2014/09/29 22:25:00.000   63.755943850  -68.510494319    90.4112   5  10   2.4073   2.3181   7.1121  -0.5260  -0.9117   2.5619   0.00    0.0
2014/09/29 22:25:30.000   63.755947719  -68.510493392    89.7530   5  10   2.4064   2.3172   7.1266  -0.5349  -0.9389   2.5684   0.00    0.0
2014/09/29 22:26:00.000   63.755943575  -68.510493410    89.2071   5  10   2.4055   2.3163   7.1406  -0.5436  -0.9651   2.5749   0.00    0.0
2014/09/29 22:26:30.000   63.755951269  -68.510488568    90.4568   5  10   2.4047   2.3155   7.1542  -0.5522  -0.9905   2.5814   0.00    0.0
2014/09/29 22:27:00.000   63.755940149  -68.510496259    90.9712   5  10   2.4040   2.3147   7.1674  -0.5606  -1.0149   2.5879   0.00    0.0
2014/09/29 22:27:30.000   63.755947291  -68.510488036    90.6193   5  10   2.4034   2.3140   7.1800  -0.5689  -1.0386   2.5945   0.00    0.0
2014/09/29 22:28:00.000   63.755939940  -68.510488286    88.6930   5   9   2.9110   2.4546   8.7935  -1.2968  -2.2978   3.8832   0.00    0.0
2014/09/29 22:28:30.000   63.755942995  -68.510489428    89.6971   5   9   2.9176   2.4562   8.8479  -1.3084  -2.3293   3.9120   0.00    0.0
2014/09/29 22:29:00.000   63.755942472  -68.510485365    89.9058   5   9   2.9243   2.4578   8.9022  -1.3201  -2.3605   3.9410   0.00    0.0
2014/09/29 22:29:30.000   63.755945656  -68.510483888    90.0197   5   9   2.9313   2.4596   8.9563  -1.3318  -2.3914   3.9699   0.00    0.0
2014/09/29 22:30:00.000   63.755944971  -68.510494509    90.2929   5   9   2.9384   2.4614   9.0100  -1.3435  -2.4219   3.9990   0.00    0.0
2014/09/29 22:30:30.000   63.755947827  -68.510497178    90.1827   5   9   2.9456   2.4632   9.0633  -1.3552  -2.4522   4.0280   0.00    0.0
2014/09/29 22:31:00.000   63.755946881  -68.510487917    90.2740   5   9   2.9530   2.4651   9.1162  -1.3669  -2.4820   4.0570   0.00    0.0
2014/09/29 22:31:30.000   63.755949443  -68.510493936    90.1494   5   9   2.9606   2.4671   9.1685  -1.3785  -2.5115   4.0859   0.00    0.0
2014/09/29 22:32:00.000   63.755946595  -68.510495178    89.4592   5   9   2.9682   2.4691   9.2202  -1.3901  -2.5405   4.1147   0.00    0.0
2014/09/29 22:32:30.000   63.755946883  -68.510491239    89.7714   5   9   2.9760   2.4711   9.2713  -1.4017  -2.5691   4.1433   0.00    0.0
2014/09/29 22:33:00.000   63.755944978  -68.510489491    90.3056   5   9   2.9839   2.4732   9.3215  -1.4132  -2.5972   4.1718   0.00    0.0
2014/09/29 22:33:30.000   63.755950315  -68.510485248    89.3201   5   9   2.9919   2.4753   9.3709  -1.4246  -2.6249   4.2001   0.00    0.0
2014/09/29 22:34:00.000   63.755945026  -68.510483685    88.6360   5   9   3.0000   2.4774   9.4194  -1.4359  -2.6520   4.2281   0.00    0.0
2014/09/29 22:34:30.000   63.755948132  -68.510485942    89.0667   5   9   3.0082   2.4796   9.4669  -1.4472  -2.6786   4.2558   0.00    0.0
2014/09/29 22:35:00.000   63.755946336  -68.510482393    88.8151   5   9   3.0164   2.4818   9.5133  -1.4583  -2.7046   4.2833   0.00    0.0
2014/09/29 22:35:30.000   63.755943658  -68.510478857    88.4049   5   9   3.0247   2.4839   9.5585  -1.4693  -2.7301   4.3103   0.00    0.0
2014/09/29 22:36:00.000   63.755946122  -68.510478240    88.7788   5   9   3.0330   2.4861   9.6024  -1.4802  -2.7549   4.3369   0.00    0.0
2014/09/29 22:36:30.000   63.755947243  -68.510490668    89.7689   5   9   3.0413   2.4882   9.6449  -1.4909  -2.7790   4.3631   0.00    0.0
2014/09/29 22:37:00.000   63.755948003  -68.510483996    88.8814   5   9   3.0496   2.4904   9.6860  -1.5014  -2.8025   4.3887   0.00    0.0
2014/09/29 22:37:30.000   63.755948363  -68.510485414    89.2801   5   9   3.0580   2.4925   9.7255  -1.5117  -2.8252   4.4138   0.00    0.0
2014/09/29 22:38:00.000   63.755945790  -68.510489288    89.0696   5   9   3.0662   2.4946   9.7634  -1.5219  -2.8472   4.4384   0.00    0.0
2014/09/29 22:38:30.000   63.755947686  -68.510487722    88.9810   5   9   3.0745   2.4967   9.7996  -1.5318  -2.8684   4.4623   0.00    0.0
2014/09/29 22:39:00.000   63.755945535  -68.510488898    89.0705   5   9   3.0827   2.4987   9.8340  -1.5415  -2.8888   4.4855   0.00    0.0
2014/09/29 22:39:30.000   63.755947575  -68.510492337    90.2159   5   9   3.0908   2.5006   9.8666  -1.5510  -2.9083   4.5081   0.00    0.0
2014/09/29 22:40:00.000   63.755946271  -68.510479125    89.0263   5   9   3.0988   2.5026   9.8972  -1.5601  -2.9271   4.5299   0.00    0.0
2014/09/29 22:40:30.000   63.755947090  -68.510488124    89.5993   5   9   3.1067   2.5044   9.9257  -1.5690  -2.9449   4.5509   0.00    0.0
2014/09/29 22:41:00.000   63.755947114  -68.510490138    90.3449   5   9   3.1145   2.5062   9.9521  -1.5777  -2.9618   4.5711   0.00    0.0
2014/09/29 22:41:30.000   63.755947916  -68.510484181    90.4153   5   9   3.1221   2.5079   9.9764  -1.5860  -2.9777   4.5904   0.00    0.0
2014/09/29 22:42:00.000   63.755944607  -68.510492819    90.5729   5   9   3.1296   2.5095   9.9985  -1.5940  -2.9928   4.6088   0.00    0.0
2014/09/29 22:42:30.000   63.755947179  -68.510490746    90.0632   5   9   3.1369   2.5110  10.0182  -1.6017  -3.0068   4.6263   0.00    0.0
2014/09/29 22:43:00.000   63.755948073  -68.510491684    90.6182   5   9   3.1440   2.5125  10.0356  -1.6090  -3.0198   4.6429   0.00    0.0
2014/09/29 22:43:30.000   63.755946007  -68.510489948    91.1733   5   9   3.1510   2.5138  10.0506  -1.6160  -3.0318   4.6584   0.00    0.0
2014/09/29 22:44:00.000   63.755949778  -68.510487004    90.4462   5   9   3.1577   2.5151  10.0632  -1.6226  -3.0428   4.6730   0.00    0.0
2014/09/29 22:44:30.000   63.755948253  -68.510489538    91.1102   5   9   3.1642   2.5162  10.0733  -1.6288  -3.0527   4.6865   0.00    0.0
2014/09/29 22:45:00.000   63.755949283  -68.510497516    91.6957   5   9   3.1705   2.5172  10.0809  -1.6347  -3.0615   4.6989   0.00    0.0
2014/09/29 22:45:30.000   63.755950575  -68.510488825    91.2929   5   9   3.1765   2.5181  10.0860  -1.6402  -3.0693   4.7103   0.00    0.0
2014/09/29 22:46:00.000   63.755949346  -68.510486276    91.2494   5   9   3.1822   2.5189  10.0885  -1.6452  -3.0760   4.7206   0.00    0.0
2014/09/29 22:46:30.000   63.755947087  -68.510488779    90.8372   5   9   3.1877   2.5195  10.0884  -1.6499  -3.0816   4.7298   0.00    0.0
2014/09/29 22:47:00.000   63.755946438  -68.510483088    90.2019   5   9   3.1930   2.5201  10.0858  -1.6542  -3.0861   4.7378   0.00    0.0
2014/09/29 22:47:30.000   63.755948965  -68.510488127    91.7347   5   9   3.1979   2.5205  10.0807  -1.6580  -3.0896   4.7448   0.00    0.0
2014/09/29 22:48:00.000   63.755949505  -68.510490777    91.2114   5   9   3.2026   2.5207  10.0730  -1.6615  -3.0920   4.7506   0.00    0.0
2014/09/29 22:48:30.000   63.755946610  -68.510487841    91.4731   5   9   3.2070   2.5209  10.0628  -1.6645  -3.0932   4.7553   0.00    0.0
2014/09/29 22:49:00.000   63.755946841  -68.510481010    90.0096   5   9   3.2111   2.5209  10.0501  -1.6671  -3.0935   4.7589   0.00    0.0
2014/09/29 22:49:30.000   63.755949288  -68.510485678    90.6373   5   9   3.2149   2.5208  10.0349  -1.6694  -3.0926   4.7614   0.00    0.0
2014/09/29 22:50:00.000   63.755944482  -68.510483007    90.4734   5   9   3.2184   2.5205  10.0172  -1.6711  -3.0907   4.7627   0.00    0.0
2014/09/29 22:50:30.000   63.755947690  -68.510491604    91.9962   5   9   3.2216   2.5202   9.9972  -1.6725  -3.0878   4.7630   0.00    0.0
2014/09/29 22:51:00.000   63.755948485  -68.510487773    90.4233   5   9   3.2245   2.5197   9.9749  -1.6735  -3.0839   4.7622   0.00    0.0
2014/09/29 22:51:30.000   63.755949031  -68.510489666    91.6008   5   9   3.2272   2.5191   9.9502  -1.6741  -3.0790   4.7604   0.00    0.0
2014/09/29 22:52:00.000   63.755949134  -68.510485049    91.2386   5   9   3.2295   2.5183   9.9233  -1.6743  -3.0731   4.7575   0.00    0.0
2014/09/29 22:52:30.000   63.755948633  -68.510491559    93.0051   5   9   3.2316   2.5175   9.8943  -1.6741  -3.0662   4.7536   0.00    0.0
2014/09/29 22:53:00.000   63.755948043  -68.510490397    91.3524   5   9   3.2334   2.5165   9.8631  -1.6735  -3.0584   4.7487   0.00    0.0
2014/09/29 22:53:30.000   63.755947933  -68.510480029    90.9018   5   9   3.2349   2.5155   9.8300  -1.6726  -3.0497   4.7428   0.00    0.0
2014/09/29 22:54:00.000   63.755947919  -68.510491002    92.5166   5   9   3.2362   2.5143   9.7949  -1.6712  -3.0402   4.7361   0.00    0.0
2014/09/29 22:54:30.000   63.755949326  -68.510490885    92.0240   5   9   3.2371   2.5131   9.7579  -1.6696  -3.0298   4.7284   0.00    0.0
2014/09/29 22:55:00.000   63.755949949  -68.510490271    92.0086   5   9   3.2379   2.5117   9.7191  -1.6676  -3.0185   4.7198   0.00    0.0
2014/09/29 22:55:30.000   63.755948752  -68.510484636    91.0513   5   9   3.2384   2.5103   9.6786  -1.6652  -3.0065   4.7104   0.00    0.0
2014/09/29 22:56:00.000   63.755950147  -68.510485488    91.7368   5   9   3.2387   2.5087   9.6365  -1.6626  -2.9937   4.7002   0.00    0.0
2014/09/29 22:56:30.000   63.755949081  -68.510488894    91.1641   5   9   3.2388   2.5071   9.5929  -1.6596  -2.9802   4.6893   0.00    0.0
2014/09/29 22:57:00.000   63.755952595  -68.510491741    91.8641   5   9   3.2386   2.5054   9.5478  -1.6563  -2.9660   4.6776   0.00    0.0
2014/09/29 22:57:30.000   63.755947856  -68.510491169    91.0921   5   9   3.2383   2.5037   9.5013  -1.6528  -2.9512   4.6652   0.00    0.0
2014/09/29 22:58:00.000   63.755949233  -68.510488391    91.4772   5   9   3.2377   2.5019   9.4536  -1.6489  -2.9357   4.6521   0.00    0.0
2014/09/29 22:58:30.000   63.755950792  -68.510489321    91.7176   5   8   3.2807   2.5108   9.7013  -1.6068  -3.0126   4.4995   0.00    0.0
2014/09/29 22:59:00.000   63.755950048  -68.510488259    91.7275   5   8   3.2798   2.5085   9.6516  -1.6031  -2.9945   4.4851   0.00    0.0
2014/09/29 22:59:30.000   63.755951399  -68.510490582    89.6680   5   7   3.4120   2.7352  10.0264  -1.8951  -2.3852   4.1538   0.00    0.0
2014/09/29 23:00:00.000   63.755948130  -68.510486917    90.1849   5   7   3.2617   2.7343   9.7955  -1.8898  -2.3571   3.9049   0.00    0.0
2014/09/29 23:00:30.000   63.755951008  -68.510490489    89.8362   5   7   3.2589   2.7335   9.7533  -1.8856  -2.3302   3.8942   0.00    0.0
2014/09/29 23:01:00.000   63.755952805  -68.510490732    88.9568   5   7   3.2560   2.7327   9.7099  -1.8813  -2.3025   3.8832   0.00    0.0
2014/09/29 23:01:30.000   63.755953031  -68.510489646    90.4548   5   7   3.2531   2.7319   9.6655  -1.8768  -2.2740   3.8718   0.00    0.0
2014/09/29 23:02:00.000   63.755949759  -68.510490700    90.0009   5   7   3.2502   2.7311   9.6202  -1.8723  -2.2449   3.8600   0.00    0.0
2014/09/29 23:02:30.000   63.755950453  -68.510497760    90.4714   5   7   3.2473   2.7303   9.5740  -1.8676  -2.2151   3.8479   0.00    0.0
2014/09/29 23:03:00.000   63.755949602  -68.510498081    89.1179   5   8   3.2279   2.5790   8.6596  -1.9396  -2.8852   3.6625   0.00    0.0
2014/09/29 23:03:30.000   63.755948979  -68.510496470    89.8149   5   8   3.2257   2.5737   8.6264  -1.9345  -2.8641   3.6549   0.00    0.0
2014/09/29 23:04:00.000   63.755947733  -68.510500883    89.7223   5   8   3.2235   2.5684   8.5924  -1.9292  -2.8426   3.6469   0.00    0.0
2014/09/29 23:04:30.000   63.755946218  -68.510492088    89.2842   5   8   3.2213   2.5631   8.5579  -1.9238  -2.8206   3.6387   0.00    0.0
2014/09/29 23:05:00.000   63.755947896  -68.510490980    88.6447   5   8   3.2191   2.5577   8.5228  -1.9182  -2.7981   3.6302   0.00    0.0
2014/09/29 23:05:30.000   63.755947632  -68.510494515    88.9698   5   8   3.2169   2.5523   8.4871  -1.9126  -2.7752   3.6216   0.00    0.0
2014/09/29 23:06:00.000   63.755945997  -68.510493276    89.0677   5   8   3.2148   2.5469   8.4509  -1.9068  -2.7519   3.6127   0.00    0.0
2014/09/29 23:06:30.000   63.755946717  -68.510495787    89.8841   5   8   3.2127   2.5414   8.4144  -1.9009  -2.7282   3.6037   0.00    0.0
2014/09/29 23:07:00.000   63.755948642  -68.510501035    89.1988   5   8   3.2105   2.5360   8.3774  -1.8950  -2.7041   3.5945   0.00    0.0
2014/09/29 23:07:30.000   63.755947896  -68.510501792    88.7027   5   8   3.2085   2.5306   8.3400  -1.8889  -2.6797   3.5852   0.00    0.0
2014/09/29 23:08:00.000   63.755948388  -68.510498177    90.4740   5   8   3.2064   2.5252   8.3024  -1.8828  -2.6549   3.5758   0.00    0.0
2014/09/29 23:08:30.000   63.755949573  -68.510496424    89.0857   5   8   3.2044   2.5198   8.2645  -1.8766  -2.6298   3.5663   0.00    0.0
2014/09/29 23:09:00.000   63.755950642  -68.510498831    89.3311   5   8   3.2024   2.5144   8.2263  -1.8703  -2.6044   3.5566   0.00    0.0
2014/09/29 23:09:30.000   63.755950318  -68.510499224    89.4912   5   8   3.2005   2.5090   8.1880  -1.8640  -2.5787   3.5469   0.00    0.0
2014/09/29 23:10:00.000   63.755951788  -68.510498905    89.8107   5   8   3.1986   2.5037   8.1495  -1.8576  -2.5528   3.5372   0.00    0.0
2014/09/29 23:10:30.000   63.755949904  -68.510501644    88.9454   5   8   3.1968   2.4984   8.1109  -1.8511  -2.5266   3.5274   0.00    0.0
2014/09/29 23:11:00.000   63.755947293  -68.510496694    89.2747   5   8   3.1950   2.4931   8.0722  -1.8445  -2.5001   3.5176   0.00    0.0
2014/09/29 23:11:30.000   63.755944525  -68.510495229    88.5194   5   8   3.1933   2.4879   8.0334  -1.8380  -2.4735   3.5078   0.00    0.0
2014/09/29 23:12:00.000   63.755950168  -68.510503806    89.1227   5   8   3.1916   2.4828   7.9946  -1.8313  -2.4466   3.4979   0.00    0.0
2014/09/29 23:12:30.000   63.755950599  -68.510502216    89.0964   5   8   3.1900   2.4777   7.9558  -1.8247  -2.4195   3.4881   0.00    0.0
2014/09/29 23:13:00.000   63.755948557  -68.510495082    89.2327   5   8   3.1884   2.4726   7.9171  -1.8180  -2.3922   3.4783   0.00    0.0
2014/09/29 23:13:30.000   63.755951691  -68.510496782    89.8693   5   8   3.1869   2.4676   7.8784  -1.8112  -2.3647   3.4686   0.00    0.0
2014/09/29 23:14:00.000   63.755947085  -68.510500987    89.6894   5   8   3.1855   2.4627   7.8399  -1.8044  -2.3370   3.4589   0.00    0.0
2014/09/29 23:14:30.000   63.755946655  -68.510502878    90.0275   5   8   3.1841   2.4578   7.8014  -1.7976  -2.3092   3.4492   0.00    0.0
2014/09/29 23:15:00.000   63.755946373  -68.510503958    91.0593   5   8   3.1828   2.4530   7.7631  -1.7908  -2.2812   3.4396   0.00    0.0
2014/09/29 23:15:30.000   63.755944206  -68.510501031    89.8100   5   8   3.1816   2.4483   7.7249  -1.7839  -2.2531   3.4302   0.00    0.0
2014/09/29 23:16:00.000   63.755948012  -68.510507781    88.9469   5   8   3.1805   2.4436   7.6870  -1.7770  -2.2248   3.4208   0.00    0.0
2014/09/29 23:16:30.000   63.755952248  -68.510505195    89.1587   5   8   3.1794   2.4390   7.6492  -1.7701  -2.1964   3.4114   0.00    0.0
2014/09/29 23:17:00.000   63.755944765  -68.510503993    89.5656   5   8   3.1784   2.4345   7.6117  -1.7632  -2.1678   3.4022   0.00    0.0
2014/09/29 23:17:30.000   63.755946916  -68.510501930    91.0646   5   8   3.1775   2.4301   7.5744  -1.7563  -2.1391   3.3932   0.00    0.0
2014/09/29 23:18:00.000   63.755948911  -68.510498860    89.7336   5   8   3.1766   2.4257   7.5374  -1.7493  -2.1102   3.3842   0.00    0.0
2014/09/29 23:18:30.000   63.755942612  -68.510507655    88.3961   5   8   3.1759   2.4214   7.5006  -1.7424  -2.0812   3.3754   0.00    0.0
2014/09/29 23:19:00.000   63.755947999  -68.510502673    90.2224   5   8   3.1752   2.4173   7.4642  -1.7354  -2.0521   3.3667   0.00    0.0
2014/09/29 23:19:30.000   63.755946891  -68.510507332    89.1611   5   8   3.1746   2.4132   7.4280  -1.7284  -2.0228   3.3581   0.00    0.0
2014/09/29 23:20:00.000   63.755945157  -68.510506167    87.5832   5   8   3.1741   2.4091   7.3922  -1.7214  -1.9935   3.3497   0.00    0.0
2014/09/29 23:20:30.000   63.755942159  -68.510503833    89.2201   5   9   2.9101   2.2863   7.2543  -1.4118  -2.1842   3.5657   0.00    0.0
2014/09/29 23:21:00.000   63.755945660  -68.510505215    90.1200   5   9   2.9078   2.2805   7.2236  -1.3997  -2.1540   3.5537   0.00    0.0
2014/09/29 23:21:30.000   63.755942115  -68.510504118    88.8653   5   9   2.9056   2.2748   7.1930  -1.3876  -2.1236   3.5418   0.00    0.0
2014/09/29 23:22:00.000   63.755937741  -68.510503315    88.1724   5   9   2.9035   2.2693   7.1626  -1.3754  -2.0931   3.5302   0.00    0.0
2014/09/29 23:22:30.000   63.755942573  -68.510498284    89.8910   5   9   2.9016   2.2639   7.1325  -1.3633  -2.0624   3.5187   0.00    0.0
2014/09/29 23:23:00.000   63.755944436  -68.510503303    90.3473   5   9   2.8998   2.2586   7.1025  -1.3511  -2.0316   3.5075   0.00    0.0
2014/09/29 23:23:30.000   63.755944008  -68.510506424    89.6764   5   9   2.8982   2.2534   7.0729  -1.3389  -2.0007   3.4965   0.00    0.0
2014/09/29 23:24:00.000   63.755944303  -68.510503661    89.6383   5   9   2.8966   2.2483   7.0434  -1.3267  -1.9696   3.4857   0.00    0.0
2014/09/29 23:24:30.000   63.755941340  -68.510501586    89.6311   5   8   3.7955   2.2484   9.1530  -1.1648  -1.6935   5.1486   0.00    0.0
2014/09/29 23:25:00.000   63.755938377  -68.510499276    89.2082   5   8   3.7992   2.2440   9.1368  -1.1434  -1.6454   5.1479   0.00    0.0
2014/09/29 23:25:30.000   63.755941534  -68.510506726    90.1012   5   8   3.8028   2.2398   9.1202  -1.1215  -1.5959   5.1469   0.00    0.0
2014/09/29 23:26:00.000   63.755941192  -68.510508409    89.2570   5   8   3.8063   2.2357   9.1031  -1.0991  -1.5449   5.1457   0.00    0.0
2014/09/29 23:26:30.000   63.755940595  -68.510508082    90.0147   5   8   3.8098   2.2318   9.0856  -1.0761  -1.4925   5.1443   0.00    0.0
2014/09/29 23:27:00.000   63.755938246  -68.510505320    88.4500   5   8   3.8132   2.2280   9.0677  -1.0526  -1.4383   5.1426   0.00    0.0
2014/09/29 23:27:30.000   63.755943523  -68.510497366    90.3535   5   8   3.8165   2.2244   9.0494  -1.0285  -1.3823   5.1406   0.00    0.0
2014/09/29 23:28:00.000   63.755939897  -68.510502304    89.5450   5   8   3.8197   2.2209   9.0307  -1.0037  -1.3242   5.1384   0.00    0.0
2014/09/29 23:28:30.000   63.755941771  -68.510499939    89.3726   5   8   3.8229   2.2176   9.0116  -0.9783  -1.2638   5.1360   0.00    0.0
2014/09/29 23:29:00.000   63.755940334  -68.510507313    89.2896   5   8   3.8260   2.2145   8.9921  -0.9521  -1.2007   5.1334   0.00    0.0
2014/09/29 23:29:30.000   63.755941788  -68.510507946    89.6377   5   8   3.8291   2.2115   8.9723  -0.9252  -1.1345   5.1306   0.00    0.0
2014/09/29 23:30:00.000   63.755944556  -68.510495776    88.3524   5   7   3.9253   2.2430   9.2274  -0.6877  -1.4171   4.9385   0.00    0.0
2014/09/29 23:30:30.000   63.755944199  -68.510495913    88.5916   5   7   3.9268   2.2392   9.2119  -0.6560  -1.3593   4.9350   0.00    0.0
2014/09/29 23:31:00.000   63.755946310  -68.510499000    89.2509   5   7   3.9283   2.2355   9.1960  -0.6226  -1.2992   4.9312   0.00    0.0
2014/09/29 23:31:30.000   63.755948568  -68.510493185    88.6966   5   7   3.9297   2.2320   9.1799  -0.5873  -1.2364   4.9273   0.00    0.0
2014/09/29 23:32:00.000   63.755950589  -68.510496796    90.3477   5   7   3.9311   2.2287   9.1634  -0.5497  -1.1706   4.9233   0.00    0.0
2014/09/29 23:32:30.000   63.755946095  -68.510494713    89.4351   5   7   3.9324   2.2255   9.1466  -0.5094  -1.1012   4.9190   0.00    0.0
2014/09/29 23:33:00.000   63.755950414  -68.510504621    89.7788   5   7   3.9337   2.2225   9.1295  -0.4655  -1.0275   4.9147   0.00    0.0
2014/09/29 23:33:30.000   63.755953357  -68.510498510    90.5890   5   7   3.9350   2.2197   9.1121  -0.4172  -0.9486   4.9101   0.00    0.0
2014/09/29 23:34:00.000   63.755950463  -68.510504003    90.8638   5   7   3.9362   2.2170   9.0944  -0.3625  -0.8630   4.9054   0.00    0.0
2014/09/29 23:34:30.000   63.755947259  -68.510498574    90.4448   5   7   3.9373   2.2145   9.0765  -0.2981  -0.7685   4.9006   0.00    0.0
2014/09/29 23:35:00.000   63.755949950  -68.510507291    90.2695   5   7   3.9384   2.2121   9.0583  -0.2153  -0.6613   4.8956   0.00    0.0
2014/09/29 23:35:30.000   63.755949685  -68.510509097    90.6080   5   7   3.9395   2.2099   9.0398  -0.0629  -0.5341   4.8905   0.00    0.0
2014/09/29 23:36:00.000   63.755955033  -68.510498844    92.0793   5   7   3.9405   2.2078   9.0211   0.1958  -0.3663   4.8852   0.00    0.0
2014/09/29 23:36:30.000   63.755954942  -68.510495521    91.9535   5   7   3.9414   2.2059   9.0021   0.2838   0.1256   4.8797   0.00    0.0
2014/09/29 23:37:00.000   63.755955511  -68.510497121    91.8626   5   7   3.9423   2.2042   8.9829   0.3501   0.4057   4.8742   0.00    0.0
2014/09/29 23:37:30.000   63.755952695  -68.510497307    91.6908   5   7   3.9432   2.2026   8.9634   0.4056   0.5587   4.8685   0.00    0.0
2014/09/29 23:38:00.000   63.755952738  -68.510505873    91.3625   5   7   3.9440   2.2011   8.9438   0.4541   0.6772   4.8626   0.00    0.0
2014/09/29 23:38:30.000   63.755949624  -68.510501891    90.9740   5   7   3.9448   2.1998   8.9239   0.4978   0.7770   4.8567   0.00    0.0
2014/09/29 23:39:00.000   63.755956785  -68.510500993    91.4906   5   7   3.9455   2.1987   8.9037   0.5378   0.8646   4.8506   0.00    0.0
2014/09/29 23:39:30.000   63.755954285  -68.510500042    91.7783   5   7   3.9461   2.1976   8.8834   0.5748   0.9435   4.8443   0.00    0.0
2014/09/29 23:40:00.000   63.755950629  -68.510502085    90.7707   5   7   3.9467   2.1968   8.8629   0.6094   1.0155   4.8380   0.00    0.0
2014/09/29 23:40:30.000   63.755954047  -68.510498624    90.8652   5   7   3.9473   2.1961   8.8421   0.6419   1.0822   4.8315   0.00    0.0
2014/09/29 23:41:00.000   63.755952676  -68.510499493    90.4190   5   7   3.9477   2.1955   8.8212   0.6728   1.1444   4.8248   0.00    0.0
2014/09/29 23:41:30.000   63.755951825  -68.510499881    90.1944   5   7   3.9482   2.1950   8.8001   0.7020   1.2027   4.8181   0.00    0.0
2014/09/29 23:42:00.000   63.755954056  -68.510500147    90.0978   5   7   3.9486   2.1947   8.7787   0.7300   1.2578   4.8112   0.00    0.0
2014/09/29 23:42:30.000   63.755952984  -68.510496506    90.7836   5   7   3.9489   2.1945   8.7572   0.7567   1.3100   4.8042   0.00    0.0
2014/09/29 23:43:00.000   63.755952126  -68.510498146    89.8101   5   7   3.9491   2.1945   8.7355   0.7823   1.3596   4.7971   0.00    0.0
2014/09/29 23:43:30.000   63.755949814  -68.510505312    89.5011   5   7   3.9493   2.1946   8.7136   0.8069   1.4069   4.7898   0.00    0.0
2014/09/29 23:44:00.000   63.755945815  -68.510505968    89.0937   5   7   3.9495   2.1948   8.6916   0.8306   1.4522   4.7824   0.00    0.0
2014/09/29 23:44:30.000   63.755947537  -68.510503892    89.5890   5   7   3.9496   2.1951   8.6694   0.8535   1.4955   4.7749   0.00    0.0
2014/09/29 23:45:00.000   63.755950018  -68.510503504    90.0231   5   7   3.9496   2.1955   8.6469   0.8755   1.5371   4.7672   0.00    0.0
2014/09/29 23:45:30.000   63.755951857  -68.510501370    90.3349   5   7   3.9495   2.1961   8.6244   0.8968   1.5771   4.7594   0.00    0.0
2014/09/29 23:46:00.000   63.755953672  -68.510500523    91.0093   5   7   3.9494   2.1968   8.6016   0.9175   1.6156   4.7515   0.00    0.0
2014/09/29 23:46:30.000   63.755950152  -68.510500397    90.0438   5   7   3.9492   2.1975   8.5787   0.9374   1.6526   4.7435   0.00    0.0
2014/09/29 23:47:00.000   63.755950671  -68.510510162    91.8686   5   7   3.9490   2.1984   8.5556   0.9568   1.6884   4.7353   0.00    0.0
2014/09/29 23:47:30.000   63.755948674  -68.510511604    91.4334   5   7   3.9487   2.1994   8.5324   0.9755   1.7229   4.7270   0.00    0.0
2014/09/29 23:48:00.000   63.755955327  -68.510509789    91.9482   5   7   3.9483   2.2005   8.5090   0.9937   1.7562   4.7186   0.00    0.0
2014/09/29 23:48:30.000   63.755948968  -68.510510103    90.6162   5   7   3.9478   2.2017   8.4854   1.0114   1.7884   4.7101   0.00    0.0
2014/09/29 23:49:00.000   63.755949539  -68.510505970    90.1525   5   7   3.9473   2.2030   8.4617   1.0285   1.8196   4.7014   0.00    0.0
2014/09/29 23:49:30.000   63.755951811  -68.510508354    90.7969   5   7   3.9467   2.2044   8.4378   1.0452   1.8497   4.6925   0.00    0.0
2014/09/29 23:50:00.000   63.755951438  -68.510508053    90.1252   5   7   3.9460   2.2059   8.4138   1.0613   1.8789   4.6836   0.00    0.0
2014/09/29 23:50:30.000   63.755951908  -68.510509818    91.4705   5   7   3.9452   2.2074   8.3896   1.0770   1.9071   4.6745   0.00    0.0
2014/09/29 23:51:00.000   63.755950600  -68.510505523    90.9428   5   7   3.9444   2.2091   8.3652   1.0923   1.9345   4.6653   0.00    0.0
2014/09/29 23:51:30.000   63.755950137  -68.510503524    90.4679   5   7   3.9434   2.2108   8.3407   1.1071   1.9609   4.6559   0.00    0.0
2014/09/29 23:52:00.000   63.755949634  -68.510504119    90.9496   5   7   3.9424   2.2126   8.3161   1.1214   1.9866   4.6464   0.00    0.0
2014/09/29 23:52:30.000   63.755949528  -68.510505469    90.6799   5   7   3.9414   2.2145   8.2913   1.1354   2.0114   4.6368   0.00    0.0
2014/09/29 23:53:00.000   63.755947891  -68.510505726    89.5394   5   7   3.9402   2.2164   8.2663   1.1490   2.0355   4.6270   0.00    0.0
2014/09/29 23:53:30.000   63.755947281  -68.510504621    89.4351   5   7   3.9389   2.2184   8.2412   1.1621   2.0588   4.6171   0.00    0.0
2014/09/29 23:54:00.000   63.755953730  -68.510503265    90.9628   5   7   3.9376   2.2204   8.2160   1.1749   2.0814   4.6070   0.00    0.0
2014/09/29 23:54:30.000   63.755950480  -68.510500300    89.9476   5   7   3.9362   2.2226   8.1906   1.1873   2.1032   4.5968   0.00    0.0
2014/09/29 23:55:00.000   63.755953282  -68.510495173    89.9939   5   7   3.9346   2.2247   8.1650   1.1993   2.1244   4.5865   0.00    0.0
2014/09/29 23:55:30.000   63.755955434  -68.510499478    91.2272   5   7   3.9330   2.2269   8.1393   1.2110   2.1449   4.5760   0.00    0.0
2014/09/29 23:56:00.000   63.755952296  -68.510502805    91.1954   5   7   3.9313   2.2292   8.1135   1.2223   2.1647   4.5653   0.00    0.0
2014/09/29 23:56:30.000   63.755955720  -68.510498176    91.7671   5   7   3.9295   2.2315   8.0875   1.2332   2.1839   4.5546   0.00    0.0
2014/09/29 23:57:00.000   63.755944985  -68.510496671    89.3595   5   7   3.9277   2.2338   8.0613   1.2438   2.2024   4.5436   0.00    0.0
2014/09/29 23:57:30.000   63.755945793  -68.510498041    90.0242   5   7   3.9257   2.2362   8.0351   1.2541   2.2203   4.5326   0.00    0.0
2014/09/29 23:58:00.000   63.755953279  -68.510496237    91.4027   5   7   3.9236   2.2386   8.0087   1.2640   2.2376   4.5214   0.00    0.0
2014/09/29 23:58:30.000   63.755954359  -68.510495752    90.3089   5   7   3.9215   2.2411   7.9821   1.2736   2.2544   4.5100   0.00    0.0
2014/09/29 23:59:00.000   63.755956692  -68.510495611    90.8841   5   7   3.9192   2.2435   7.9554   1.2828   2.2705   4.4985   0.00    0.0
2014/09/29 23:59:30.000   63.755957455  -68.510500005    90.9550   5   7   3.9169   2.2460   7.9286   1.2917   2.2861   4.4868   0.00    0.0
