% program   : RTKPOST ver.demo5 b34b
% inp file  : D:\My Documents\Spoljar\Privat\Boston 2022\iqal1910.14o
% inp file  : D:\My Documents\Spoljar\Privat\Boston 2022\brdc1910.14n
% obs start : 2014/07/10 00:00:00.0 GPST (week1800 345600.0s)
% obs end   : 2014/07/10 02:46:30.0 GPST (week1800 355590.0s)
% pos mode  : Single
% elev mask : 15.0 deg
% ionos opt : Broadcast
% tropo opt : Saastamoinen
% ephemeris : Broadcast
% navi sys  : GPS
%
% (lat/lon/height=WGS84/ellipsoidal,Q=1:fix,2:float,3:sbas,4:dgps,5:single,6:ppp,ns=# of satellites)
%  GPST                  latitude(deg) longitude(deg)  height(m)   Q  ns   sdn(m)   sde(m)   sdu(m)  sdne(m)  sdeu(m)  sdun(m) age(s)  ratio
2014/07/10 00:00:00.000   63.755970200  -68.510495171    95.7984   5   9   2.7369   1.9148   6.1618   0.8384   1.7600   2.4497   0.00    0.0
2014/07/10 00:00:30.000   63.755970358  -68.510497154    96.2515   5   9   2.7401   1.9156   6.1710   0.8384   1.7715   2.4563   0.00    0.0
2014/07/10 00:01:00.000   63.755968577  -68.510495868    96.2752   5   9   2.7434   1.9163   6.1797   0.8383   1.7826   2.4627   0.00    0.0
2014/07/10 00:01:30.000   63.755970171  -68.510493374    96.1212   5   9   2.7467   1.9171   6.1879   0.8382   1.7935   2.4689   0.00    0.0
2014/07/10 00:02:00.000   63.755970125  -68.510496139    96.0141   5   9   2.7500   1.9179   6.1955   0.8379   1.8040   2.4750   0.00    0.0
2014/07/10 00:02:30.000   63.755968137  -68.510499060    96.6465   5   9   2.7533   1.9187   6.2025   0.8376   1.8143   2.4809   0.00    0.0
2014/07/10 00:03:00.000   63.755968535  -68.510496738    96.1266   5   9   2.7566   1.9196   6.2089   0.8372   1.8242   2.4865   0.00    0.0
2014/07/10 00:03:30.000   63.755971307  -68.510493609    96.5295   5   9   2.7600   1.9204   6.2148   0.8367   1.8339   2.4920   0.00    0.0
2014/07/10 00:04:00.000   63.755970601  -68.510497598    96.1010   5   9   2.7634   1.9212   6.2200   0.8361   1.8432   2.4973   0.00    0.0
2014/07/10 00:04:30.000   63.755968172  -68.510498103    96.1146   5   9   2.7667   1.9220   6.2247   0.8354   1.8522   2.5024   0.00    0.0
2014/07/10 00:05:00.000   63.755967206  -68.510497992    95.3327   5  10   2.6720   1.8925   5.6010   0.9723   2.0954   2.0724   0.00    0.0
2014/07/10 00:05:30.000   63.755964861  -68.510495325    95.3604   5  10   2.6758   1.8931   5.6120   0.9719   2.1026   2.0813   0.00    0.0
2014/07/10 00:06:00.000   63.755966035  -68.510493032    94.9507   5  10   2.6797   1.8936   5.6225   0.9715   2.1096   2.0901   0.00    0.0
2014/07/10 00:06:30.000   63.755968769  -68.510493321    94.6995   5  10   2.6836   1.8941   5.6326   0.9709   2.1163   2.0989   0.00    0.0
2014/07/10 00:07:00.000   63.755965626  -68.510498630    95.1408   5  10   2.6876   1.8946   5.6423   0.9703   2.1227   2.1075   0.00    0.0
2014/07/10 00:07:30.000   63.755963208  -68.510503150    94.7029   5  10   2.6916   1.8951   5.6516   0.9696   2.1288   2.1160   0.00    0.0
2014/07/10 00:08:00.000   63.755964981  -68.510496225    95.7161   5  11   2.4124   1.8867   5.4580   1.0760   2.0695   2.5136   0.00    0.0
2014/07/10 00:08:30.000   63.755963188  -68.510496511    95.8925   5  11   2.4157   1.8867   5.4672   1.0779   2.0736   2.5210   0.00    0.0
2014/07/10 00:09:00.000   63.755966945  -68.510501770    95.5153   5  11   2.4190   1.8866   5.4759   1.0798   2.0775   2.5282   0.00    0.0
2014/07/10 00:09:30.000   63.755966043  -68.510503572    96.7107   5  11   2.4223   1.8864   5.4842   1.0815   2.0811   2.5353   0.00    0.0
2014/07/10 00:10:00.000   63.755969028  -68.510499899    95.7862   5  11   2.4257   1.8862   5.4921   1.0830   2.0844   2.5422   0.00    0.0
2014/07/10 00:10:30.000   63.755967395  -68.510499090    96.3978   5  11   2.4291   1.8860   5.4996   1.0845   2.0874   2.5489   0.00    0.0
2014/07/10 00:11:00.000   63.755967739  -68.510504501    96.4367   5  11   2.4325   1.8857   5.5066   1.0859   2.0901   2.5556   0.00    0.0
2014/07/10 00:11:30.000   63.755969150  -68.510498506    96.3318   5  11   2.4359   1.8854   5.5131   1.0872   2.0926   2.5620   0.00    0.0
2014/07/10 00:12:00.000   63.755966180  -68.510495865    95.9376   5  11   2.4393   1.8850   5.5192   1.0883   2.0947   2.5683   0.00    0.0
2014/07/10 00:12:30.000   63.755968891  -68.510502318    96.0653   5  11   2.4427   1.8846   5.5248   1.0893   2.0965   2.5743   0.00    0.0
2014/07/10 00:13:00.000   63.755969586  -68.510496408    96.2710   5  11   2.4461   1.8841   5.5299   1.0902   2.0981   2.5802   0.00    0.0
2014/07/10 00:13:30.000   63.755964546  -68.510496134    95.7216   5  11   2.4495   1.8835   5.5345   1.0910   2.0993   2.5859   0.00    0.0
2014/07/10 00:14:00.000   63.755971893  -68.510497784    96.5770   5  11   2.4529   1.8830   5.5387   1.0916   2.1002   2.5915   0.00    0.0
2014/07/10 00:14:30.000   63.755968440  -68.510506690    96.0926   5  11   2.4564   1.8823   5.5424   1.0921   2.1008   2.5968   0.00    0.0
2014/07/10 00:15:00.000   63.755969203  -68.510504355    96.1959   5  11   2.4598   1.8816   5.5455   1.0925   2.1011   2.6019   0.00    0.0
2014/07/10 00:15:30.000   63.755972099  -68.510497101    96.5767   5  11   2.4632   1.8808   5.5482   1.0928   2.1011   2.6068   0.00    0.0
2014/07/10 00:16:00.000   63.755965321  -68.510498478    95.4392   5  11   2.4666   1.8800   5.5504   1.0929   2.1007   2.6116   0.00    0.0
2014/07/10 00:16:30.000   63.755972843  -68.510501316    95.9677   5  11   2.4700   1.8791   5.5520   1.0929   2.1000   2.6161   0.00    0.0
2014/07/10 00:17:00.000   63.755969262  -68.510498440    96.6828   5  11   2.4733   1.8782   5.5532   1.0927   2.0991   2.6204   0.00    0.0
2014/07/10 00:17:30.000   63.755971041  -68.510502867    96.7346   5  11   2.4767   1.8772   5.5539   1.0924   2.0978   2.6244   0.00    0.0
2014/07/10 00:18:00.000   63.755967727  -68.510501815    95.6942   5  11   2.4801   1.8762   5.5541   1.0920   2.0962   2.6283   0.00    0.0
2014/07/10 00:18:30.000   63.755967804  -68.510496619    96.0776   5  11   2.4834   1.8751   5.5537   1.0914   2.0942   2.6320   0.00    0.0
2014/07/10 00:19:00.000   63.755969332  -68.510504608    96.2572   5  11   2.4868   1.8739   5.5529   1.0907   2.0920   2.6354   0.00    0.0
2014/07/10 00:19:30.000   63.755970218  -68.510496743    95.7434   5  11   2.4901   1.8727   5.5516   1.0898   2.0894   2.6386   0.00    0.0
2014/07/10 00:20:00.000   63.755966994  -68.510501549    95.3902   5  11   2.4934   1.8715   5.5498   1.0888   2.0866   2.6416   0.00    0.0
2014/07/10 00:20:30.000   63.755968608  -68.510496699    95.3471   5  11   2.4967   1.8702   5.5475   1.0876   2.0834   2.6444   0.00    0.0
2014/07/10 00:21:00.000   63.755969343  -68.510494120    96.1245   5  11   2.4999   1.8688   5.5448   1.0863   2.0799   2.6469   0.00    0.0
2014/07/10 00:21:30.000   63.755968924  -68.510500182    96.1390   5  11   2.5032   1.8674   5.5415   1.0848   2.0760   2.6492   0.00    0.0
2014/07/10 00:22:00.000   63.755970976  -68.510490794    95.6556   5  11   2.5064   1.8659   5.5378   1.0832   2.0719   2.6513   0.00    0.0
2014/07/10 00:22:30.000   63.755965636  -68.510499137    95.4574   5  11   2.5096   1.8644   5.5336   1.0814   2.0675   2.6532   0.00    0.0
2014/07/10 00:23:00.000   63.755973991  -68.510497408    95.5750   5  11   2.5128   1.8629   5.5290   1.0795   2.0628   2.6549   0.00    0.0
2014/07/10 00:23:30.000   63.755972637  -68.510498453    95.9713   5  11   2.5160   1.8612   5.5239   1.0775   2.0577   2.6563   0.00    0.0
2014/07/10 00:24:00.000   63.755970773  -68.510495125    95.2997   5  11   2.5191   1.8596   5.5184   1.0753   2.0524   2.6575   0.00    0.0
2014/07/10 00:24:30.000   63.755969601  -68.510500941    95.8725   5  11   2.5223   1.8579   5.5124   1.0730   2.0467   2.6585   0.00    0.0
2014/07/10 00:25:00.000   63.755966148  -68.510497841    95.3675   5  11   2.5254   1.8562   5.5061   1.0705   2.0408   2.6592   0.00    0.0
2014/07/10 00:25:30.000   63.755972106  -68.510500125    95.3309   5  11   2.5286   1.8545   5.4993   1.0679   2.0345   2.6598   0.00    0.0
2014/07/10 00:26:00.000   63.755971898  -68.510495442    95.1397   5  11   2.5317   1.8527   5.4921   1.0652   2.0280   2.6601   0.00    0.0
2014/07/10 00:26:30.000   63.755967286  -68.510500933    94.8837   5  11   2.5347   1.8508   5.4845   1.0623   2.0212   2.6602   0.00    0.0
2014/07/10 00:27:00.000   63.755968128  -68.510498094    94.8260   5  11   2.5378   1.8489   5.4766   1.0593   2.0141   2.6601   0.00    0.0
2014/07/10 00:27:30.000   63.755969033  -68.510500000    95.3169   5  11   2.5408   1.8470   5.4682   1.0561   2.0067   2.6599   0.00    0.0
2014/07/10 00:28:00.000   63.755972555  -68.510495575    95.8525   5  11   2.5438   1.8451   5.4596   1.0527   1.9991   2.6594   0.00    0.0
2014/07/10 00:28:30.000   63.755974314  -68.510497714    95.4760   5  10   2.6335   1.9019   5.5722   1.1897   1.8497   2.5085   0.00    0.0
2014/07/10 00:29:00.000   63.755969846  -68.510495618    94.6027   5  10   2.6349   1.8989   5.5678   1.1840   1.8395   2.5059   0.00    0.0
2014/07/10 00:29:30.000   63.755974088  -68.510492632    95.4955   5  10   2.6362   1.8958   5.5632   1.1782   1.8290   2.5033   0.00    0.0
2014/07/10 00:30:00.000   63.755971066  -68.510497980    95.5519   5  10   2.6376   1.8927   5.5583   1.1723   1.8184   2.5005   0.00    0.0
2014/07/10 00:30:30.000   63.755971527  -68.510492084    95.4160   5  10   2.6389   1.8896   5.5530   1.1664   1.8075   2.4977   0.00    0.0
2014/07/10 00:31:00.000   63.755967886  -68.510500215    94.9904   5  10   2.6403   1.8866   5.5475   1.1603   1.7964   2.4948   0.00    0.0
2014/07/10 00:31:30.000   63.755971501  -68.510492886    94.3506   5  10   2.6417   1.8836   5.5418   1.1542   1.7852   2.4918   0.00    0.0
2014/07/10 00:32:00.000   63.755967014  -68.510494379    94.9185   5  10   2.6430   1.8805   5.5357   1.1479   1.7737   2.4887   0.00    0.0
2014/07/10 00:32:30.000   63.755970949  -68.510497265    95.1603   5  10   2.6444   1.8775   5.5295   1.1416   1.7620   2.4856   0.00    0.0
2014/07/10 00:33:00.000   63.755967894  -68.510496366    95.4156   5  10   2.6458   1.8745   5.5229   1.1352   1.7501   2.4824   0.00    0.0
2014/07/10 00:33:30.000   63.755969698  -68.510496586    95.1502   5  10   2.6472   1.8715   5.5162   1.1287   1.7380   2.4791   0.00    0.0
2014/07/10 00:34:00.000   63.755969739  -68.510498999    94.7449   5  10   2.6486   1.8685   5.5092   1.1221   1.7257   2.4757   0.00    0.0
2014/07/10 00:34:30.000   63.755971383  -68.510495980    95.1016   5  10   2.6500   1.8656   5.5020   1.1154   1.7132   2.4723   0.00    0.0
2014/07/10 00:35:00.000   63.755971865  -68.510497014    94.5633   5  10   2.6515   1.8626   5.4946   1.1086   1.7005   2.4689   0.00    0.0
2014/07/10 00:35:30.000   63.755973037  -68.510495970    94.1795   5  10   2.6529   1.8597   5.4870   1.1018   1.6877   2.4654   0.00    0.0
2014/07/10 00:36:00.000   63.755968808  -68.510502476    94.5026   5  10   2.6544   1.8568   5.4792   1.0948   1.6746   2.4619   0.00    0.0
2014/07/10 00:36:30.000   63.755973901  -68.510495664    94.8433   5  10   2.6558   1.8540   5.4712   1.0878   1.6614   2.4583   0.00    0.0
2014/07/10 00:37:00.000   63.755977872  -68.510496574    96.7491   5   9   3.7826   1.8522   7.8231   1.1562   1.7514   4.5934   0.00    0.0
2014/07/10 00:37:30.000   63.755980441  -68.510495981    96.6056   5   9   3.7945   1.8493   7.8432   1.1457   1.7334   4.6114   0.00    0.0
2014/07/10 00:38:00.000   63.755975175  -68.510489350    95.8989   5   9   3.8061   1.8464   7.8621   1.1346   1.7146   4.6286   0.00    0.0
2014/07/10 00:38:30.000   63.755976789  -68.510493813    97.0303   5   9   3.8173   1.8435   7.8797   1.1230   1.6951   4.6450   0.00    0.0
2014/07/10 00:39:00.000   63.755974256  -68.510497201    96.0114   5   9   3.8280   1.8407   7.8962   1.1110   1.6748   4.6605   0.00    0.0
2014/07/10 00:39:30.000   63.755975484  -68.510499220    95.6880   5   9   3.8384   1.8379   7.9113   1.0984   1.6536   4.6752   0.00    0.0
2014/07/10 00:40:00.000   63.755971067  -68.510495650    95.8452   5   9   3.8484   1.8352   7.9251   1.0853   1.6317   4.6889   0.00    0.0
2014/07/10 00:40:30.000   63.755973404  -68.510493776    96.8380   5   9   3.8579   1.8324   7.9376   1.0717   1.6090   4.7018   0.00    0.0
2014/07/10 00:41:00.000   63.755974822  -68.510493477    96.6687   5   9   3.8669   1.8298   7.9486   1.0575   1.5854   4.7137   0.00    0.0
2014/07/10 00:41:30.000   63.755979337  -68.510491142    95.8742   5   9   3.8755   1.8272   7.9583   1.0428   1.5610   4.7246   0.00    0.0
2014/07/10 00:42:00.000   63.755975922  -68.510495120    96.4292   5   9   3.8836   1.8246   7.9666   1.0275   1.5356   4.7346   0.00    0.0
2014/07/10 00:42:30.000   63.755975798  -68.510499425    96.7088   5   9   3.8912   1.8221   7.9734   1.0116   1.5094   4.7436   0.00    0.0
2014/07/10 00:43:00.000   63.755976675  -68.510490410    96.0183   5   9   3.8983   1.8197   7.9788   0.9951   1.4823   4.7516   0.00    0.0
2014/07/10 00:43:30.000   63.755974564  -68.510493672    95.5464   5   9   3.9049   1.8173   7.9827   0.9781   1.4543   4.7585   0.00    0.0
2014/07/10 00:44:00.000   63.755967670  -68.510491656    95.5525   5   9   3.9109   1.8150   7.9851   0.9604   1.4253   4.7645   0.00    0.0
2014/07/10 00:44:30.000   63.755970769  -68.510493628    95.1354   5   9   3.9164   1.8127   7.9861   0.9421   1.3954   4.7694   0.00    0.0
2014/07/10 00:45:00.000   63.755977288  -68.510493404    96.4964   5   9   3.9214   1.8105   7.9855   0.9232   1.3644   4.7732   0.00    0.0
2014/07/10 00:45:30.000   63.755980938  -68.510499917    96.0284   5   9   3.9259   1.8084   7.9835   0.9036   1.3324   4.7760   0.00    0.0
2014/07/10 00:46:00.000   63.755973532  -68.510491149    95.5639   5   9   3.9298   1.8064   7.9800   0.8833   1.2994   4.7778   0.00    0.0
2014/07/10 00:46:30.000   63.755975830  -68.510495619    96.1012   5   9   3.9331   1.8044   7.9750   0.8624   1.2652   4.7785   0.00    0.0
2014/07/10 00:47:00.000   63.755971132  -68.510499893    95.0581   5   9   3.9359   1.8025   7.9686   0.8407   1.2299   4.7782   0.00    0.0
2014/07/10 00:47:30.000   63.755974645  -68.510492406    95.0916   5   9   3.9382   1.8007   7.9606   0.8182   1.1934   4.7768   0.00    0.0
2014/07/10 00:48:00.000   63.755968707  -68.510495099    94.8181   5   9   3.9399   1.7990   7.9513   0.7950   1.1555   4.7744   0.00    0.0
2014/07/10 00:48:30.000   63.755973414  -68.510495758    95.7156   5   9   3.9410   1.7974   7.9405   0.7709   1.1164   4.7709   0.00    0.0
2014/07/10 00:49:00.000   63.755971889  -68.510496789    95.3390   5   9   3.9416   1.7958   7.9283   0.7459   1.0757   4.7664   0.00    0.0
2014/07/10 00:49:30.000   63.755971744  -68.510497414    95.1561   5   9   3.9417   1.7944   7.9147   0.7200   1.0335   4.7609   0.00    0.0
2014/07/10 00:50:00.000   63.755973623  -68.510498919    95.0742   5   9   3.9412   1.7930   7.8997   0.6931   0.9896   4.7545   0.00    0.0
2014/07/10 00:50:30.000   63.755972693  -68.510496820    95.3750   5   9   3.9403   1.7917   7.8834   0.6651   0.9437   4.7470   0.00    0.0
2014/07/10 00:51:00.000   63.755963415  -68.510497826    93.8555   5  10   2.6381   1.7622   5.3677  -0.7234  -1.0107   2.3743   0.00    0.0
2014/07/10 00:51:30.000   63.755959092  -68.510496579    94.2043   5  10   2.6385   1.7623   5.3701  -0.7346  -1.0296   2.3767   0.00    0.0
2014/07/10 00:52:00.000   63.755965085  -68.510500928    93.8035   5  10   2.6390   1.7625   5.3724  -0.7456  -1.0480   2.3791   0.00    0.0
2014/07/10 00:52:30.000   63.755960089  -68.510502786    94.1982   5  10   2.6395   1.7627   5.3746  -0.7564  -1.0661   2.3816   0.00    0.0
2014/07/10 00:53:00.000   63.755967760  -68.510492485    94.0739   5  10   2.6400   1.7629   5.3768  -0.7670  -1.0837   2.3841   0.00    0.0
2014/07/10 00:53:30.000   63.755962604  -68.510497704    93.3884   5  10   2.6406   1.7633   5.3789  -0.7774  -1.1010   2.3867   0.00    0.0
2014/07/10 00:54:00.000   63.755965685  -68.510499096    93.9595   5  10   2.6412   1.7636   5.3809  -0.7877  -1.1179   2.3893   0.00    0.0
2014/07/10 00:54:30.000   63.755964802  -68.510502274    93.0466   5  10   2.6418   1.7640   5.3828  -0.7978  -1.1344   2.3919   0.00    0.0
2014/07/10 00:55:00.000   63.755962285  -68.510493905    94.2576   5  10   2.6424   1.7645   5.3847  -0.8078  -1.1507   2.3946   0.00    0.0
2014/07/10 00:55:30.000   63.755966587  -68.510497480    92.9159   5  10   2.6431   1.7649   5.3864  -0.8176  -1.1666   2.3973   0.00    0.0
2014/07/10 00:56:00.000   63.755961577  -68.510495805    92.5497   5  10   2.6438   1.7655   5.3881  -0.8272  -1.1821   2.4001   0.00    0.0
2014/07/10 00:56:30.000   63.755964537  -68.510493727    93.7491   5  10   2.6445   1.7661   5.3896  -0.8368  -1.1974   2.4029   0.00    0.0
2014/07/10 00:57:00.000   63.755966407  -68.510499572    93.6381   5  10   2.6452   1.7667   5.3911  -0.8462  -1.2124   2.4057   0.00    0.0
2014/07/10 00:57:30.000   63.755958622  -68.510497289    93.0946   5  10   2.6460   1.7673   5.3924  -0.8554  -1.2271   2.4085   0.00    0.0
2014/07/10 00:58:00.000   63.755962205  -68.510501753    92.9655   5  10   2.6468   1.7680   5.3936  -0.8646  -1.2415   2.4114   0.00    0.0
2014/07/10 00:58:30.000   63.755964534  -68.510499211    93.0924   5  10   2.6476   1.7687   5.3947  -0.8736  -1.2557   2.4143   0.00    0.0
2014/07/10 00:59:00.000   63.755961068  -68.510500655    92.6199   5  10   2.6484   1.7695   5.3957  -0.8824  -1.2695   2.4171   0.00    0.0
2014/07/10 00:59:30.000   63.755956626  -68.510493495    92.5873   5  10   2.6492   1.7703   5.3966  -0.8912  -1.2831   2.4200   0.00    0.0
2014/07/10 01:00:00.000   63.755962018  -68.510491494    91.7136   5  10   2.6501   1.7712   5.3974  -0.8998  -1.2965   2.4229   0.00    0.0
2014/07/10 01:00:30.000   63.755959197  -68.510486062    92.4805   5  10   2.6509   1.7721   5.3980  -0.9084  -1.3096   2.4259   0.00    0.0
2014/07/10 01:01:00.000   63.755959248  -68.510487838    91.8505   5  10   2.6518   1.7730   5.3985  -0.9168  -1.3224   2.4288   0.00    0.0
2014/07/10 01:01:30.000   63.755959183  -68.510486432    91.2058   5  10   2.6527   1.7739   5.3989  -0.9251  -1.3350   2.4317   0.00    0.0
2014/07/10 01:02:00.000   63.755955707  -68.510489706    92.0690   5  10   2.6537   1.7749   5.3991  -0.9333  -1.3474   2.4346   0.00    0.0
2014/07/10 01:02:30.000   63.755956193  -68.510484969    91.7422   5  10   2.6546   1.7759   5.3992  -0.9414  -1.3595   2.4375   0.00    0.0
2014/07/10 01:03:00.000   63.755958084  -68.510486820    91.6506   5  10   2.6556   1.7770   5.3991  -0.9493  -1.3714   2.4404   0.00    0.0
2014/07/10 01:03:30.000   63.755956503  -68.510488961    91.6882   5  10   2.6565   1.7781   5.3989  -0.9572  -1.3830   2.4432   0.00    0.0
2014/07/10 01:04:00.000   63.755956234  -68.510492754    91.8656   5  10   2.6575   1.7792   5.3986  -0.9650  -1.3944   2.4461   0.00    0.0
2014/07/10 01:04:30.000   63.755965707  -68.510493306    91.4253   5   9   3.3371   1.8707   5.6474  -1.4508  -1.0112   1.6279   0.00    0.0
2014/07/10 01:05:00.000   63.755965404  -68.510490411    91.1894   5   9   3.3365   1.8734   5.6444  -1.4589  -1.0245   1.6381   0.00    0.0
2014/07/10 01:05:30.000   63.755962615  -68.510493501    90.6906   5   9   3.3358   1.8761   5.6413  -1.4669  -1.0375   1.6483   0.00    0.0
2014/07/10 01:06:00.000   63.755958040  -68.510487365    91.5951   5  10   2.8981   1.7085   5.3554  -0.9405  -1.5752   2.3792   0.00    0.0
2014/07/10 01:06:30.000   63.755951871  -68.510483781    91.5667   5  10   2.8936   1.7088   5.3612  -0.9449  -1.5797   2.3785   0.00    0.0
2014/07/10 01:07:00.000   63.755951732  -68.510480366    91.2013   5  10   2.8892   1.7091   5.3669  -0.9491  -1.5838   2.3777   0.00    0.0
2014/07/10 01:07:30.000   63.755950781  -68.510487395    91.9549   5  10   2.8847   1.7094   5.3722  -0.9531  -1.5878   2.3766   0.00    0.0
2014/07/10 01:08:00.000   63.755957982  -68.510485475    91.3273   5  10   2.8802   1.7097   5.3773  -0.9570  -1.5914   2.3754   0.00    0.0
2014/07/10 01:08:30.000   63.755953748  -68.510479507    90.9739   5  10   2.8758   1.7100   5.3821  -0.9607  -1.5949   2.3739   0.00    0.0
2014/07/10 01:09:00.000   63.755949590  -68.510485278    90.6177   5  10   2.8713   1.7103   5.3866  -0.9642  -1.5980   2.3723   0.00    0.0
2014/07/10 01:09:30.000   63.755950633  -68.510484179    91.0790   5  10   2.8668   1.7106   5.3908  -0.9676  -1.6009   2.3705   0.00    0.0
2014/07/10 01:10:00.000   63.755949893  -68.510487671    90.9901   5  10   2.8623   1.7108   5.3948  -0.9708  -1.6036   2.3684   0.00    0.0
2014/07/10 01:10:30.000   63.755951189  -68.510487527    90.2952   5  10   2.8578   1.7111   5.3984  -0.9739  -1.6060   2.3662   0.00    0.0
2014/07/10 01:11:00.000   63.755951231  -68.510482675    90.7688   5  10   2.8533   1.7114   5.4017  -0.9768  -1.6081   2.3638   0.00    0.0
2014/07/10 01:11:30.000   63.755950440  -68.510485884    90.8048   5  10   2.8488   1.7116   5.4047  -0.9796  -1.6100   2.3611   0.00    0.0
2014/07/10 01:12:00.000   63.755954355  -68.510485443    90.3452   5  10   2.8444   1.7119   5.4074  -0.9824  -1.6115   2.3582   0.00    0.0
2014/07/10 01:12:30.000   63.755952121  -68.510480638    90.8347   5  10   2.8401   1.7122   5.4098  -0.9852  -1.6127   2.3550   0.00    0.0
2014/07/10 01:13:00.000   63.755952608  -68.510479457    90.4335   5  10   2.8358   1.7125   5.4119  -0.9878  -1.6136   2.3515   0.00    0.0
2014/07/10 01:13:30.000   63.755947098  -68.510484887    90.7619   5  10   2.8315   1.7128   5.4136  -0.9904  -1.6143   2.3479   0.00    0.0
2014/07/10 01:14:00.000   63.755947598  -68.510482762    90.1619   5  10   2.8272   1.7131   5.4150  -0.9927  -1.6147   2.3441   0.00    0.0
2014/07/10 01:14:30.000   63.755952303  -68.510486395    90.1431   5  10   2.8229   1.7133   5.4161  -0.9950  -1.6149   2.3400   0.00    0.0
2014/07/10 01:15:00.000   63.755950415  -68.510481699    91.0167   5  10   2.8186   1.7136   5.4167  -0.9971  -1.6148   2.3358   0.00    0.0
2014/07/10 01:15:30.000   63.755953619  -68.510489779    90.7895   5  10   2.8143   1.7138   5.4171  -0.9991  -1.6145   2.3315   0.00    0.0
2014/07/10 01:16:00.000   63.755949648  -68.510482611    90.5092   5  10   2.8100   1.7141   5.4170  -1.0009  -1.6139   2.3269   0.00    0.0
2014/07/10 01:16:30.000   63.755951635  -68.510485406    90.2415   5  10   2.8057   1.7143   5.4166  -1.0026  -1.6130   2.3221   0.00    0.0
2014/07/10 01:17:00.000   63.755951075  -68.510481251    90.1855   5  10   2.8014   1.7145   5.4159  -1.0042  -1.6119   2.3172   0.00    0.0
2014/07/10 01:17:30.000   63.755950540  -68.510480008    90.2186   5  10   2.7971   1.7147   5.4148  -1.0056  -1.6105   2.3121   0.00    0.0
2014/07/10 01:18:00.000   63.755944681  -68.510483961    89.7691   5  10   2.7928   1.7149   5.4133  -1.0069  -1.6089   2.3068   0.00    0.0
2014/07/10 01:18:30.000   63.755953446  -68.510481290    90.3734   5  10   2.7885   1.7151   5.4114  -1.0081  -1.6070   2.3013   0.00    0.0
2014/07/10 01:19:00.000   63.755953500  -68.510485804    90.1687   5  10   2.7842   1.7152   5.4092  -1.0092  -1.6048   2.2957   0.00    0.0
2014/07/10 01:19:30.000   63.755945869  -68.510483524    89.2707   5  10   2.7799   1.7154   5.4067  -1.0101  -1.6024   2.2899   0.00    0.0
2014/07/10 01:20:00.000   63.755950816  -68.510479576    89.0440   5  10   2.7756   1.7155   5.4037  -1.0110  -1.5998   2.2839   0.00    0.0
2014/07/10 01:20:30.000   63.755955547  -68.510484332    90.5160   5  10   2.7713   1.7157   5.4004  -1.0117  -1.5969   2.2777   0.00    0.0
2014/07/10 01:21:00.000   63.755948777  -68.510488857    89.4792   5  10   2.7670   1.7158   5.3968  -1.0123  -1.5937   2.2714   0.00    0.0
2014/07/10 01:21:30.000   63.755951124  -68.510486431    90.1555   5  10   2.7628   1.7159   5.3928  -1.0128  -1.5903   2.2649   0.00    0.0
2014/07/10 01:22:00.000   63.755949229  -68.510493525    90.4527   5  10   2.7585   1.7160   5.3884  -1.0132  -1.5867   2.2583   0.00    0.0
2014/07/10 01:22:30.000   63.755949650  -68.510482232    89.0713   5  10   2.7543   1.7161   5.3837  -1.0134  -1.5828   2.2515   0.00    0.0
2014/07/10 01:23:00.000   63.755949966  -68.510485725    89.6415   5  10   2.7500   1.7162   5.3786  -1.0136  -1.5787   2.2445   0.00    0.0
2014/07/10 01:23:30.000   63.755946512  -68.510485565    89.2947   5  10   2.7458   1.7163   5.3732  -1.0137  -1.5743   2.2374   0.00    0.0
2014/07/10 01:24:00.000   63.755956304  -68.510486942    89.7018   5  10   2.7416   1.7164   5.3674  -1.0137  -1.5697   2.2302   0.00    0.0
2014/07/10 01:24:30.000   63.755945756  -68.510482229    89.4572   5  10   2.7374   1.7164   5.3614  -1.0135  -1.5648   2.2228   0.00    0.0
2014/07/10 01:25:00.000   63.755949314  -68.510490964    89.1982   5  10   2.7332   1.7165   5.3549  -1.0133  -1.5597   2.2153   0.00    0.0
2014/07/10 01:25:30.000   63.755950301  -68.510490952    89.8128   5  10   2.7291   1.7166   5.3482  -1.0130  -1.5544   2.2076   0.00    0.0
2014/07/10 01:26:00.000   63.755949162  -68.510489726    89.2591   5  10   2.7249   1.7166   5.3411  -1.0126  -1.5489   2.1998   0.00    0.0
2014/07/10 01:26:30.000   63.755948644  -68.510493727    90.2375   5  10   2.7208   1.7167   5.3337  -1.0121  -1.5431   2.1919   0.00    0.0
2014/07/10 01:27:00.000   63.755949967  -68.510492935    89.1940   5  10   2.7167   1.7168   5.3261  -1.0116  -1.5371   2.1839   0.00    0.0
2014/07/10 01:27:30.000   63.755948074  -68.510488484    89.8918   5  10   2.7126   1.7168   5.3181  -1.0109  -1.5308   2.1758   0.00    0.0
2014/07/10 01:28:00.000   63.755944073  -68.510484086    88.0983   5  10   2.7086   1.7169   5.3098  -1.0102  -1.5244   2.1675   0.00    0.0
2014/07/10 01:28:30.000   63.755946154  -68.510485778    88.8317   5  10   2.7046   1.7170   5.3012  -1.0094  -1.5177   2.1592   0.00    0.0
2014/07/10 01:29:00.000   63.755945313  -68.510490355    89.0964   5  10   2.7006   1.7170   5.2923  -1.0085  -1.5109   2.1507   0.00    0.0
2014/07/10 01:29:30.000   63.755948778  -68.510482075    89.3033   5  10   2.6966   1.7171   5.2832  -1.0075  -1.5038   2.1422   0.00    0.0
2014/07/10 01:30:00.000   63.755944512  -68.510489272    89.6048   5  10   2.6926   1.7172   5.2737  -1.0065  -1.4965   2.1336   0.00    0.0
2014/07/10 01:30:30.000   63.755945493  -68.510488347    88.6892   5  10   2.6887   1.7173   5.2640  -1.0054  -1.4890   2.1249   0.00    0.0
2014/07/10 01:31:00.000   63.755947824  -68.510485002    89.0351   5  10   2.6848   1.7173   5.2541  -1.0043  -1.4813   2.1161   0.00    0.0
2014/07/10 01:31:30.000   63.755947676  -68.510488323    88.5491   5  10   2.6810   1.7174   5.2439  -1.0030  -1.4734   2.1072   0.00    0.0
2014/07/10 01:32:00.000   63.755950414  -68.510482918    88.9717   5  10   2.6772   1.7175   5.2335  -1.0018  -1.4653   2.0983   0.00    0.0
2014/07/10 01:32:30.000   63.755948870  -68.510492712    89.5784   5  10   2.6734   1.7177   5.2228  -1.0004  -1.4570   2.0893   0.00    0.0
2014/07/10 01:33:00.000   63.755949190  -68.510489919    89.1812   5  10   2.6696   1.7178   5.2120  -0.9990  -1.4485   2.0803   0.00    0.0
2014/07/10 01:33:30.000   63.755950509  -68.510493169    89.4902   5  10   2.6659   1.7179   5.2009  -0.9976  -1.4399   2.0712   0.00    0.0
2014/07/10 01:34:00.000   63.755950641  -68.510491964    88.8874   5  10   2.6623   1.7181   5.1896  -0.9961  -1.4310   2.0620   0.00    0.0
2014/07/10 01:34:30.000   63.755944691  -68.510494186    89.1126   5  10   2.6587   1.7183   5.1781  -0.9945  -1.4220   2.0528   0.00    0.0
2014/07/10 01:35:00.000   63.755949395  -68.510489410    88.1560   5  10   2.6552   1.7185   5.1664  -0.9928  -1.4128   2.0435   0.00    0.0
2014/07/10 01:35:30.000   63.755945712  -68.510490361    89.4381   5  10   2.6517   1.7187   5.1545  -0.9911  -1.4035   2.0342   0.00    0.0
2014/07/10 01:36:00.000   63.755951152  -68.510493346    89.7575   5  10   2.6483   1.7189   5.1425  -0.9893  -1.3939   2.0249   0.00    0.0
2014/07/10 01:36:30.000   63.755944760  -68.510490116    88.9306   5  10   2.6449   1.7192   5.1303  -0.9875  -1.3843   2.0156   0.00    0.0
2014/07/10 01:37:00.000   63.755953167  -68.510492758    89.8042   5  10   2.6415   1.7194   5.1180  -0.9857  -1.3744   2.0062   0.00    0.0
2014/07/10 01:37:30.000   63.755952264  -68.510491581    89.6599   5  10   2.6382   1.7197   5.1055  -0.9838  -1.3644   1.9969   0.00    0.0
2014/07/10 01:38:00.000   63.755952452  -68.510501128    91.2430   5  10   2.6350   1.7200   5.0929  -0.9819  -1.3542   1.9875   0.00    0.0
2014/07/10 01:38:30.000   63.755948540  -68.510486276    89.6179   5  10   2.6318   1.7204   5.0801  -0.9800  -1.3439   1.9782   0.00    0.0
2014/07/10 01:39:00.000   63.755948992  -68.510489174    89.2780   5  10   2.6287   1.7207   5.0672  -0.9780  -1.3334   1.9688   0.00    0.0
2014/07/10 01:39:30.000   63.755952165  -68.510492758    89.7363   5  10   2.6256   1.7211   5.0543  -0.9760  -1.3227   1.9595   0.00    0.0
2014/07/10 01:40:00.000   63.755948649  -68.510490900    89.3934   5  10   2.6225   1.7215   5.0412  -0.9739  -1.3119   1.9502   0.00    0.0
2014/07/10 01:40:30.000   63.755948034  -68.510497738    89.8785   5   9   2.9033   1.7804   5.7699  -0.6151  -0.6422   2.7038   0.00    0.0
2014/07/10 01:41:00.000   63.755943879  -68.510493039    89.7506   5   9   2.8997   1.7810   5.7598  -0.6119  -0.6171   2.6968   0.00    0.0
2014/07/10 01:41:30.000   63.755949586  -68.510487512    88.4282   5   9   2.8962   1.7816   5.7494  -0.6087  -0.5909   2.6896   0.00    0.0
2014/07/10 01:42:00.000   63.755950270  -68.510487252    88.5074   5   9   2.8927   1.7823   5.7386  -0.6055  -0.5635   2.6823   0.00    0.0
2014/07/10 01:42:30.000   63.755952963  -68.510493024    89.0156   5   9   2.8891   1.7830   5.7275  -0.6022  -0.5347   2.6749   0.00    0.0
2014/07/10 01:43:00.000   63.755945213  -68.510496884    89.0189   5   9   2.8856   1.7837   5.7162  -0.5988  -0.5044   2.6673   0.00    0.0
2014/07/10 01:43:30.000   63.755949190  -68.510497795    89.1086   5   9   2.8821   1.7845   5.7045  -0.5955  -0.4721   2.6596   0.00    0.0
2014/07/10 01:44:00.000   63.755947958  -68.510489592    88.9950   5   9   2.8785   1.7854   5.6926  -0.5921  -0.4375   2.6518   0.00    0.0
2014/07/10 01:44:30.000   63.755945132  -68.510493972    88.9106   5   9   2.8750   1.7863   5.6804  -0.5886  -0.4001   2.6438   0.00    0.0
2014/07/10 01:45:00.000   63.755946925  -68.510494598    88.9539   5   9   2.8715   1.7872   5.6680  -0.5852  -0.3589   2.6357   0.00    0.0
2014/07/10 01:45:30.000   63.755948555  -68.510493716    89.9652   5   9   2.8680   1.7882   5.6553  -0.5817  -0.3125   2.6276   0.00    0.0
2014/07/10 01:46:00.000   63.755942275  -68.510494295    87.9964   5   9   2.8645   1.7892   5.6424  -0.5782  -0.2582   2.6193   0.00    0.0
2014/07/10 01:46:30.000   63.755948105  -68.510497009    89.7641   5   9   2.8610   1.7903   5.6293  -0.5746  -0.1892   2.6109   0.00    0.0
2014/07/10 01:47:00.000   63.755946079  -68.510496301    89.2260   5   9   2.8575   1.7914   5.6159  -0.5711  -0.0715   2.6025   0.00    0.0
2014/07/10 01:47:30.000   63.755943997  -68.510487664    87.7450   5   9   2.8541   1.7925   5.6023  -0.5675   0.1594   2.5940   0.00    0.0
2014/07/10 01:48:00.000   63.755948769  -68.510496252    89.3228   5   9   2.8506   1.7937   5.5886  -0.5639   0.2361   2.5854   0.00    0.0
2014/07/10 01:48:30.000   63.755944795  -68.510491158    88.3973   5   9   2.8472   1.7949   5.5747  -0.5603   0.2930   2.5767   0.00    0.0
2014/07/10 01:49:00.000   63.755929753  -68.510470377    83.6463   5   8   3.4846   2.1086   7.7513  -1.5918  -2.4183   4.1796   0.00    0.0
2014/07/10 01:49:30.000   63.755935463  -68.510476704    83.8163   5   8   3.4798   2.1064   7.7327  -1.5852  -2.4022   4.1690   0.00    0.0
2014/07/10 01:50:00.000   63.755928926  -68.510478027    84.3477   5   8   3.4747   2.1041   7.7129  -1.5784  -2.3855   4.1577   0.00    0.0
2014/07/10 01:50:30.000   63.755930702  -68.510480994    84.8646   5   8   3.4694   2.1018   7.6920  -1.5713  -2.3683   4.1457   0.00    0.0
2014/07/10 01:51:00.000   63.755931602  -68.510476637    84.2404   5   8   3.4639   2.0995   7.6700  -1.5639  -2.3505   4.1331   0.00    0.0
2014/07/10 01:51:30.000   63.755938552  -68.510471826    84.6258   5   8   3.4581   2.0972   7.6470  -1.5562  -2.3322   4.1198   0.00    0.0
2014/07/10 01:52:00.000   63.755935588  -68.510473413    84.6154   5   8   3.4521   2.0948   7.6229  -1.5483  -2.3134   4.1059   0.00    0.0
2014/07/10 01:52:30.000   63.755935013  -68.510472529    84.4868   5   8   3.4459   2.0925   7.5979  -1.5402  -2.2941   4.0914   0.00    0.0
2014/07/10 01:53:00.000   63.755937688  -68.510474609    84.8428   5   8   3.4395   2.0901   7.5719  -1.5319  -2.2743   4.0763   0.00    0.0
2014/07/10 01:53:30.000   63.755935237  -68.510479173    85.2336   5   8   3.4330   2.0878   7.5450  -1.5234  -2.2541   4.0607   0.00    0.0
2014/07/10 01:54:00.000   63.755940361  -68.510478825    86.4329   5   8   3.4262   2.0855   7.5173  -1.5146  -2.2335   4.0445   0.00    0.0
2014/07/10 01:54:30.000   63.755942644  -68.510477175    86.1851   5   8   3.4193   2.0832   7.4887  -1.5057  -2.2124   4.0279   0.00    0.0
2014/07/10 01:55:00.000   63.755943721  -68.510480293    86.2206   5   8   3.4122   2.0809   7.4594  -1.4966  -2.1909   4.0108   0.00    0.0
2014/07/10 01:55:30.000   63.755944128  -68.510480256    86.2215   5   8   3.4050   2.0787   7.4294  -1.4874  -2.1691   3.9932   0.00    0.0
2014/07/10 01:56:00.000   63.755945928  -68.510491849    87.2422   5   8   3.3977   2.0764   7.3987  -1.4780  -2.1469   3.9752   0.00    0.0
2014/07/10 01:56:30.000   63.755949695  -68.510485450    87.8933   5   8   3.3902   2.0742   7.3673  -1.4684  -2.1243   3.9569   0.00    0.0
2014/07/10 01:57:00.000   63.755950782  -68.510485587    88.6775   5   8   3.3826   2.0721   7.3354  -1.4587  -2.1014   3.9381   0.00    0.0
2014/07/10 01:57:30.000   63.755948185  -68.510485393    87.7016   5   8   3.3750   2.0700   7.3029  -1.4489  -2.0781   3.9190   0.00    0.0
2014/07/10 01:58:00.000   63.755943299  -68.510478656    85.7205   5   8   3.3672   2.0679   7.2699  -1.4389  -2.0546   3.8996   0.00    0.0
2014/07/10 01:58:30.000   63.755945232  -68.510479135    85.4147   5   8   3.3594   2.0659   7.2364  -1.4289  -2.0307   3.8799   0.00    0.0
2014/07/10 01:59:00.000   63.755942716  -68.510479431    85.1226   5   8   3.3515   2.0640   7.2025  -1.4187  -2.0066   3.8599   0.00    0.0
2014/07/10 01:59:30.000   63.755944579  -68.510476475    84.8985   5   8   3.3435   2.0621   7.1682  -1.4085  -1.9822   3.8397   0.00    0.0
2014/07/10 02:00:00.000   63.755940622  -68.510479051    85.0617   5   8   3.3870   2.1181   7.4111  -1.2906  -1.6865   3.9709   0.00    0.0
2014/07/10 02:00:30.000   63.755940234  -68.510483565    84.1742   5   8   3.3799   2.1166   7.3798  -1.2782  -1.6555   3.9529   0.00    0.0
2014/07/10 02:01:00.000   63.755938061  -68.510485213    85.7187   5   8   3.3728   2.1152   7.3482  -1.2657  -1.6242   3.9346   0.00    0.0
2014/07/10 02:01:30.000   63.755941633  -68.510484749    86.4652   5   8   3.3656   2.1139   7.3162  -1.2531  -1.5924   3.9161   0.00    0.0
2014/07/10 02:02:00.000   63.755942354  -68.510479507    87.0789   5   8   3.3583   2.1127   7.2837  -1.2404  -1.5601   3.8974   0.00    0.0
2014/07/10 02:02:30.000   63.755939422  -68.510488202    86.7929   5   8   3.3511   2.1116   7.2510  -1.2277  -1.5275   3.8785   0.00    0.0
2014/07/10 02:03:00.000   63.755940068  -68.510488890    87.9038   5   8   3.3438   2.1105   7.2180  -1.2149  -1.4943   3.8593   0.00    0.0
2014/07/10 02:03:30.000   63.755943648  -68.510487313    87.2787   5   8   3.3365   2.1096   7.1847  -1.2021  -1.4608   3.8401   0.00    0.0
2014/07/10 02:04:00.000   63.755946734  -68.510491097    86.8286   5   8   3.3291   2.1087   7.1512  -1.1892  -1.4267   3.8206   0.00    0.0
2014/07/10 02:04:30.000   63.755939828  -68.510491767    86.3860   5   8   3.3218   2.1079   7.1174  -1.1763  -1.3922   3.8010   0.00    0.0
2014/07/10 02:05:00.000   63.755944144  -68.510489628    88.9023   5   8   3.3144   2.1073   7.0835  -1.1633  -1.3571   3.7814   0.00    0.0
2014/07/10 02:05:30.000   63.755945649  -68.510495789    88.2653   5   8   3.3071   2.1067   7.0495  -1.1503  -1.3215   3.7616   0.00    0.0
2014/07/10 02:06:00.000   63.755940556  -68.510487411    86.1949   5   8   3.2998   2.1062   7.0153  -1.1373  -1.2853   3.7417   0.00    0.0
2014/07/10 02:06:30.000   63.755934800  -68.510492440    85.9436   5   8   3.2925   2.1058   6.9811  -1.1243  -1.2485   3.7218   0.00    0.0
2014/07/10 02:07:00.000   63.755934998  -68.510485391    86.2437   5   8   3.2852   2.1055   6.9468  -1.1112  -1.2111   3.7018   0.00    0.0
2014/07/10 02:07:30.000   63.755938213  -68.510477648    86.9336   5   8   3.2780   2.1053   6.9124  -1.0981  -1.1729   3.6817   0.00    0.0
2014/07/10 02:08:00.000   63.755943436  -68.510483924    87.1828   5   7   3.5066   2.1584   7.5286  -0.7585  -1.6565   3.0884   0.00    0.0
2014/07/10 02:08:30.000   63.755940559  -68.510475547    85.8448   5   7   3.5009   2.1565   7.4920  -0.7461  -1.6195   3.0659   0.00    0.0
2014/07/10 02:09:00.000   63.755945146  -68.510475653    86.4353   5   7   3.4952   2.1547   7.4553  -0.7338  -1.5821   3.0434   0.00    0.0
2014/07/10 02:09:30.000   63.755946503  -68.510481724    84.8185   5   7   3.4896   2.1531   7.4186  -0.7215  -1.5442   3.0210   0.00    0.0
2014/07/10 02:10:00.000   63.755945048  -68.510493118    85.5625   5   7   3.4841   2.1515   7.3819  -0.7092  -1.5059   2.9987   0.00    0.0
2014/07/10 02:10:30.000   63.755942307  -68.510495886    86.0724   5   7   3.4786   2.1502   7.3452  -0.6970  -1.4671   2.9764   0.00    0.0
2014/07/10 02:11:00.000   63.755943200  -68.510492655    86.5400   5   7   3.4731   2.1489   7.3084  -0.6847  -1.4278   2.9543   0.00    0.0
2014/07/10 02:11:30.000   63.755940523  -68.510490364    87.6571   5   7   3.4677   2.1478   7.2718  -0.6725  -1.3878   2.9322   0.00    0.0
2014/07/10 02:12:00.000   63.755940325  -68.510493086    87.1432   5   7   3.4624   2.1468   7.2352  -0.6604  -1.3473   2.9103   0.00    0.0
2014/07/10 02:12:30.000   63.755942897  -68.510491184    88.4972   5   7   3.4571   2.1459   7.1987  -0.6483  -1.3061   2.8885   0.00    0.0
2014/07/10 02:13:00.000   63.755942663  -68.510488009    87.4802   5   7   3.4519   2.1452   7.1624  -0.6362  -1.2642   2.8669   0.00    0.0
2014/07/10 02:13:30.000   63.755943132  -68.510496600    86.7049   5   7   3.4467   2.1446   7.1261  -0.6241  -1.2215   2.8454   0.00    0.0
2014/07/10 02:14:00.000   63.755944277  -68.510501327    87.1869   5   7   3.4416   2.1441   7.0900  -0.6121  -1.1779   2.8241   0.00    0.0
2014/07/10 02:14:30.000   63.755944127  -68.510491600    87.1853   5   7   3.4366   2.1437   7.0541  -0.6000  -1.1332   2.8030   0.00    0.0
2014/07/10 02:15:00.000   63.755939321  -68.510489120    86.7376   5   7   3.4316   2.1435   7.0183  -0.5881  -1.0875   2.7820   0.00    0.0
2014/07/10 02:15:30.000   63.755943603  -68.510497442    87.0292   5   7   3.4266   2.1434   6.9828  -0.5761  -1.0404   2.7613   0.00    0.0
2014/07/10 02:16:00.000   63.755940561  -68.510494221    87.4407   5   7   3.4218   2.1434   6.9475  -0.5642  -0.9919   2.7407   0.00    0.0
2014/07/10 02:16:30.000   63.755945757  -68.510494943    87.2318   5   7   3.4170   2.1435   6.9124  -0.5522  -0.9417   2.7204   0.00    0.0
2014/07/10 02:17:00.000   63.755944057  -68.510495793    86.3867   5   7   3.4123   2.1438   6.8775  -0.5403  -0.8895   2.7003   0.00    0.0
2014/07/10 02:17:30.000   63.755944549  -68.510489933    86.7311   5   7   3.4076   2.1442   6.8429  -0.5284  -0.8349   2.6804   0.00    0.0
2014/07/10 02:18:00.000   63.755948843  -68.510493519    87.7342   5   7   3.4030   2.1446   6.8085  -0.5165  -0.7774   2.6607   0.00    0.0
2014/07/10 02:18:30.000   63.755946054  -68.510484103    87.3658   5   7   3.3985   2.1453   6.7745  -0.5046  -0.7163   2.6413   0.00    0.0
2014/07/10 02:19:00.000   63.755950995  -68.510494840    87.5045   5   7   3.3940   2.1460   6.7407  -0.4927  -0.6505   2.6221   0.00    0.0
2014/07/10 02:19:30.000   63.755948060  -68.510496811    87.3924   5   7   3.3896   2.1468   6.7072  -0.4807  -0.5785   2.6031   0.00    0.0
2014/07/10 02:20:00.000   63.755931838  -68.510519319    81.0522   5   6   3.7535   2.7816   9.9617   1.6268   3.5812   4.3210   0.00    0.0
2014/07/10 02:20:30.000   63.755937257  -68.510522695    82.9413   5   6   3.7520   2.7951   9.9499   1.6431   3.6170   4.3173   0.00    0.0
2014/07/10 02:21:00.000   63.755933059  -68.510526680    82.5442   5   6   3.7505   2.8087   9.9375   1.6590   3.6519   4.3133   0.00    0.0
2014/07/10 02:21:30.000   63.755929083  -68.510530120    82.2814   5   6   3.7489   2.8224   9.9244   1.6746   3.6859   4.3091   0.00    0.0
2014/07/10 02:22:00.000   63.755930893  -68.510526565    82.0238   5   6   3.7473   2.8362   9.9106   1.6898   3.7191   4.3048   0.00    0.0
2014/07/10 02:22:30.000   63.755933833  -68.510524359    82.1335   5   6   3.7457   2.8501   9.8961   1.7047   3.7515   4.3001   0.00    0.0
2014/07/10 02:23:00.000   63.755938711  -68.510519298    81.1986   5   6   3.7440   2.8640   9.8810   1.7193   3.7830   4.2953   0.00    0.0
2014/07/10 02:23:30.000   63.755934231  -68.510527685    82.5288   5   6   3.7423   2.8780   9.8653   1.7335   3.8137   4.2903   0.00    0.0
2014/07/10 02:24:00.000   63.755925019  -68.510531831    79.4292   5   6   3.7405   2.8920   9.8489   1.7475   3.8435   4.2850   0.00    0.0
2014/07/10 02:24:30.000   63.755930993  -68.510531279    81.5425   5   6   3.7387   2.9060   9.8319   1.7610   3.8725   4.2795   0.00    0.0
2014/07/10 02:25:00.000   63.755932561  -68.510525870    81.3763   5   6   3.7369   2.9201   9.8142   1.7743   3.9007   4.2738   0.00    0.0
2014/07/10 02:25:30.000   63.755926335  -68.510535749    79.5732   5   6   3.7350   2.9341   9.7959   1.7872   3.9281   4.2679   0.00    0.0
2014/07/10 02:26:00.000   63.755925145  -68.510536549    81.1218   5   6   3.7331   2.9482   9.7770   1.7998   3.9547   4.2617   0.00    0.0
2014/07/10 02:26:30.000   63.755927355  -68.510526574    82.1907   5   6   3.7311   2.9622   9.7574   1.8121   3.9804   4.2554   0.00    0.0
2014/07/10 02:27:00.000   63.755928576  -68.510527378    82.2163   5   6   3.7291   2.9761   9.7373   1.8241   4.0054   4.2488   0.00    0.0
2014/07/10 02:27:30.000   63.755922546  -68.510529918    79.3556   5   6   3.7271   2.9901   9.7166   1.8357   4.0295   4.2419   0.00    0.0
2014/07/10 02:28:00.000   63.755925385  -68.510531878    81.2745   5   6   3.7250   3.0039   9.6952   1.8470   4.0529   4.2349   0.00    0.0
2014/07/10 02:28:30.000   63.755923217  -68.510537033    81.3372   5   6   3.7229   3.0177   9.6733   1.8580   4.0755   4.2276   0.00    0.0
2014/07/10 02:29:00.000   63.755925264  -68.510541233    83.4715   5   6   3.7207   3.0314   9.6508   1.8686   4.0973   4.2201   0.00    0.0
2014/07/10 02:29:30.000   63.755920611  -68.510540788    80.3122   5   6   3.7185   3.0450   9.6277   1.8789   4.1183   4.2124   0.00    0.0
2014/07/10 02:30:00.000   63.755928480  -68.510542142    83.0638   5   6   3.7162   3.0586   9.6040   1.8889   4.1386   4.2045   0.00    0.0
2014/07/10 02:30:30.000   63.755934924  -68.510537489    81.5270   5   6   3.7140   3.0720   9.5798   1.8986   4.1580   4.1963   0.00    0.0
2014/07/10 02:31:00.000   63.755939235  -68.510531570    81.4958   5   6   3.7116   3.0852   9.5550   1.9079   4.1767   4.1879   0.00    0.0
2014/07/10 02:31:30.000   63.755932949  -68.510531749    82.8068   5   6   3.7092   3.0984   9.5297   1.9170   4.1947   4.1793   0.00    0.0
2014/07/10 02:32:00.000   63.755936382  -68.510531706    82.9622   5   6   3.7068   3.1114   9.5039   1.9257   4.2119   4.1704   0.00    0.0
2014/07/10 02:32:30.000   63.755936193  -68.510529454    81.9482   5   6   3.7044   3.1243   9.4775   1.9340   4.2283   4.1614   0.00    0.0
2014/07/10 02:33:00.000   63.755934380  -68.510532480    83.9917   5   6   3.7019   3.1370   9.4506   1.9421   4.2440   4.1521   0.00    0.0
2014/07/10 02:33:30.000   63.755930855  -68.510534420    81.5211   5   6   3.6993   3.1495   9.4232   1.9498   4.2589   4.1426   0.00    0.0
2014/07/10 02:34:00.000   63.755934194  -68.510536650    80.2493   5   6   3.6967   3.1619   9.3953   1.9572   4.2732   4.1328   0.00    0.0
2014/07/10 02:34:30.000   63.755934226  -68.510537681    83.6070   5   6   3.6941   3.1741   9.3669   1.9642   4.2866   4.1229   0.00    0.0
2014/07/10 02:35:00.000   63.755934429  -68.510540413    82.2170   5   6   3.6914   3.1861   9.3380   1.9710   4.2994   4.1127   0.00    0.0
2014/07/10 02:35:30.000   63.755934540  -68.510537128    83.5753   5   6   3.6887   3.1979   9.3087   1.9774   4.3114   4.1023   0.00    0.0
2014/07/10 02:36:00.000   63.755937759  -68.510538195    85.8293   5   6   3.6860   3.2095   9.2789   1.9835   4.3228   4.0917   0.00    0.0
2014/07/10 02:36:30.000   63.755932334  -68.510533739    83.9504   5   6   3.6832   3.2208   9.2487   1.9893   4.3334   4.0809   0.00    0.0
2014/07/10 02:37:00.000   63.755927918  -68.510538148    82.4423   5   6   3.6804   3.2320   9.2180   1.9947   4.3433   4.0699   0.00    0.0
2014/07/10 02:37:30.000   63.755941857  -68.510533846    86.6577   5   6   3.6775   3.2429   9.1869   1.9998   4.3525   4.0587   0.00    0.0
2014/07/10 02:38:00.000   63.755935121  -68.510536101    85.6855   5   6   3.6746   3.2536   9.1555   2.0046   4.3611   4.0472   0.00    0.0
2014/07/10 02:38:30.000   63.755927363  -68.510537290    84.6627   5   6   3.6717   3.2641   9.1236   2.0091   4.3690   4.0356   0.00    0.0
2014/07/10 02:39:00.000   63.755942171  -68.510531215    86.4557   5   6   3.6687   3.2744   9.0913   2.0133   4.3762   4.0238   0.00    0.0
2014/07/10 02:39:30.000   63.755944720  -68.510529969    86.0687   5   6   3.6657   3.2844   9.0587   2.0171   4.3827   4.0117   0.00    0.0
2014/07/10 02:40:00.000   63.755933502  -68.510532470    85.4684   5   6   3.6627   3.2941   9.0256   2.0206   4.3886   3.9995   0.00    0.0
2014/07/10 02:40:30.000   63.755932867  -68.510536964    84.8507   5   6   3.6596   3.3036   8.9923   2.0238   4.3938   3.9871   0.00    0.0
2014/07/10 02:41:00.000   63.755941081  -68.510527241    86.8068   5   6   3.6565   3.3128   8.9586   2.0267   4.3984   3.9744   0.00    0.0
2014/07/10 02:41:30.000   63.755930714  -68.510533728    86.0975   5   6   3.6534   3.3218   8.9246   2.0293   4.4023   3.9616   0.00    0.0
2014/07/10 02:42:00.000   63.755945945  -68.510519261    89.8638   5   6   3.6503   3.3305   8.8903   2.0315   4.4057   3.9487   0.00    0.0
2014/07/10 02:42:30.000   63.755925364  -68.510534274    85.9624   5   6   3.6472   3.3390   8.8557   2.0335   4.4084   3.9355   0.00    0.0
2014/07/10 02:43:00.000   63.755932101  -68.510532801    84.4533   5   6   3.6440   3.3472   8.8209   2.0351   4.4105   3.9222   0.00    0.0
2014/07/10 02:43:30.000   63.755935279  -68.510530770    86.9395   5   6   3.6408   3.3551   8.7857   2.0364   4.4120   3.9087   0.00    0.0
2014/07/10 02:44:00.000   63.755934713  -68.510525983    86.5786   5   6   3.6376   3.3627   8.7503   2.0374   4.4129   3.8950   0.00    0.0
2014/07/10 02:44:30.000   63.755936641  -68.510526160    86.3956   5   6   3.6343   3.3701   8.7147   2.0381   4.4133   3.8812   0.00    0.0
2014/07/10 02:45:00.000   63.755935291  -68.510525408    86.3307   5   6   3.6310   3.3772   8.6789   2.0385   4.4130   3.8672   0.00    0.0
2014/07/10 02:45:30.000   63.755934556  -68.510530303    84.9107   5   6   3.6278   3.3840   8.6429   2.0386   4.4123   3.8531   0.00    0.0
2014/07/10 02:46:00.000   63.755928766  -68.510537140    84.9549   5   6   3.6245   3.3905   8.6067   2.0384   4.4109   3.8389   0.00    0.0
2014/07/10 02:46:30.000   63.755937700  -68.510531131    84.7079   5   6   3.6211   3.3968   8.5703   2.0379   4.4091   3.8245   0.00    0.0
