% program   : RTKPOST ver.demo5 b34b
% inp file  : D:\My Documents\Spoljar\Privat\Boston 2022\iqal2390.14o
% inp file  : D:\My Documents\Spoljar\Privat\Boston 2022\brdc2390.14n
% obs start : 2014/08/27 00:00:00.0 GPST (week1807 259200.0s)
% obs end   : 2014/08/27 00:51:30.0 GPST (week1807 262290.0s)
% pos mode  : Single
% elev mask : 15.0 deg
% ionos opt : Broadcast
% tropo opt : Saastamoinen
% ephemeris : Broadcast
% navi sys  : GPS
%
% (lat/lon/height=WGS84/ellipsoidal,Q=1:fix,2:float,3:sbas,4:dgps,5:single,6:ppp,ns=# of satellites)
%  GPST                  latitude(deg) longitude(deg)  height(m)   Q  ns   sdn(m)   sde(m)   sdu(m)  sdne(m)  sdeu(m)  sdun(m) age(s)  ratio
2014/08/27 00:00:00.000   63.755964624  -68.510460002    95.8868   5   8   2.5939   2.6086   6.2822   0.8628   2.6257   2.6270   0.00    0.0
2014/08/27 00:00:30.000   63.755968382  -68.510468362    95.5623   5   8   2.5887   2.6066   6.2962   0.8564   2.6225   2.6263   0.00    0.0
2014/08/27 00:01:00.000   63.755968845  -68.510470650    95.4856   5   8   2.5836   2.6046   6.3102   0.8500   2.6192   2.6256   0.00    0.0
2014/08/27 00:01:30.000   63.755972120  -68.510452809    97.1155   5   8   2.5785   2.6026   6.3240   0.8436   2.6158   2.6250   0.00    0.0
2014/08/27 00:02:00.000   63.755970350  -68.510460942    96.4210   5   8   2.5735   2.6006   6.3377   0.8372   2.6122   2.6244   0.00    0.0
2014/08/27 00:02:30.000   63.755970050  -68.510458255    96.1321   5   8   2.5686   2.5986   6.3513   0.8308   2.6085   2.6238   0.00    0.0
2014/08/27 00:03:00.000   63.755968678  -68.510457216    95.8530   5   8   2.5638   2.5965   6.3647   0.8243   2.6046   2.6233   0.00    0.0
2014/08/27 00:03:30.000   63.755969511  -68.510453067    96.1956   5   8   2.5590   2.5945   6.3780   0.8179   2.6006   2.6227   0.00    0.0
2014/08/27 00:04:00.000   63.755970527  -68.510465892    94.5222   5   8   2.5543   2.5924   6.3910   0.8114   2.5964   2.6222   0.00    0.0
2014/08/27 00:04:30.000   63.755966000  -68.510452639    95.5899   5   8   2.5496   2.5903   6.4039   0.8048   2.5920   2.6217   0.00    0.0
2014/08/27 00:05:00.000   63.755972342  -68.510463497    94.9758   5   8   2.5450   2.5882   6.4166   0.7983   2.5875   2.6212   0.00    0.0
2014/08/27 00:05:30.000   63.755970726  -68.510452021    96.3114   5   8   2.5405   2.5861   6.4291   0.7917   2.5828   2.6207   0.00    0.0
2014/08/27 00:06:00.000   63.755967410  -68.510455656    95.9124   5   8   2.5361   2.5839   6.4414   0.7850   2.5779   2.6202   0.00    0.0
2014/08/27 00:06:30.000   63.755969270  -68.510457101    95.7971   5   8   2.5317   2.5818   6.4534   0.7784   2.5728   2.6196   0.00    0.0
2014/08/27 00:07:00.000   63.755967393  -68.510461613    95.2079   5   8   2.5274   2.5796   6.4652   0.7716   2.5675   2.6191   0.00    0.0
2014/08/27 00:07:30.000   63.755965015  -68.510454697    96.2914   5   8   2.5231   2.5774   6.4767   0.7649   2.5621   2.6185   0.00    0.0
2014/08/27 00:08:00.000   63.755967601  -68.510460079    96.6558   5   9   2.5187   1.9729   5.6881   0.7268   1.1705   2.6012   0.00    0.0
2014/08/27 00:08:30.000   63.755965106  -68.510456765    96.0255   5   9   2.5146   1.9716   5.7079   0.7253   1.1697   2.6036   0.00    0.0
2014/08/27 00:09:00.000   63.755969181  -68.510452871    96.6383   5   9   2.5106   1.9704   5.7276   0.7238   1.1691   2.6059   0.00    0.0
2014/08/27 00:09:30.000   63.755967066  -68.510453511    96.1423   5   9   2.5065   1.9693   5.7473   0.7223   1.1686   2.6082   0.00    0.0
2014/08/27 00:10:00.000   63.755966790  -68.510456961    96.5146   5   9   2.5026   1.9681   5.7669   0.7209   1.1682   2.6105   0.00    0.0
2014/08/27 00:10:30.000   63.755967428  -68.510467769    94.4928   5   9   2.4987   1.9671   5.7863   0.7195   1.1679   2.6127   0.00    0.0
2014/08/27 00:11:00.000   63.755965269  -68.510457055    95.3423   5   9   2.4948   1.9660   5.8057   0.7181   1.1677   2.6148   0.00    0.0
2014/08/27 00:11:30.000   63.755965923  -68.510448379    97.0040   5   9   2.4909   1.9650   5.8249   0.7168   1.1676   2.6169   0.00    0.0
2014/08/27 00:12:00.000   63.755964917  -68.510456341    96.4738   5   9   2.4871   1.9640   5.8440   0.7155   1.1677   2.6189   0.00    0.0
2014/08/27 00:12:30.000   63.755964772  -68.510458498    95.9711   5  10   2.4545   1.8681   5.5363   0.8589   1.5898   2.4780   0.00    0.0
2014/08/27 00:13:00.000   63.755961106  -68.510461810    95.3079   5  10   2.4515   1.8665   5.5580   0.8564   1.5901   2.4824   0.00    0.0
2014/08/27 00:13:30.000   63.755964367  -68.510456480    96.1272   5  10   2.4486   1.8650   5.5796   0.8539   1.5904   2.4868   0.00    0.0
2014/08/27 00:14:00.000   63.755966388  -68.510459137    95.4507   5  10   2.4457   1.8635   5.6010   0.8513   1.5907   2.4911   0.00    0.0
2014/08/27 00:14:30.000   63.755962251  -68.510462148    95.0461   5  10   2.4428   1.8620   5.6224   0.8488   1.5910   2.4953   0.00    0.0
2014/08/27 00:15:00.000   63.755964285  -68.510453195    96.0946   5  10   2.4399   1.8605   5.6436   0.8462   1.5912   2.4995   0.00    0.0
2014/08/27 00:15:30.000   63.755964920  -68.510461731    95.5019   5  10   2.4371   1.8591   5.6647   0.8436   1.5914   2.5035   0.00    0.0
2014/08/27 00:16:00.000   63.755957901  -68.510454288    95.4489   5  10   2.4343   1.8577   5.6856   0.8409   1.5915   2.5075   0.00    0.0
2014/08/27 00:16:30.000   63.755958410  -68.510462527    94.9675   5  10   2.4315   1.8563   5.7064   0.8383   1.5916   2.5114   0.00    0.0
2014/08/27 00:17:00.000   63.755962012  -68.510447220    94.9345   5  10   2.4288   1.8549   5.7269   0.8356   1.5916   2.5151   0.00    0.0
2014/08/27 00:17:30.000   63.755965878  -68.510458829    95.9615   5  10   2.4260   1.8536   5.7472   0.8328   1.5915   2.5187   0.00    0.0
2014/08/27 00:18:00.000   63.755960589  -68.510454022    95.3734   5  10   2.4233   1.8523   5.7673   0.8301   1.5914   2.5222   0.00    0.0
2014/08/27 00:18:30.000   63.755962286  -68.510458241    95.3920   5  10   2.4206   1.8510   5.7872   0.8273   1.5912   2.5256   0.00    0.0
2014/08/27 00:19:00.000   63.755959014  -68.510456537    95.4086   5  10   2.4179   1.8498   5.8068   0.8244   1.5909   2.5288   0.00    0.0
2014/08/27 00:19:30.000   63.755962670  -68.510455689    96.1628   5  10   2.4152   1.8486   5.8260   0.8216   1.5906   2.5319   0.00    0.0
2014/08/27 00:20:00.000   63.755963420  -68.510467252    95.2086   5  10   2.4125   1.8474   5.8450   0.8186   1.5901   2.5348   0.00    0.0
2014/08/27 00:20:30.000   63.755962019  -68.510456662    96.9782   5  10   2.4098   1.8462   5.8637   0.8157   1.5896   2.5375   0.00    0.0
2014/08/27 00:21:00.000   63.755961388  -68.510458610    96.1174   5  10   2.4072   1.8450   5.8820   0.8127   1.5890   2.5401   0.00    0.0
2014/08/27 00:21:30.000   63.755962719  -68.510453750    96.6018   5  10   2.4045   1.8439   5.8999   0.8096   1.5882   2.5425   0.00    0.0
2014/08/27 00:22:00.000   63.755960790  -68.510463230    95.7937   5  10   2.4018   1.8428   5.9174   0.8065   1.5874   2.5447   0.00    0.0
2014/08/27 00:22:30.000   63.755958833  -68.510461944    95.5058   5  10   2.3992   1.8417   5.9346   0.8034   1.5864   2.5467   0.00    0.0
2014/08/27 00:23:00.000   63.755960406  -68.510462392    96.0674   5  10   2.3965   1.8407   5.9513   0.8002   1.5853   2.5485   0.00    0.0
2014/08/27 00:23:30.000   63.755961697  -68.510455493    95.8695   5  10   2.3938   1.8396   5.9676   0.7969   1.5841   2.5501   0.00    0.0
2014/08/27 00:24:00.000   63.755961933  -68.510455890    96.2803   5  10   2.3912   1.8386   5.9835   0.7936   1.5828   2.5514   0.00    0.0
2014/08/27 00:24:30.000   63.755964616  -68.510465919    96.1098   5  10   2.3885   1.8376   5.9988   0.7902   1.5814   2.5526   0.00    0.0
2014/08/27 00:25:00.000   63.755962411  -68.510460846    96.3542   5  10   2.3858   1.8366   6.0137   0.7868   1.5798   2.5535   0.00    0.0
2014/08/27 00:25:30.000   63.755956358  -68.510459478    96.1391   5  10   2.3831   1.8356   6.0281   0.7833   1.5781   2.5542   0.00    0.0
2014/08/27 00:26:00.000   63.755962296  -68.510466691    96.0553   5  10   2.3804   1.8347   6.0419   0.7798   1.5762   2.5546   0.00    0.0
2014/08/27 00:26:30.000   63.755960229  -68.510465582    95.2708   5  10   2.3777   1.8338   6.0552   0.7762   1.5742   2.5547   0.00    0.0
2014/08/27 00:27:00.000   63.755959240  -68.510469858    95.8788   5  10   2.3750   1.8329   6.0679   0.7725   1.5720   2.5547   0.00    0.0
2014/08/27 00:27:30.000   63.755961077  -68.510459047    96.2758   5  10   2.3723   1.8320   6.0801   0.7688   1.5697   2.5543   0.00    0.0
2014/08/27 00:28:00.000   63.755963461  -68.510459240    95.5899   5  10   2.3695   1.8311   6.0917   0.7649   1.5673   2.5537   0.00    0.0
2014/08/27 00:28:30.000   63.755963065  -68.510460187    95.8094   5  10   2.3668   1.8303   6.1027   0.7611   1.5646   2.5528   0.00    0.0
2014/08/27 00:29:00.000   63.755964002  -68.510471237    95.8466   5  10   2.3640   1.8294   6.1131   0.7571   1.5618   2.5517   0.00    0.0
2014/08/27 00:29:30.000   63.755963119  -68.510472715    95.3240   5  10   2.3612   1.8286   6.1228   0.7531   1.5589   2.5502   0.00    0.0
2014/08/27 00:30:00.000   63.755963176  -68.510466857    95.2377   5  10   2.3584   1.8278   6.1319   0.7490   1.5558   2.5485   0.00    0.0
2014/08/27 00:30:30.000   63.755963533  -68.510466978    96.5127   5  10   2.3556   1.8270   6.1404   0.7449   1.5525   2.5465   0.00    0.0
2014/08/27 00:31:00.000   63.755967456  -68.510465289    96.4981   5  10   2.3528   1.8263   6.1482   0.7406   1.5490   2.5442   0.00    0.0
2014/08/27 00:31:30.000   63.755961054  -68.510469421    96.0517   5  10   2.3500   1.8256   6.1553   0.7363   1.5454   2.5416   0.00    0.0
2014/08/27 00:32:00.000   63.755963293  -68.510467817    96.3212   5  10   2.3472   1.8248   6.1618   0.7319   1.5416   2.5388   0.00    0.0
2014/08/27 00:32:30.000   63.755964640  -68.510466509    95.8489   5  10   2.3443   1.8241   6.1676   0.7275   1.5376   2.5356   0.00    0.0
2014/08/27 00:33:00.000   63.755967071  -68.510462182    97.5751   5  10   2.3414   1.8234   6.1727   0.7229   1.5335   2.5321   0.00    0.0
2014/08/27 00:33:30.000   63.755967825  -68.510463931    97.1734   5  10   2.3386   1.8228   6.1771   0.7183   1.5291   2.5284   0.00    0.0
2014/08/27 00:34:00.000   63.755964841  -68.510469564    96.4541   5  10   2.3357   1.8221   6.1808   0.7136   1.5246   2.5243   0.00    0.0
2014/08/27 00:34:30.000   63.755964465  -68.510469804    96.3056   5  10   2.3328   1.8215   6.1838   0.7088   1.5199   2.5200   0.00    0.0
2014/08/27 00:35:00.000   63.755963127  -68.510470262    96.3682   5  11   1.9698   1.7597   5.4004  -0.2946   0.9397   1.6040   0.00    0.0
2014/08/27 00:35:30.000   63.755961828  -68.510465186    96.1484   5  11   1.9674   1.7595   5.4097  -0.3022   0.9370   1.6029   0.00    0.0
2014/08/27 00:36:00.000   63.755966261  -68.510477282    96.9083   5  11   1.9650   1.7593   5.4186  -0.3096   0.9344   1.6018   0.00    0.0
2014/08/27 00:36:30.000   63.755964771  -68.510467126    96.5779   5  11   1.9626   1.7591   5.4272  -0.3167   0.9317   1.6008   0.00    0.0
2014/08/27 00:37:00.000   63.755960823  -68.510468879    95.5247   5  11   1.9603   1.7589   5.4355  -0.3237   0.9290   1.5998   0.00    0.0
2014/08/27 00:37:30.000   63.755961892  -68.510470715    96.2029   5  11   1.9581   1.7588   5.4434  -0.3304   0.9264   1.5987   0.00    0.0
2014/08/27 00:38:00.000   63.755963690  -68.510468333    96.4767   5  11   1.9559   1.7587   5.4510  -0.3370   0.9238   1.5977   0.00    0.0
2014/08/27 00:38:30.000   63.755965794  -68.510466039    96.1979   5  11   1.9538   1.7586   5.4582  -0.3434   0.9211   1.5967   0.00    0.0
2014/08/27 00:39:00.000   63.755964805  -68.510476171    96.6546   5  11   1.9518   1.7586   5.4651  -0.3497   0.9185   1.5958   0.00    0.0
2014/08/27 00:39:30.000   63.755961992  -68.510478014    96.1127   5  10   1.9501   1.8443   5.7119  -0.3833  -0.2692   1.6135   0.00    0.0
2014/08/27 00:40:00.000   63.755965855  -68.510475878    96.6819   5  10   1.9482   1.8444   5.7269  -0.3919  -0.3089   1.6151   0.00    0.0
2014/08/27 00:40:30.000   63.755966031  -68.510472962    96.9186   5  10   1.9464   1.8445   5.7416  -0.4003  -0.3439   1.6168   0.00    0.0
2014/08/27 00:41:00.000   63.755969237  -68.510464309    97.2764   5  10   1.9447   1.8447   5.7560  -0.4084  -0.3756   1.6185   0.00    0.0
2014/08/27 00:41:30.000   63.755964998  -68.510474200    97.2400   5  10   1.9430   1.8449   5.7701  -0.4164  -0.4047   1.6204   0.00    0.0
2014/08/27 00:42:00.000   63.755967091  -68.510474148    97.1577   5  10   1.9414   1.8452   5.7839  -0.4242  -0.4318   1.6223   0.00    0.0
2014/08/27 00:42:30.000   63.755965669  -68.510475950    97.1118   5  10   1.9399   1.8454   5.7973  -0.4318  -0.4572   1.6243   0.00    0.0
2014/08/27 00:43:00.000   63.755964714  -68.510476229    96.5421   5  10   1.9384   1.8457   5.8104  -0.4393  -0.4812   1.6264   0.00    0.0
2014/08/27 00:43:30.000   63.755961710  -68.510472755    96.0613   5  10   1.9370   1.8461   5.8231  -0.4467  -0.5040   1.6285   0.00    0.0
2014/08/27 00:44:00.000   63.755965366  -68.510471449    96.9100   5  10   1.9356   1.8464   5.8355  -0.4539  -0.5256   1.6308   0.00    0.0
2014/08/27 00:44:30.000   63.755965857  -68.510472794    96.7409   5  10   1.9343   1.8468   5.8474  -0.4610  -0.5464   1.6331   0.00    0.0
2014/08/27 00:45:00.000   63.755965400  -68.510468563    95.7180   5  10   1.9331   1.8473   5.8590  -0.4679  -0.5662   1.6354   0.00    0.0
2014/08/27 00:45:30.000   63.755961297  -68.510472779    96.2748   5  10   1.9319   1.8477   5.8702  -0.4748  -0.5853   1.6379   0.00    0.0
2014/08/27 00:46:00.000   63.755964261  -68.510476868    96.5649   5  10   1.9308   1.8482   5.8809  -0.4815  -0.6037   1.6404   0.00    0.0
2014/08/27 00:46:30.000   63.755964087  -68.510477069    95.1023   5  10   1.9298   1.8488   5.8913  -0.4882  -0.6215   1.6429   0.00    0.0
2014/08/27 00:47:00.000   63.755961682  -68.510479924    95.8235   5  10   1.9288   1.8493   5.9012  -0.4948  -0.6387   1.6456   0.00    0.0
2014/08/27 00:47:30.000   63.755956752  -68.510467491    93.4257   5   9   2.2717   1.9845   7.1655  -1.0556  -1.8274   2.7539   0.00    0.0
2014/08/27 00:48:00.000   63.755954880  -68.510470982    93.5904   5   9   2.2757   1.9874   7.2143  -1.0654  -1.8547   2.7781   0.00    0.0
2014/08/27 00:48:30.000   63.755955267  -68.510469927    94.2313   5   9   2.2799   1.9904   7.2631  -1.0753  -1.8819   2.8024   0.00    0.0
2014/08/27 00:49:00.000   63.755957398  -68.510470783    94.4600   5   9   2.2843   1.9935   7.3120  -1.0852  -1.9090   2.8268   0.00    0.0
2014/08/27 00:49:30.000   63.755952986  -68.510469679    94.1858   5   9   2.2887   1.9967   7.3607  -1.0951  -1.9360   2.8514   0.00    0.0
2014/08/27 00:50:00.000   63.755956941  -68.510464713    94.2093   5   9   2.2933   1.9999   7.4094  -1.1050  -1.9628   2.8760   0.00    0.0
2014/08/27 00:50:30.000   63.755951201  -68.510473355    93.7958   5   9   2.2981   2.0032   7.4579  -1.1150  -1.9895   2.9008   0.00    0.0
2014/08/27 00:51:00.000   63.755956826  -68.510463651    93.2965   5   9   2.3029   2.0065   7.5062  -1.1250  -2.0160   2.9255   0.00    0.0
2014/08/27 00:51:30.000   63.755950548  -68.510461458    93.1536   5   9   2.3079   2.0099   7.5542  -1.1350  -2.0423   2.9503   0.00    0.0
