% program   : RTKPOST ver.demo5 b34b
% inp file  : D:\My Documents\Spoljar\Privat\Boston 2022\iqal200.14o
% inp file  : D:\My Documents\Spoljar\Privat\Boston 2022\brdc210.14n
% obs start : 2014/01/20 00:00:00.0 GPST (week1776  86400.0s)
% obs end   : 2014/01/20 23:59:30.0 GPST (week1776 172770.0s)
% pos mode  : Single
% elev mask : 15.0 deg
% ionos opt : Broadcast
% tropo opt : Saastamoinen
% ephemeris : Broadcast
% navi sys  : GPS
%
% (lat/lon/height=WGS84/ellipsoidal,Q=1:fix,2:float,3:sbas,4:dgps,5:single,6:ppp,ns=# of satellites)
%  GPST                  latitude(deg) longitude(deg)  height(m)   Q  ns   sdn(m)   sde(m)   sdu(m)  sdne(m)  sdeu(m)  sdun(m) age(s)  ratio
2014/01/20 22:00:00.000   63.755980446  -68.510506957    91.8808   5   8   3.0143   2.1879   6.1629   0.4255   0.3243   1.6153   0.00    0.0
2014/01/20 22:00:30.000   63.755983416  -68.510507581    91.8463   5   8   3.0185   2.1846   6.1442   0.4037   0.3540   1.6265   0.00    0.0
2014/01/20 22:01:00.000   63.755981992  -68.510513731    92.3464   5   8   3.0229   2.1814   6.1255   0.3808   0.3812   1.6374   0.00    0.0
2014/01/20 22:01:30.000   63.755981820  -68.510506996    92.0582   5   8   3.0274   2.1783   6.1066   0.3565   0.4065   1.6482   0.00    0.0
2014/01/20 22:02:00.000   63.755984774  -68.510507880    92.2382   5   8   3.0319   2.1752   6.0876   0.3304   0.4301   1.6588   0.00    0.0
2014/01/20 22:02:30.000   63.755984105  -68.510502366    91.7707   5   8   3.0366   2.1722   6.0685   0.3022   0.4524   1.6693   0.00    0.0
2014/01/20 22:03:00.000   63.755983401  -68.510508321    91.7273   5   7   3.6023   2.8884   8.4424   1.9378  -3.3177  -2.9236   0.00    0.0
2014/01/20 22:03:30.000   63.755983288  -68.510502673    92.2328   5   7   3.6018   2.8803   8.4414   1.9245  -3.3121  -2.9151   0.00    0.0
2014/01/20 22:04:00.000   63.755983721  -68.510501430    91.7848   5   7   3.6012   2.8722   8.4396   1.9109  -3.3059  -2.9060   0.00    0.0
2014/01/20 22:04:30.000   63.755983986  -68.510503861    91.4081   5   7   3.6007   2.8640   8.4367   1.8971  -3.2992  -2.8962   0.00    0.0
2014/01/20 22:05:00.000   63.755983731  -68.510505100    91.8800   5   7   3.6002   2.8557   8.4330   1.8830  -3.2919  -2.8857   0.00    0.0
2014/01/20 22:05:30.000   63.755984274  -68.510499102    91.6402   5   7   3.5997   2.8475   8.4284   1.8687  -3.2840  -2.8745   0.00    0.0
2014/01/20 22:06:00.000   63.755983601  -68.510501670    92.4983   5   7   3.5992   2.8391   8.4228   1.8542  -3.2756  -2.8628   0.00    0.0
2014/01/20 22:06:30.000   63.755980653  -68.510501380    91.7403   5   7   3.5987   2.8308   8.4163   1.8395  -3.2666  -2.8503   0.00    0.0
2014/01/20 22:07:00.000   63.755981518  -68.510506241    92.7025   5   7   3.5982   2.8224   8.4089   1.8245  -3.2571  -2.8373   0.00    0.0
2014/01/20 22:07:30.000   63.755982220  -68.510505491    92.5276   5   7   3.5978   2.8140   8.4007   1.8093  -3.2471  -2.8236   0.00    0.0
2014/01/20 22:08:00.000   63.755985288  -68.510507251    91.9381   5   7   3.5973   2.8055   8.3915   1.7938  -3.2366  -2.8092   0.00    0.0
2014/01/20 22:08:30.000   63.755982199  -68.510510170    92.8280   5   7   3.5969   2.7970   8.3815   1.7781  -3.2256  -2.7943   0.00    0.0
2014/01/20 22:09:00.000   63.755982058  -68.510505144    92.2651   5   7   3.5965   2.7885   8.3706   1.7622  -3.2141  -2.7788   0.00    0.0
2014/01/20 22:09:30.000   63.755980649  -68.510506091    92.5855   5   7   3.5962   2.7800   8.3589   1.7461  -3.2021  -2.7626   0.00    0.0
2014/01/20 22:10:00.000   63.755982921  -68.510508783    92.7829   5   7   3.5958   2.7715   8.3464   1.7297  -3.1896  -2.7458   0.00    0.0
2014/01/20 22:10:30.000   63.755982179  -68.510505073    90.4597   5   8   3.0991   2.7459   7.3053   1.5408  -2.9765  -0.3697   0.00    0.0
2014/01/20 22:11:00.000   63.755984777  -68.510503430    92.4129   5   8   3.0975   2.7386   7.3031   1.5290  -2.9715  -0.2778   0.00    0.0
2014/01/20 22:11:30.000   63.755985445  -68.510507081    92.4148   5   8   3.0961   2.7313   7.3005   1.5171  -2.9663  -0.1319   0.00    0.0
2014/01/20 22:12:00.000   63.755983594  -68.510505644    91.4975   5   8   3.0947   2.7240   7.2974   1.5053  -2.9607   0.2065   0.00    0.0
2014/01/20 22:12:30.000   63.755987412  -68.510506252    92.8593   5   8   3.0934   2.7167   7.2940   1.4934  -2.9549   0.3207   0.00    0.0
2014/01/20 22:13:00.000   63.755987098  -68.510504392    92.0498   5   8   3.0921   2.7094   7.2901   1.4815  -2.9487   0.4041   0.00    0.0
2014/01/20 22:13:30.000   63.755984464  -68.510508698    92.4419   5   8   3.0910   2.7020   7.2858   1.4697  -2.9422   0.4731   0.00    0.0
2014/01/20 22:14:00.000   63.755982744  -68.510506736    92.5751   5   8   3.0899   2.6947   7.2810   1.4578  -2.9354   0.5333   0.00    0.0
2014/01/20 22:14:30.000   63.755980862  -68.510503769    91.7968   5   8   3.0889   2.6873   7.2759   1.4459  -2.9284   0.5874   0.00    0.0
2014/01/20 22:15:00.000   63.755982952  -68.510506351    92.4171   5   8   3.0879   2.6800   7.2704   1.4340  -2.9210   0.6370   0.00    0.0
2014/01/20 22:15:30.000   63.755987065  -68.510505466    92.5920   5   8   3.0871   2.6726   7.2645   1.4221  -2.9133   0.6830   0.00    0.0
2014/01/20 22:16:00.000   63.755985451  -68.510509797    93.1933   5   8   3.0863   2.6652   7.2581   1.4103  -2.9054   0.7260   0.00    0.0
2014/01/20 22:16:30.000   63.755983807  -68.510507703    92.6671   5   8   3.0856   2.6578   7.2514   1.3984  -2.8972   0.7666   0.00    0.0
2014/01/20 22:17:00.000   63.755984531  -68.510513001    92.4373   5   8   3.0850   2.6504   7.2443   1.3865  -2.8887   0.8050   0.00    0.0
2014/01/20 22:17:30.000   63.755984478  -68.510507664    92.0282   5   8   3.0845   2.6430   7.2369   1.3747  -2.8799   0.8417   0.00    0.0
2014/01/20 22:18:00.000   63.755983330  -68.510509065    92.6699   5   8   3.0840   2.6356   7.2290   1.3628  -2.8708   0.8767   0.00    0.0
2014/01/20 22:18:30.000   63.755982014  -68.510510084    92.2601   5   8   3.0836   2.6282   7.2208   1.3510  -2.8615   0.9103   0.00    0.0
2014/01/20 22:19:00.000   63.755981894  -68.510509454    92.0716   5   8   3.0833   2.6208   7.2122   1.3392  -2.8520   0.9425   0.00    0.0
2014/01/20 22:19:30.000   63.755966487  -68.510502805    87.7862   5   7   4.2324   2.7336  10.5853  -0.7504  -3.7811   4.8414   0.00    0.0
2014/01/20 22:20:00.000   63.755968175  -68.510502616    88.5898   5   7   4.2586   2.7318  10.6772  -0.8226  -3.8060   4.9181   0.00    0.0
2014/01/20 22:20:30.000   63.755962227  -68.510500625    88.0128   5   7   4.2856   2.7300  10.7705  -0.8897  -3.8311   4.9955   0.00    0.0
2014/01/20 22:21:00.000   63.755967561  -68.510502419    88.6184   5   7   4.3135   2.7284  10.8650  -0.9527  -3.8564   5.0737   0.00    0.0
2014/01/20 22:21:30.000   63.755965791  -68.510503855    89.1655   5   7   4.3421   2.7268  10.9608  -1.0125  -3.8820   5.1526   0.00    0.0
2014/01/20 22:22:00.000   63.755964279  -68.510500275    88.0257   5   7   4.3715   2.7253  11.0578  -1.0695  -3.9078   5.2322   0.00    0.0
2014/01/20 22:22:30.000   63.755966002  -68.510501171    88.2143   5   7   4.4017   2.7239  11.1561  -1.1242  -3.9337   5.3124   0.00    0.0
2014/01/20 22:23:00.000   63.755965296  -68.510501539    88.4335   5   7   4.4327   2.7226  11.2554  -1.1768  -3.9598   5.3933   0.00    0.0
2014/01/20 22:23:30.000   63.755965626  -68.510498585    88.4978   5   7   4.4644   2.7213  11.3557  -1.2277  -3.9861   5.4747   0.00    0.0
2014/01/20 22:24:00.000   63.755963353  -68.510503067    88.3256   5   7   4.4969   2.7201  11.4571  -1.2770  -4.0124   5.5568   0.00    0.0
2014/01/20 22:24:30.000   63.755961583  -68.510502092    88.1854   5   7   4.5302   2.7189  11.5593  -1.3248  -4.0388   5.6393   0.00    0.0
2014/01/20 22:25:00.000   63.755962513  -68.510500124    88.4285   5   7   4.5642   2.7178  11.6624  -1.3713  -4.0652   5.7223   0.00    0.0
2014/01/20 22:25:30.000   63.755962369  -68.510497914    88.4660   5   7   4.5988   2.7168  11.7662  -1.4165  -4.0917   5.8057   0.00    0.0
2014/01/20 22:26:00.000   63.755963775  -68.510502774    88.3882   5   7   4.6341   2.7157  11.8705  -1.4606  -4.1180   5.8894   0.00    0.0
2014/01/20 22:26:30.000   63.755961176  -68.510500166    87.7594   5   7   4.6701   2.7147  11.9754  -1.5037  -4.1443   5.9734   0.00    0.0
2014/01/20 22:27:00.000   63.755964886  -68.510497285    88.6350   5   7   4.7067   2.7136  12.0805  -1.5456  -4.1704   6.0575   0.00    0.0
2014/01/20 22:27:30.000   63.755960283  -68.510497978    87.9114   5   7   4.7438   2.7126  12.1859  -1.5866  -4.1963   6.1418   0.00    0.0
2014/01/20 22:28:00.000   63.755958382  -68.510498506    88.3820   5   7   4.7814   2.7116  12.2913  -1.6266  -4.2220   6.2260   0.00    0.0
2014/01/20 22:28:30.000   63.755957970  -68.510501425    87.3948   5   7   4.8194   2.7105  12.3966  -1.6656  -4.2473   6.3102   0.00    0.0
2014/01/20 22:29:00.000   63.755959360  -68.510497684    88.0249   5   7   4.8579   2.7094  12.5016  -1.7037  -4.2723   6.3941   0.00    0.0
2014/01/20 22:29:30.000   63.755956817  -68.510498615    87.7507   5   7   4.8967   2.7082  12.6061  -1.7408  -4.2968   6.4777   0.00    0.0
2014/01/20 22:30:00.000   63.755957956  -68.510498636    88.2104   5   7   4.9357   2.7069  12.7099  -1.7769  -4.3208   6.5608   0.00    0.0
2014/01/20 22:30:30.000   63.755957654  -68.510499694    87.8901   5   7   4.9749   2.7056  12.8127  -1.8120  -4.3442   6.6433   0.00    0.0
2014/01/20 22:31:00.000   63.755954877  -68.510497525    87.4811   5   7   5.0143   2.7041  12.9144  -1.8462  -4.3668   6.7250   0.00    0.0
2014/01/20 22:31:30.000   63.755953497  -68.510495994    85.5325   5   7   5.0537   2.7025  13.0147  -1.8793  -4.3888   6.8059   0.00    0.0
2014/01/20 22:32:00.000   63.755955647  -68.510496221    87.2471   5   7   5.0930   2.7008  13.1133  -1.9113  -4.4099   6.8857   0.00    0.0
2014/01/20 22:32:30.000   63.755952246  -68.510496520    86.9315   5   7   5.1322   2.6989  13.2100  -1.9423  -4.4300   6.9642   0.00    0.0
2014/01/20 22:33:00.000   63.755955064  -68.510497849    87.3923   5   7   5.1711   2.6969  13.3045  -1.9721  -4.4491   7.0414   0.00    0.0
2014/01/20 22:33:30.000   63.755953893  -68.510497969    86.7361   5   7   5.2096   2.6946  13.3965  -2.0008  -4.4671   7.1169   0.00    0.0
2014/01/20 22:34:00.000   63.755953738  -68.510495723    85.8764   5   7   5.2477   2.6922  13.4856  -2.0283  -4.4839   7.1907   0.00    0.0
2014/01/20 22:34:30.000   63.755953132  -68.510501170    88.3384   5   7   5.2851   2.6895  13.5717  -2.0545  -4.4993   7.2625   0.00    0.0
2014/01/20 22:35:00.000   63.755952292  -68.510499741    86.9316   5   7   5.3219   2.6865  13.6544  -2.0794  -4.5134   7.3321   0.00    0.0
2014/01/20 22:35:30.000   63.755949503  -68.510495830    85.8301   5   7   5.3578   2.6833  13.7334  -2.1030  -4.5259   7.3994   0.00    0.0
2014/01/20 22:36:00.000   63.755953924  -68.510497365    86.5926   5   7   5.3928   2.6798  13.8083  -2.1252  -4.5369   7.4640   0.00    0.0
2014/01/20 22:36:30.000   63.755945707  -68.510498301    84.6681   5   7   5.4267   2.6760  13.8790  -2.1460  -4.5461   7.5259   0.00    0.0
2014/01/20 22:37:00.000   63.755947523  -68.510498047    84.6784   5   7   5.4594   2.6719  13.9450  -2.1653  -4.5535   7.5848   0.00    0.0
2014/01/20 22:37:30.000   63.755952025  -68.510499729    86.9010   5   7   5.4908   2.6675  14.0060  -2.1830  -4.5591   7.6406   0.00    0.0
2014/01/20 22:38:00.000   63.755949317  -68.510497162    86.5423   5   7   5.5208   2.6627  14.0619  -2.1992  -4.5628   7.6929   0.00    0.0
2014/01/20 22:38:30.000   63.755950575  -68.510495619    87.2759   5   7   5.5491   2.6576  14.1123  -2.2138  -4.5644   7.7418   0.00    0.0
2014/01/20 22:39:00.000   63.755949078  -68.510499706    85.0708   5   7   5.5758   2.6521  14.1570  -2.2267  -4.5639   7.7869   0.00    0.0
2014/01/20 22:39:30.000   63.755947154  -68.510498524    86.4467   5   7   5.6008   2.6463  14.1957  -2.2379  -4.5612   7.8281   0.00    0.0
2014/01/20 22:40:00.000   63.755949870  -68.510497796    86.4055   5   7   5.6238   2.6401  14.2282  -2.2475  -4.5563   7.8653   0.00    0.0
2014/01/20 22:40:30.000   63.755953196  -68.510502065    88.2514   5   7   5.6448   2.6335  14.2543  -2.2553  -4.5492   7.8983   0.00    0.0
2014/01/20 22:41:00.000   63.755950252  -68.510497285    87.2380   5   7   5.6638   2.6265  14.2740  -2.2614  -4.5398   7.9270   0.00    0.0
2014/01/20 22:41:30.000   63.755951837  -68.510499467    86.6489   5   7   5.6806   2.6192  14.2869  -2.2657  -4.5280   7.9513   0.00    0.0
2014/01/20 22:42:00.000   63.755950849  -68.510499980    87.4839   5   7   5.6952   2.6115  14.2931  -2.2682  -4.5139   7.9711   0.00    0.0
2014/01/20 22:42:30.000   63.755948966  -68.510501793    86.7181   5   7   5.7075   2.6035  14.2924  -2.2690  -4.4975   7.9864   0.00    0.0
2014/01/20 22:43:00.000   63.755952187  -68.510503257    88.3841   5   6   9.4135   2.6868  30.0818  -3.2169  -6.2036  16.1843   0.00    0.0
2014/01/20 22:43:30.000   63.755950495  -68.510500506    88.3092   5   6   9.6996   2.6857  31.0215  -3.2861  -6.3091  16.7247   0.00    0.0
2014/01/20 22:44:00.000   63.755946672  -68.510500384    86.4222   5   6   9.9945   2.6841  31.9863  -3.3541  -6.4132  17.2792   0.00    0.0
2014/01/20 22:44:30.000   63.755942860  -68.510501490    85.4816   5   6  10.2965   2.6818  32.9708  -3.4200  -6.5142  17.8447   0.00    0.0
2014/01/20 22:45:00.000   63.755945308  -68.510499929    84.5607   5   6  10.6036   2.6787  33.9676  -3.4831  -6.6104  18.4172   0.00    0.0
2014/01/20 22:45:30.000   63.755942509  -68.510499112    83.9018   5   6  10.9129   2.6746  34.9673  -3.5419  -6.6997  18.9914   0.00    0.0
2014/01/20 22:46:00.000   63.755943228  -68.510502495    84.5737   5   6  11.2209   2.6693  35.9582  -3.5952  -6.7798  19.5608   0.00    0.0
2014/01/20 22:46:30.000   63.755950595  -68.510499898    87.2600   5   6  11.5232   2.6625  36.9259  -3.6415  -6.8477  20.1174   0.00    0.0
2014/01/20 22:47:00.000   63.755938150  -68.510499518    82.7182   5   6  11.8148   2.6541  37.8539  -3.6790  -6.9006  20.6520   0.00    0.0
2014/01/20 22:47:30.000   63.755954682  -68.510503016    88.6002   5   6  12.0898   2.6439  38.7232  -3.7059  -6.9350  21.1540   0.00    0.0
2014/01/20 22:48:00.000   63.755949487  -68.510502789    87.6496   5   6  12.3420   2.6317  39.5134  -3.7204  -6.9479  21.6119   0.00    0.0
2014/01/20 22:48:30.000   63.755952378  -68.510506381    88.8560   5   6  12.5648   2.6175  40.2032  -3.7206  -6.9361  22.0139   0.00    0.0
2014/01/20 22:49:00.000   63.755954390  -68.510501353    89.3346   5   6  12.7517   2.6013  40.7719  -3.7052  -6.8967  22.3482   0.00    0.0
2014/01/20 22:49:30.000   63.755952734  -68.510503726    87.7109   5   6  12.8967   2.5831  41.2004  -3.6727  -6.8277  22.6041   0.00    0.0
2014/01/20 22:50:00.000   63.755952246  -68.510505885    87.8641   5   6  12.9950   2.5631  41.4732  -3.6225  -6.7277  22.7729   0.00    0.0
2014/01/20 22:50:30.000   63.755955876  -68.510499819    88.7053   5   6  13.0429   2.5417  41.5795  -3.5544  -6.5965  22.8483   0.00    0.0
2014/01/20 22:51:00.000   63.755950475  -68.510504225    88.2426   5   6  13.0388   2.5193  41.5144  -3.4689  -6.4348  22.8274   0.00    0.0
2014/01/20 22:51:30.000   63.755953839  -68.510504467    88.7664   5   6  12.9829   2.4962  41.2794  -3.3669  -6.2446  22.7109   0.00    0.0
2014/01/20 22:52:00.000   63.755960420  -68.510502753    90.4956   5   6  12.8773   2.4731  40.8820  -3.2501  -6.0286  22.5028   0.00    0.0
2014/01/20 22:52:30.000   63.755962331  -68.510502496    90.6734   5   6  12.7259   2.4503  40.3355  -3.1204  -5.7906  22.2102   0.00    0.0
2014/01/20 22:53:00.000   63.755950735  -68.510504998    87.6138   5   6  12.5338   2.4284  39.6572  -2.9802  -5.5344  21.8429   0.00    0.0
2014/01/20 22:53:30.000   63.755950235  -68.510504992    88.3362   5   6  12.3072   2.4076  38.8674  -2.8318  -5.2644  21.4119   0.00    0.0
2014/01/20 22:54:00.000   63.755958863  -68.510505157    89.9904   5   6  12.0526   2.3882  37.9875  -2.6775  -4.9845  20.9292   0.00    0.0
2014/01/20 22:54:30.000   63.755963337  -68.510504652    91.8416   5   6  11.7763   2.3704  37.0388  -2.5194  -4.6986  20.4067   0.00    0.0
2014/01/20 22:55:00.000   63.755962357  -68.510504027    92.3099   5   6  11.4847   2.3543  36.0415  -2.3595  -4.4098  19.8556   0.00    0.0
2014/01/20 22:55:30.000   63.755964793  -68.510503356    92.8338   5   6  11.1833   2.3398  35.0139  -2.1991  -4.1209  19.2861   0.00    0.0
2014/01/20 22:56:00.000   63.755966803  -68.510507675    93.6464   5   6  10.8769   2.3270  33.9718  -2.0396  -3.8338  18.7072   0.00    0.0
2014/01/20 22:56:30.000   63.755952042  -68.510506798    89.0175   5   6  10.5697   2.3158  32.9285  -1.8817  -3.5500  18.1263   0.00    0.0
2014/01/20 22:57:00.000   63.755962587  -68.510503016    91.8459   5   6  10.2650   2.3059  31.8949  -1.7260  -3.2704  17.5494   0.00    0.0
2014/01/20 22:57:30.000   63.755962546  -68.510502028    91.7375   5   6   9.9655   2.2974  30.8794  -1.5725  -2.9951  16.9816   0.00    0.0
2014/01/20 22:58:00.000   63.755955600  -68.510507071    89.0713   5   6   9.6732   2.2900  29.8885  -1.4211  -2.7237  16.4265   0.00    0.0
2014/01/20 22:58:30.000   63.755959124  -68.510506129    90.6846   5   6   9.3895   2.2836  28.9270  -1.2713  -2.4555  15.8867   0.00    0.0
2014/01/20 22:59:00.000   63.755954138  -68.510506580    88.3424   5   6   9.1155   2.2781  27.9981  -1.1220  -2.1884  15.3642   0.00    0.0
2014/01/20 22:59:30.000   63.755963471  -68.510506453    91.8901   5   6   8.8519   2.2734  27.1038  -0.9714  -1.9198  14.8603   0.00    0.0
2014/01/20 23:00:00.000   63.755955000  -68.510508079    90.2082   5   6   8.5990   2.2693  26.2452  -0.8163  -1.6449  14.3755   0.00    0.0
2014/01/20 23:00:30.000   63.755962760  -68.510503302    92.3260   5   6   8.3537   2.2632  25.4228  -0.6696  -1.3570  13.9099   0.00    0.0
2014/01/20 23:01:00.000   63.755964066  -68.510505683    91.9758   5   6   8.1230   2.2606  24.6363  -0.4814  -1.0346  13.4643   0.00    0.0
2014/01/20 23:01:30.000   63.755965492  -68.510500894    91.7787   5   6   7.9030   2.2584  23.8851  -0.2073  -0.6240  13.0377   0.00    0.0
2014/01/20 23:02:00.000   63.755970026  -68.510499338    93.2609   5   6   7.6932   2.2566  23.1682   0.3476   0.4597  12.6297   0.00    0.0
2014/01/20 23:02:30.000   63.755965494  -68.510505181    92.0113   5   6   7.4934   2.2551  22.4845   0.5124   0.8605  12.2397   0.00    0.0
2014/01/20 23:03:00.000   63.755964283  -68.510500964    92.6238   5   6   7.3033   2.2537  21.8327   0.6201   1.0983  11.8670   0.00    0.0
2014/01/20 23:03:30.000   63.755965916  -68.510505472    92.3196   5   6   7.1223   2.2526  21.2114   0.6994   1.2712  11.5110   0.00    0.0
2014/01/20 23:04:00.000   63.755964452  -68.510500709    92.8488   5   6   6.9502   2.2517  20.6193   0.7604   1.4057  11.1709   0.00    0.0
2014/01/20 23:04:30.000   63.755967960  -68.510503793    92.7904   5   6   6.7864   2.2508  20.0550   0.8084   1.5138  10.8458   0.00    0.0
2014/01/20 23:05:00.000   63.755965392  -68.510504354    92.7076   5   6   6.6305   2.2501  19.5170   0.8465   1.6026  10.5352   0.00    0.0
2014/01/20 23:05:30.000   63.755963638  -68.510506175    92.3063   5   6   6.4822   2.2495  19.0039   0.8769   1.6765  10.2382   0.00    0.0
2014/01/20 23:06:00.000   63.755963751  -68.510503502    93.2100   5   6   6.3410   2.2489  18.5144   0.9010   1.7384   9.9541   0.00    0.0
2014/01/20 23:06:30.000   63.755967588  -68.510503793    92.9108   5   6   6.2065   2.2484  18.0473   0.9199   1.7906   9.6822   0.00    0.0
2014/01/20 23:07:00.000   63.755964207  -68.510501677    92.9920   5   6   6.0784   2.2480  17.6014   0.9344   1.8348   9.4220   0.00    0.0
2014/01/20 23:07:30.000   63.755963099  -68.510504010    92.3884   5   6   5.9563   2.2476  17.1754   0.9451   1.8723   9.1726   0.00    0.0
2014/01/20 23:08:00.000   63.755966324  -68.510501905    93.1967   5   6   5.8399   2.2472  16.7683   0.9526   1.9041   8.9336   0.00    0.0
2014/01/20 23:08:30.000   63.755959907  -68.510502500    93.0486   5   6   5.7288   2.2468  16.3790   0.9574   1.9310   8.7044   0.00    0.0
2014/01/20 23:09:00.000   63.755964105  -68.510501616    91.8197   5   6   5.6229   2.2464  16.0066   0.9596   1.9537   8.4844   0.00    0.0
2014/01/20 23:09:30.000   63.755964154  -68.510505606    93.0817   5   6   5.5217   2.2461  15.6501   0.9598   1.9728   8.2731   0.00    0.0
2014/01/20 23:10:00.000   63.755967925  -68.510507294    93.3284   5   6   5.4250   2.2457  15.3086   0.9580   1.9888   8.0701   0.00    0.0
2014/01/20 23:10:30.000   63.755965290  -68.510503251    92.0824   5   6   5.3326   2.2454  14.9814   0.9545   2.0020   7.8750   0.00    0.0
2014/01/20 23:11:00.000   63.755963580  -68.510501987    91.9171   5   6   5.2442   2.2450  14.6676   0.9495   2.0128   7.6872   0.00    0.0
2014/01/20 23:11:30.000   63.755965775  -68.510508308    92.3505   5   6   5.1597   2.2447  14.3666   0.9431   2.0216   7.5064   0.00    0.0
2014/01/20 23:12:00.000   63.755962209  -68.510507594    92.3371   5   6   5.0787   2.2443  14.0776   0.9354   2.0284   7.3323   0.00    0.0
2014/01/20 23:12:30.000   63.755966268  -68.510503803    91.6934   5   6   5.0012   2.2440  13.8001   0.9266   2.0337   7.1644   0.00    0.0
2014/01/20 23:13:00.000   63.755970389  -68.510501098    92.6391   5   6   4.9269   2.2436  13.5334   0.9167   2.0375   7.0025   0.00    0.0
2014/01/20 23:13:30.000   63.755969767  -68.510496253    92.3489   5   6   4.8557   2.2432  13.2770   0.9058   2.0400   6.8463   0.00    0.0
2014/01/20 23:14:00.000   63.755968322  -68.510502059    92.5958   5   6   4.7874   2.2429  13.0303   0.8940   2.0414   6.6955   0.00    0.0
2014/01/20 23:14:30.000   63.755966839  -68.510501246    91.2757   5   6   4.7219   2.2425  12.7929   0.8814   2.0417   6.5497   0.00    0.0
2014/01/20 23:15:00.000   63.755966497  -68.510504409    92.1759   5   6   4.6589   2.2421  12.5643   0.8679   2.0412   6.4088   0.00    0.0
2014/01/20 23:15:30.000   63.755964566  -68.510508146    92.4526   5   6   4.5964   2.2399  12.3327   0.8463   2.0282   6.2665   0.00    0.0
2014/01/20 23:16:00.000   63.755967799  -68.510502935    91.8993   5   6   4.5261   2.2390  12.1049   0.8439   2.0371   6.1177   0.00    0.0
2014/01/20 23:16:30.000   63.755970946  -68.510501155    92.3242   5   6   4.4726   2.2390  11.9049   0.8275   2.0346   5.9938   0.00    0.0
2014/01/20 23:17:00.000   63.755967724  -68.510507242    91.7897   5   6   4.4213   2.2389  11.7119   0.8103   2.0315   5.8737   0.00    0.0
2014/01/20 23:17:30.000   63.755963524  -68.510508284    91.8141   5   6   4.3719   2.2389  11.5255   0.7925   2.0280   5.7573   0.00    0.0
2014/01/20 23:18:00.000   63.755966632  -68.510511722    92.1382   5   6   4.3243   2.2388  11.3455   0.7738   2.0239   5.6444   0.00    0.0
2014/01/20 23:18:30.000   63.755968139  -68.510507961    92.4591   5   6   4.2786   2.2388  11.1715   0.7545   2.0195   5.5349   0.00    0.0
2014/01/20 23:19:00.000   63.755967231  -68.510507103    91.8353   5   6   4.2346   2.2387  11.0032   0.7343   2.0147   5.4285   0.00    0.0
2014/01/20 23:19:30.000   63.755964965  -68.510504499    91.1671   5   6   4.1921   2.2387  10.8405   0.7133   2.0096   5.3252   0.00    0.0
2014/01/20 23:20:00.000   63.755963462  -68.510505049    91.4887   5   6   4.1513   2.2386  10.6830   0.6915   2.0042   5.2248   0.00    0.0
2014/01/20 23:20:30.000   63.755961589  -68.510505377    92.2495   5   6   4.1119   2.2386  10.5305   0.6688   1.9985   5.1272   0.00    0.0
2014/01/20 23:21:00.000   63.755965677  -68.510502146    91.4076   5   6   4.0739   2.2386  10.3829   0.6452   1.9926   5.0323   0.00    0.0
2014/01/20 23:21:30.000   63.755966234  -68.510508245    92.7136   5   6   4.0373   2.2385  10.2399   0.6205   1.9864   4.9399   0.00    0.0
2014/01/20 23:22:00.000   63.755966044  -68.510507755    92.3804   5   6   4.0020   2.2385  10.1012   0.5947   1.9801   4.8499   0.00    0.0
2014/01/20 23:22:30.000   63.755969954  -68.510497428    90.7770   5   6   3.9679   2.2385   9.9668   0.5676   1.9737   4.7623   0.00    0.0
2014/01/20 23:23:00.000   63.755969820  -68.510500993    91.1020   5   6   3.9350   2.2384   9.8365   0.5390   1.9671   4.6770   0.00    0.0
2014/01/20 23:23:30.000   63.755966946  -68.510504159    92.2941   5   6   3.9033   2.2384   9.7100   0.5089   1.9603   4.5938   0.00    0.0
2014/01/20 23:24:00.000   63.755964756  -68.510507780    92.3231   5   6   3.8726   2.2384   9.5872   0.4767   1.9535   4.5127   0.00    0.0
2014/01/20 23:24:30.000   63.755965702  -68.510503932    92.6466   5   6   3.8430   2.2384   9.4681   0.4422   1.9465   4.4335   0.00    0.0
2014/01/20 23:25:00.000   63.755963617  -68.510498251    91.0973   5   6   3.8144   2.2384   9.3523   0.4048   1.9395   4.3563   0.00    0.0
2014/01/20 23:25:30.000   63.755964184  -68.510502954    92.9213   5   6   3.7867   2.2384   9.2399   0.3636   1.9323   4.2809   0.00    0.0
2014/01/20 23:26:00.000   63.755967287  -68.510503288    91.5613   5   6   3.7600   2.2384   9.1307   0.3171   1.9252   4.2073   0.00    0.0
2014/01/20 23:26:30.000   63.755965891  -68.510501223    91.3932   5   6   3.7342   2.2385   9.0245   0.2625   1.9179   4.1354   0.00    0.0
2014/01/20 23:27:00.000   63.755967798  -68.510502035    91.7757   5   6   3.7092   2.2385   8.9212   0.1933   1.9106   4.0651   0.00    0.0
2014/01/20 23:27:30.000   63.755964615  -68.510498098    91.1045   5   6   3.6851   2.2386   8.8208   0.0765   1.9033   3.9964   0.00    0.0
2014/01/20 23:28:00.000   63.755966404  -68.510496471    91.0900   5   6   3.6617   2.2386   8.7231  -0.1599   1.8959   3.9292   0.00    0.0
2014/01/20 23:28:30.000   63.755970054  -68.510495785    90.5645   5   6   3.6392   2.2387   8.6280  -0.2386   1.8885   3.8634   0.00    0.0
2014/01/20 23:29:00.000   63.755970312  -68.510496656    91.3227   5   6   3.6173   2.2388   8.5354  -0.2970   1.8811   3.7991   0.00    0.0
2014/01/20 23:29:30.000   63.755968575  -68.510498562    92.3342   5   6   3.5962   2.2389   8.4453  -0.3455   1.8736   3.7361   0.00    0.0
2014/01/20 23:30:00.000   63.755965336  -68.510503916    92.4085   5   6   3.5758   2.2390   8.3575  -0.3879   1.8661   3.6744   0.00    0.0
2014/01/20 23:30:30.000   63.755967112  -68.510497572    91.9259   5   6   3.5560   2.2391   8.2720  -0.4259   1.8586   3.6139   0.00    0.0
2014/01/20 23:31:00.000   63.755965381  -68.510500123    91.7277   5   6   3.5368   2.2392   8.1887  -0.4608   1.8511   3.5547   0.00    0.0
2014/01/20 23:31:30.000   63.755968033  -68.510497564    92.6492   5   6   3.5183   2.2394   8.1075  -0.4930   1.8436   3.4967   0.00    0.0
2014/01/20 23:32:00.000   63.755969945  -68.510490105    90.6865   5   6   3.5004   2.2395   8.0284  -0.5232   1.8361   3.4398   0.00    0.0
2014/01/20 23:32:30.000   63.755968857  -68.510490030    91.2121   5   6   3.4831   2.2397   7.9512  -0.5516   1.8286   3.3839   0.00    0.0
2014/01/20 23:33:00.000   63.755964230  -68.510499208    92.3102   5   6   3.4663   2.2399   7.8760  -0.5785   1.8211   3.3292   0.00    0.0
2014/01/20 23:33:30.000   63.755963452  -68.510499554    92.2061   5   6   3.4500   2.2401   7.8026  -0.6041   1.8136   3.2754   0.00    0.0
2014/01/20 23:34:00.000   63.755968351  -68.510495835    91.5565   5   6   3.4343   2.2403   7.7309  -0.6286   1.8061   3.2226   0.00    0.0
2014/01/20 23:34:30.000   63.755968611  -68.510492709    91.1176   5   6   3.4191   2.2405   7.6611  -0.6521   1.7986   3.1708   0.00    0.0
2014/01/20 23:35:00.000   63.755969536  -68.510495748    90.9557   5   6   3.4044   2.2408   7.5928  -0.6746   1.7911   3.1199   0.00    0.0
2014/01/20 23:35:30.000   63.755962430  -68.510498753    92.1944   5   6   3.3902   2.2410   7.5262  -0.6964   1.7836   3.0699   0.00    0.0
2014/01/20 23:36:00.000   63.755973885  -68.510488806    91.0797   5   6   3.3764   2.2413   7.4612  -0.7174   1.7761   3.0207   0.00    0.0
2014/01/20 23:36:30.000   63.755972825  -68.510492005    91.2561   5   6   3.3631   2.2416   7.3977  -0.7377   1.7686   2.9724   0.00    0.0
2014/01/20 23:37:00.000   63.755964520  -68.510505154    92.3257   5   6   3.3502   2.2419   7.3357  -0.7574   1.7611   2.9249   0.00    0.0
2014/01/20 23:37:30.000   63.755968270  -68.510498269    92.0136   5   6   3.3377   2.2422   7.2673  -0.7765   1.7533   2.8772   0.00    0.0
2014/01/20 23:38:00.000   63.755968586  -68.510493291    91.2713   5   6   3.3256   2.2425   7.2093  -0.7951   1.7458   2.8314   0.00    0.0
2014/01/20 23:38:30.000   63.755968982  -68.510496857    91.0906   5   6   3.3140   2.2429   7.1527  -0.8132   1.7384   2.7863   0.00    0.0
2014/01/20 23:39:00.000   63.755969511  -68.510498263    91.6442   5   6   3.3027   2.2433   7.0974  -0.8308   1.7310   2.7418   0.00    0.0
2014/01/20 23:39:30.000   63.755960817  -68.510500824    91.3044   5   6   3.2919   2.2436   7.0434  -0.8480   1.7235   2.6981   0.00    0.0
2014/01/20 23:40:00.000   63.755964129  -68.510495589    91.5447   5   6   3.2813   2.2440   6.9906  -0.8647   1.7162   2.6550   0.00    0.0
2014/01/20 23:40:30.000   63.755973247  -68.510488492    91.0693   5   6   3.2712   2.2445   6.9390  -0.8811   1.7088   2.6125   0.00    0.0
2014/01/20 23:41:00.000   63.755967153  -68.510497980    92.8586   5   6   3.2614   2.2449   6.8885  -0.8971   1.7014   2.5706   0.00    0.0
2014/01/20 23:41:30.000   63.755965705  -68.510496508    91.5528   5   6   3.2519   2.2454   6.8392  -0.9128   1.6941   2.5293   0.00    0.0
2014/01/20 23:42:00.000   63.755968527  -68.510492020    91.1564   5   6   3.2428   2.2459   6.7909  -0.9281   1.6867   2.4886   0.00    0.0
2014/01/20 23:42:30.000   63.755971101  -68.510488654    90.2715   5   6   3.2340   2.2464   6.7437  -0.9432   1.6794   2.4484   0.00    0.0
2014/01/20 23:43:00.000   63.755966508  -68.510496493    92.3646   5   6   3.2255   2.2469   6.6975  -0.9579   1.6721   2.4087   0.00    0.0
2014/01/20 23:43:30.000   63.755967670  -68.510488651    90.7252   5   6   3.2174   2.2474   6.6524  -0.9724   1.6648   2.3696   0.00    0.0
2014/01/20 23:44:00.000   63.755962810  -68.510496078    93.1825   5   6   3.2095   2.2480   6.6082  -0.9866   1.6575   2.3309   0.00    0.0
2014/01/20 23:44:30.000   63.755972663  -68.510496650    89.7048   5   7   3.1192   2.0024   5.9592  -0.5112  -0.3073   2.6923   0.00    0.0
2014/01/20 23:45:00.000   63.755971314  -68.510507120    90.7304   5   7   3.1071   2.0006   5.9318  -0.5148  -0.2981   2.6647   0.00    0.0
2014/01/20 23:45:30.000   63.755967586  -68.510504277    90.5857   5   7   3.0951   1.9989   5.9050  -0.5184  -0.2887   2.6373   0.00    0.0
2014/01/20 23:46:00.000   63.755974132  -68.510499731    89.9155   5   7   3.0834   1.9971   5.8788  -0.5221  -0.2789   2.6102   0.00    0.0
2014/01/20 23:46:30.000   63.755972238  -68.510498684    90.9265   5   7   3.0718   1.9954   5.8532  -0.5257  -0.2689   2.5833   0.00    0.0
2014/01/20 23:47:00.000   63.755966221  -68.510493822    90.5662   5   7   3.0605   1.9938   5.8282  -0.5293  -0.2585   2.5566   0.00    0.0
2014/01/20 23:47:30.000   63.755968455  -68.510496144    91.0548   5   7   3.0493   1.9921   5.8037  -0.5329  -0.2477   2.5302   0.00    0.0
2014/01/20 23:48:00.000   63.755966124  -68.510497877    91.1570   5   7   3.0384   1.9905   5.7798  -0.5365  -0.2364   2.5039   0.00    0.0
2014/01/20 23:48:30.000   63.755968049  -68.510495903    90.5067   5   7   3.0276   1.9889   5.7564  -0.5401  -0.2245   2.4777   0.00    0.0
2014/01/20 23:49:00.000   63.755969841  -68.510500683    91.3058   5   7   3.0170   1.9873   5.7336  -0.5438  -0.2120   2.4518   0.00    0.0
2014/01/20 23:49:30.000   63.755970591  -68.510501132    90.6228   5   7   3.0067   1.9857   5.7112  -0.5474  -0.1988   2.4260   0.00    0.0
2014/01/20 23:50:00.000   63.755966947  -68.510500877    91.4526   5   7   2.9965   1.9842   5.6894  -0.5510  -0.1846   2.4003   0.00    0.0
2014/01/20 23:50:30.000   63.755968333  -68.510499832    90.6469   5   7   2.9865   1.9827   5.6681  -0.5547  -0.1692   2.3748   0.00    0.0
2014/01/20 23:51:00.000   63.755973697  -68.510497755    91.0588   5   7   2.9767   1.9813   5.6472  -0.5584  -0.1523   2.3494   0.00    0.0
2014/01/20 23:51:30.000   63.755970936  -68.510494485    89.6700   5   7   2.9671   1.9799   5.6268  -0.5620  -0.1333   2.3241   0.00    0.0
2014/01/20 23:52:00.000   63.755975846  -68.510500493    90.6690   5   6   3.5027   2.2648   6.4185   1.3223  -1.8590  -0.7595   0.00    0.0
2014/01/20 23:52:30.000   63.755966292  -68.510491410    89.9852   5   6   3.4895   2.2601   6.4081   1.3113  -1.8555  -0.8277   0.00    0.0
2014/01/20 23:53:00.000   63.755982464  -68.510507486    91.1557   5   6   3.4766   2.2555   6.3981   1.3004  -1.8518  -0.8899   0.00    0.0
2014/01/20 23:53:30.000   63.755970267  -68.510490027    90.2589   5   6   3.4639   2.2509   6.3884   1.2896  -1.8481  -0.9472   0.00    0.0
2014/01/20 23:54:00.000   63.755976901  -68.510494953    90.5216   5   6   3.4515   2.2463   6.3792   1.2787  -1.8443  -1.0005   0.00    0.0
2014/01/20 23:54:30.000   63.755969888  -68.510496412    91.0378   5   6   3.4394   2.2418   6.3703   1.2680  -1.8403  -1.0506   0.00    0.0
2014/01/20 23:55:00.000   63.755973721  -68.510490567    89.5519   5   6   3.4275   2.2373   6.3617   1.2572  -1.8363  -1.0978   0.00    0.0
2014/01/20 23:55:30.000   63.755975478  -68.510498612    90.5615   5   6   3.4160   2.2329   6.3535   1.2465  -1.8322  -1.1425   0.00    0.0
2014/01/20 23:56:00.000   63.755969764  -68.510494055    90.2444   5   6   3.4047   2.2285   6.3456   1.2357  -1.8280  -1.1851   0.00    0.0
2014/01/20 23:56:30.000   63.755966654  -68.510491086    90.8243   5   6   3.3936   2.2242   6.3381   1.2250  -1.8237  -1.2257   0.00    0.0
2014/01/20 23:57:00.000   63.755972762  -68.510494554    91.3465   5   6   3.3828   2.2199   6.3308   1.2144  -1.8194  -1.2646   0.00    0.0
2014/01/20 23:57:30.000   63.755970793  -68.510492342    89.9769   5   6   3.3723   2.2157   6.3239   1.2037  -1.8149  -1.3020   0.00    0.0
2014/01/20 23:58:00.000   63.755975226  -68.510493209    90.4259   5   6   3.3621   2.2115   6.3172   1.1930  -1.8103  -1.3380   0.00    0.0
2014/01/20 23:58:30.000   63.755970929  -68.510491566    90.7364   5   6   3.3521   2.2074   6.3109   1.1824  -1.8056  -1.3727   0.00    0.0
2014/01/20 23:59:00.000   63.755968396  -68.510492868    91.2955   5   6   3.3423   2.2033   6.3048   1.1717  -1.8008  -1.4062   0.00    0.0
2014/01/20 23:59:30.000   63.755969788  -68.510496354    90.3211   5   6   3.3329   2.1992   6.2989   1.1611  -1.7959  -1.4387   0.00    0.0
